{
 "//": [
  "Downloaded from OpenStreetMap (ODbL licence). Read by tools/build_buildings.py for floor counts NMSU doesn't list.",
  "Format: GeoJSON. One Feature per building: properties id (NMSU property number), name, osmId, osmType,",
  "address, levels (number of floors, as text), center and source. Update it from OpenStreetMap; don't type facts in."
 ],
 "type": "FeatureCollection",
 "features": [
  {
   "type": "Feature",
   "properties": {
    "id": "323",
    "name": "Hardman and Jacobs Undergraduate Learning Center",
    "osmId": 453824115,
    "osmType": "way",
    "address": "2902 McFie Circle",
    "levels": "2",
    "center": [
     -106.751245,
     32.282511
    ],
    "source": "OpenStreetMap way/453824115 (ODbL)"
   },
   "geometry": {
    "type": "Polygon",
    "coordinates": [
     [
      [
       -106.751544,
       32.282719
      ],
      [
       -106.751495,
       32.28253
      ],
      [
       -106.751441,
       32.282541
      ],
      [
       -106.751435,
       32.282522
      ],
      [
       -106.751393,
       32.28237
      ],
      [
       -106.751237,
       32.282401
      ],
      [
       -106.751212,
       32.282313
      ],
      [
       -106.751296,
       32.282297
      ],
      [
       -106.751254,
       32.282147
      ],
      [
       -106.750895,
       32.282219
      ],
      [
       -106.750937,
       32.282367
      ],
      [
       -106.750979,
       32.282359
      ],
      [
       -106.751015,
       32.282488
      ],
      [
       -106.750916,
       32.282508
      ],
      [
       -106.750956,
       32.28265
      ],
      [
       -106.751047,
       32.282631
      ],
      [
       -106.751092,
       32.282803
      ],
      [
       -106.751544,
       32.282719
      ]
     ]
    ]
   }
  },
  {
   "type": "Feature",
   "properties": {
    "id": "461",
    "name": "Zuhl Library",
    "osmId": 51543919,
    "osmType": "way",
    "address": "2911 McFie Circle",
    "levels": "4",
    "center": [
     -106.749648,
     32.281469
    ],
    "source": "OpenStreetMap way/51543919 (ODbL)"
   },
   "geometry": {
    "type": "Polygon",
    "coordinates": [
     [
      [
       -106.750003,
       32.281253
      ],
      [
       -106.750065,
       32.281501
      ],
      [
       -106.749914,
       32.281528
      ],
      [
       -106.749938,
       32.281624
      ],
      [
       -106.749704,
       32.281666
      ],
      [
       -106.749714,
       32.281705
      ],
      [
       -106.749513,
       32.281741
      ],
      [
       -106.749503,
       32.281702
      ],
      [
       -106.74941,
       32.281719
      ],
      [
       -106.749389,
       32.281637
      ],
      [
       -106.749299,
       32.281654
      ],
      [
       -106.749214,
       32.281319
      ],
      [
       -106.749806,
       32.281212
      ],
      [
       -106.749825,
       32.281286
      ],
      [
       -106.750003,
       32.281253
      ]
     ]
    ]
   }
  },
  {
   "type": "Feature",
   "properties": {
    "id": "285",
    "name": "Corbett Center Student Union",
    "osmId": 82032369,
    "osmType": "way",
    "address": "1600 International Mall",
    "levels": "3",
    "center": [
     -106.747659,
     32.282875
    ],
    "source": "OpenStreetMap way/82032369 (ODbL)"
   },
   "geometry": {
    "type": "Polygon",
    "coordinates": [
     [
      [
       -106.748449,
       32.282934
      ],
      [
       -106.748259,
       32.282966
      ],
      [
       -106.748265,
       32.282992
      ],
      [
       -106.748287,
       32.282986
      ],
      [
       -106.748312,
       32.282994
      ],
      [
       -106.748326,
       32.283007
      ],
      [
       -106.748337,
       32.283026
      ],
      [
       -106.748334,
       32.283047
      ],
      [
       -106.748322,
       32.283062
      ],
      [
       -106.748303,
       32.283069
      ],
      [
       -106.74828,
       32.283069
      ],
      [
       -106.748246,
       32.283075
      ],
      [
       -106.748259,
       32.283139
      ],
      [
       -106.748173,
       32.283156
      ],
      [
       -106.748157,
       32.283105
      ],
      [
       -106.747446,
       32.283235
      ],
      [
       -106.747428,
       32.283169
      ],
      [
       -106.747406,
       32.283173
      ],
      [
       -106.747382,
       32.283083
      ],
      [
       -106.747284,
       32.283101
      ],
      [
       -106.747295,
       32.283131
      ],
      [
       -106.747254,
       32.283141
      ],
      [
       -106.747307,
       32.283341
      ],
      [
       -106.74712,
       32.283375
      ],
      [
       -106.747086,
       32.283367
      ],
      [
       -106.747055,
       32.28335
      ],
      [
       -106.747026,
       32.283331
      ],
      [
       -106.747009,
       32.2833
      ],
      [
       -106.746973,
       32.283162
      ],
      [
       -106.747044,
       32.283149
      ],
      [
       -106.747038,
       32.283129
      ],
      [
       -106.747025,
       32.283071
      ],
      [
       -106.746955,
       32.282775
      ],
      [
       -106.746956,
       32.28274
      ],
      [
       -106.746965,
       32.28271
      ],
      [
       -106.746984,
       32.282682
      ],
      [
       -106.747003,
       32.282656
      ],
      [
       -106.747029,
       32.282639
      ],
      [
       -106.74706,
       32.282626
      ],
      [
       -106.747584,
       32.282531
      ],
      [
       -106.747632,
       32.282723
      ],
      [
       -106.748068,
       32.282645
      ],
      [
       -106.748044,
       32.282557
      ],
      [
       -106.748137,
       32.282541
      ],
      [
       -106.748127,
       32.2825
      ],
      [
       -106.748424,
       32.282447
      ],
      [
       -106.748527,
       32.282848
      ],
      [
       -106.748435,
       32.282865
      ],
      [
       -106.748449,
       32.282934
      ]
     ]
    ]
   }
  },
  {
   "type": "Feature",
   "properties": {
    "id": "278",
    "name": "Branson Hall Library",
    "osmId": 51543913,
    "osmType": "way",
    "address": "1305 Frenger Mall",
    "levels": "4",
    "center": [
     -106.751995,
     32.281564
    ],
    "source": "OpenStreetMap way/51543913 (ODbL)"
   },
   "geometry": {
    "type": "Polygon",
    "coordinates": [
     [
      [
       -106.752485,
       32.28151
      ],
      [
       -106.752556,
       32.281497
      ],
      [
       -106.752566,
       32.281533
      ],
      [
       -106.752626,
       32.281521
      ],
      [
       -106.752704,
       32.281818
      ],
      [
       -106.75256,
       32.281845
      ],
      [
       -106.752513,
       32.281665
      ],
      [
       -106.752144,
       32.281735
      ],
      [
       -106.752158,
       32.281788
      ],
      [
       -106.752084,
       32.281802
      ],
      [
       -106.752069,
       32.281745
      ],
      [
       -106.751931,
       32.281771
      ],
      [
       -106.751907,
       32.281681
      ],
      [
       -106.751451,
       32.281767
      ],
      [
       -106.75138,
       32.281501
      ],
      [
       -106.751751,
       32.281431
      ],
      [
       -106.752076,
       32.281369
      ],
      [
       -106.752086,
       32.281407
      ],
      [
       -106.75244,
       32.28134
      ],
      [
       -106.752485,
       32.28151
      ]
     ]
    ]
   }
  },
  {
   "type": "Feature",
   "properties": {
    "id": "science-hall",
    "name": "Science Hall",
    "osmId": 50202031,
    "osmType": "way",
    "address": "1290 Frenger Mall",
    "levels": "3",
    "center": [
     -106.75209,
     32.280477
    ],
    "source": "OpenStreetMap way/50202031 (ODbL)"
   },
   "geometry": {
    "type": "Polygon",
    "coordinates": [
     [
      [
       -106.752831,
       32.280656
      ],
      [
       -106.752816,
       32.2806
      ],
      [
       -106.752813,
       32.280587
      ],
      [
       -106.752758,
       32.280378
      ],
      [
       -106.752301,
       32.280464
      ],
      [
       -106.752289,
       32.280419
      ],
      [
       -106.752001,
       32.280473
      ],
      [
       -106.751925,
       32.280186
      ],
      [
       -106.751881,
       32.280194
      ],
      [
       -106.751816,
       32.279951
      ],
      [
       -106.75157,
       32.279998
      ],
      [
       -106.751625,
       32.280207
      ],
      [
       -106.751676,
       32.280197
      ],
      [
       -106.751847,
       32.280842
      ],
      [
       -106.752831,
       32.280656
      ]
     ]
    ]
   }
  },
  {
   "type": "Feature",
   "properties": {
    "id": "276WH",
    "name": "Walden Hall",
    "osmId": 50202032,
    "osmType": "way",
    "address": "1200 Frenger Mall",
    "levels": "3",
    "center": [
     -106.753101,
     32.280623
    ],
    "source": "OpenStreetMap way/50202032 (ODbL)"
   },
   "geometry": {
    "type": "Polygon",
    "coordinates": [
     [
      [
       -106.753149,
       32.280378
      ],
      [
       -106.753257,
       32.280786
      ],
      [
       -106.75301,
       32.280832
      ],
      [
       -106.753002,
       32.280834
      ],
      [
       -106.752996,
       32.280811
      ],
      [
       -106.752967,
       32.280816
      ],
      [
       -106.75296,
       32.280817
      ],
      [
       -106.752908,
       32.280619
      ],
      [
       -106.752942,
       32.280613
      ],
      [
       -106.752933,
       32.280578
      ],
      [
       -106.752917,
       32.280519
      ],
      [
       -106.752893,
       32.280427
      ],
      [
       -106.753109,
       32.280386
      ],
      [
       -106.753149,
       32.280378
      ]
     ]
    ]
   }
  },
  {
   "type": "Feature",
   "properties": {
    "id": "301",
    "name": "Thomas and Brown Hall",
    "osmId": 51543905,
    "osmType": "way",
    "address": "1125 Frenger Mall",
    "levels": "3",
    "center": [
     -106.753807,
     32.281106
    ],
    "source": "OpenStreetMap way/51543905 (ODbL)"
   },
   "geometry": {
    "type": "Polygon",
    "coordinates": [
     [
      [
       -106.754179,
       32.280952
      ],
      [
       -106.754232,
       32.281154
      ],
      [
       -106.754215,
       32.281157
      ],
      [
       -106.753804,
       32.281235
      ],
      [
       -106.753523,
       32.281287
      ],
      [
       -106.75347,
       32.281085
      ],
      [
       -106.753514,
       32.281077
      ],
      [
       -106.753728,
       32.281037
      ],
      [
       -106.753762,
       32.28103
      ],
      [
       -106.753803,
       32.281022
      ],
      [
       -106.754179,
       32.280952
      ]
     ]
    ]
   }
  },
  {
   "type": "Feature",
   "properties": {
    "id": "189",
    "name": "Jett Hall",
    "osmId": 51543906,
    "osmType": "way",
    "address": "1040 Horseshoe",
    "levels": "3",
    "center": [
     -106.75495,
     32.281119
    ],
    "source": "OpenStreetMap way/51543906 (ODbL)"
   },
   "geometry": {
    "type": "Polygon",
    "coordinates": [
     [
      [
       -106.754424,
       32.280845
      ],
      [
       -106.754582,
       32.281461
      ],
      [
       -106.755496,
       32.281292
      ],
      [
       -106.755338,
       32.280677
      ],
      [
       -106.755143,
       32.280713
      ],
      [
       -106.755263,
       32.281178
      ],
      [
       -106.754726,
       32.281276
      ],
      [
       -106.754607,
       32.280812
      ],
      [
       -106.754424,
       32.280845
      ]
     ]
    ]
   }
  },
  {
   "type": "Feature",
   "properties": {
    "id": "10",
    "name": "Goddard Hall",
    "osmId": 51543907,
    "osmType": "way",
    "address": "1100 South Horseshoe Street",
    "levels": "3",
    "center": [
     -106.754154,
     32.28144
    ],
    "source": "OpenStreetMap way/51543907 (ODbL)"
   },
   "geometry": {
    "type": "Polygon",
    "coordinates": [
     [
      [
       -106.754253,
       32.281312
      ],
      [
       -106.75428,
       32.281422
      ],
      [
       -106.754308,
       32.281537
      ],
      [
       -106.754055,
       32.281581
      ],
      [
       -106.754052,
       32.281562
      ],
      [
       -106.753981,
       32.281292
      ],
      [
       -106.754046,
       32.281281
      ],
      [
       -106.754062,
       32.281346
      ],
      [
       -106.754253,
       32.281312
      ]
     ]
    ]
   }
  },
  {
   "type": "Feature",
   "properties": {
    "id": "business-complex",
    "name": "Business Complex",
    "osmId": 81817222,
    "osmType": "way",
    "address": "1320 East University Avenue",
    "levels": "3",
    "center": [
     -106.752254,
     32.283621
    ],
    "source": "OpenStreetMap way/81817222 (ODbL)"
   },
   "geometry": {
    "type": "Polygon",
    "coordinates": [
     [
      [
       -106.751905,
       32.2838
      ],
      [
       -106.751881,
       32.283712
      ],
      [
       -106.751812,
       32.283726
      ],
      [
       -106.751805,
       32.283697
      ],
      [
       -106.75188,
       32.283682
      ],
      [
       -106.751853,
       32.283582
      ],
      [
       -106.751899,
       32.28352
      ],
      [
       -106.752131,
       32.283475
      ],
      [
       -106.752119,
       32.283428
      ],
      [
       -106.752211,
       32.28341
      ],
      [
       -106.752222,
       32.283452
      ],
      [
       -106.752445,
       32.283408
      ],
      [
       -106.752488,
       32.283567
      ],
      [
       -106.752566,
       32.283552
      ],
      [
       -106.752575,
       32.283585
      ],
      [
       -106.752494,
       32.2836
      ],
      [
       -106.75251,
       32.283659
      ],
      [
       -106.752317,
       32.283697
      ],
      [
       -106.75227,
       32.28376
      ],
      [
       -106.752225,
       32.283769
      ],
      [
       -106.75221,
       32.283716
      ],
      [
       -106.752032,
       32.28375
      ],
      [
       -106.752011,
       32.283779
      ],
      [
       -106.751905,
       32.2838
      ]
     ]
    ]
   }
  },
  {
   "type": "Feature",
   "properties": {
    "id": "chemistry-and-biochemistry-building",
    "name": "Chemistry and Biochemistry Building",
    "osmId": 81814509,
    "osmType": "way",
    "address": "1175 North Horseshoe Street",
    "levels": "3",
    "center": [
     -106.753843,
     32.283352
    ],
    "source": "OpenStreetMap way/81814509 (ODbL)"
   },
   "geometry": {
    "type": "Polygon",
    "coordinates": [
     [
      [
       -106.75403,
       32.283879
      ],
      [
       -106.754002,
       32.283777
      ],
      [
       -106.753974,
       32.283668
      ],
      [
       -106.75393,
       32.283496
      ],
      [
       -106.753913,
       32.283499
      ],
      [
       -106.753905,
       32.283468
      ],
      [
       -106.754076,
       32.283437
      ],
      [
       -106.754193,
       32.283415
      ],
      [
       -106.754076,
       32.282964
      ],
      [
       -106.753633,
       32.283046
      ],
      [
       -106.753756,
       32.283522
      ],
      [
       -106.75372,
       32.283528
      ],
      [
       -106.75382,
       32.283918
      ],
      [
       -106.75403,
       32.283879
      ]
     ]
    ]
   }
  },
  {
   "type": "Feature",
   "properties": {
    "id": "363",
    "name": "Engineering Complex I",
    "osmId": 51717460,
    "osmType": "way",
    "address": "1025 Stewart Street",
    "levels": "1",
    "center": [
     -106.754624,
     32.279677
    ],
    "source": "OpenStreetMap way/51717460 (ODbL)"
   },
   "geometry": {
    "type": "Polygon",
    "coordinates": [
     [
      [
       -106.754305,
       32.279913
      ],
      [
       -106.754306,
       32.279826
      ],
      [
       -106.754306,
       32.27959
      ],
      [
       -106.754211,
       32.27959
      ],
      [
       -106.754212,
       32.279542
      ],
      [
       -106.754212,
       32.279459
      ],
      [
       -106.754639,
       32.27946
      ],
      [
       -106.754986,
       32.27946
      ],
      [
       -106.754986,
       32.279663
      ],
      [
       -106.75489,
       32.279663
      ],
      [
       -106.75489,
       32.279914
      ],
      [
       -106.754641,
       32.279913
      ],
      [
       -106.754373,
       32.279913
      ],
      [
       -106.754305,
       32.279913
      ]
     ]
    ]
   }
  },
  {
   "type": "Feature",
   "properties": {
    "id": "397",
    "name": "John Whitlock Hernandez Hall / Engineering Complex II",
    "osmId": 51717242,
    "osmType": "way",
    "address": "3035 Espina Street",
    "levels": "3",
    "center": [
     -106.754981,
     32.280217
    ],
    "source": "OpenStreetMap way/51717242 (ODbL)"
   },
   "geometry": {
    "type": "Polygon",
    "coordinates": [
     [
      [
       -106.755146,
       32.279917
      ],
      [
       -106.755042,
       32.279928
      ],
      [
       -106.755058,
       32.279967
      ],
      [
       -106.754782,
       32.280025
      ],
      [
       -106.754824,
       32.280185
      ],
      [
       -106.7548,
       32.280189
      ],
      [
       -106.754822,
       32.280268
      ],
      [
       -106.7548,
       32.280272
      ],
      [
       -106.754826,
       32.280369
      ],
      [
       -106.754875,
       32.280543
      ],
      [
       -106.754984,
       32.280521
      ],
      [
       -106.754979,
       32.280502
      ],
      [
       -106.75503,
       32.280488
      ],
      [
       -106.755073,
       32.280469
      ],
      [
       -106.755141,
       32.280415
      ],
      [
       -106.755185,
       32.280341
      ],
      [
       -106.755198,
       32.280272
      ],
      [
       -106.755191,
       32.280212
      ],
      [
       -106.755215,
       32.280206
      ],
      [
       -106.755146,
       32.279917
      ]
     ]
    ]
   }
  },
  {
   "type": "Feature",
   "properties": {
    "id": "60",
    "name": "Clara Belle Williams Hall",
    "osmId": 82245879,
    "osmType": "way",
    "address": "1390 East University Avenue",
    "levels": "2",
    "center": [
     -106.750746,
     32.283335
    ],
    "source": "OpenStreetMap way/82245879 (ODbL)"
   },
   "geometry": {
    "type": "Polygon",
    "coordinates": [
     [
      [
       -106.751243,
       32.28347
      ],
      [
       -106.750831,
       32.283546
      ],
      [
       -106.750838,
       32.283575
      ],
      [
       -106.750807,
       32.283581
      ],
      [
       -106.750801,
       32.283557
      ],
      [
       -106.750656,
       32.283583
      ],
      [
       -106.750621,
       32.283449
      ],
      [
       -106.750656,
       32.283442
      ],
      [
       -106.750623,
       32.283317
      ],
      [
       -106.750747,
       32.283294
      ],
      [
       -106.750779,
       32.283418
      ],
      [
       -106.750794,
       32.283415
      ],
      [
       -106.7508,
       32.283438
      ],
      [
       -106.750979,
       32.283405
      ],
      [
       -106.750932,
       32.283226
      ],
      [
       -106.751007,
       32.283212
      ],
      [
       -106.750996,
       32.28317
      ],
      [
       -106.751023,
       32.283165
      ],
      [
       -106.751018,
       32.283143
      ],
      [
       -106.751106,
       32.283127
      ],
      [
       -106.751156,
       32.283318
      ],
      [
       -106.751202,
       32.28331
      ],
      [
       -106.751243,
       32.28347
      ]
     ]
    ]
   }
  },
  {
   "type": "Feature",
   "properties": {
    "id": "184",
    "name": "Breland Hall",
    "osmId": 82002896,
    "osmType": "way",
    "address": "1525 Stewart Street",
    "levels": "3",
    "center": [
     -106.748295,
     32.281093
    ],
    "source": "OpenStreetMap way/82002896 (ODbL)"
   },
   "geometry": {
    "type": "Polygon",
    "coordinates": [
     [
      [
       -106.748735,
       32.281077
      ],
      [
       -106.748626,
       32.281096
      ],
      [
       -106.748567,
       32.280863
      ],
      [
       -106.748369,
       32.280902
      ],
      [
       -106.748374,
       32.28092
      ],
      [
       -106.748403,
       32.281042
      ],
      [
       -106.748435,
       32.281058
      ],
      [
       -106.748513,
       32.281042
      ],
      [
       -106.748605,
       32.28143
      ],
      [
       -106.748519,
       32.281446
      ],
      [
       -106.748541,
       32.281533
      ],
      [
       -106.748487,
       32.281501
      ],
      [
       -106.748322,
       32.281533
      ],
      [
       -106.748299,
       32.281538
      ],
      [
       -106.74826,
       32.281591
      ],
      [
       -106.748231,
       32.281498
      ],
      [
       -106.748147,
       32.281518
      ],
      [
       -106.748049,
       32.281161
      ],
      [
       -106.748129,
       32.281146
      ],
      [
       -106.748143,
       32.28113
      ],
      [
       -106.748098,
       32.280959
      ],
      [
       -106.747896,
       32.281
      ],
      [
       -106.747963,
       32.281225
      ],
      [
       -106.747853,
       32.281248
      ],
      [
       -106.747768,
       32.280974
      ],
      [
       -106.747752,
       32.280921
      ],
      [
       -106.748025,
       32.280863
      ],
      [
       -106.74807,
       32.28081
      ],
      [
       -106.74803,
       32.280667
      ],
      [
       -106.748288,
       32.280618
      ],
      [
       -106.748323,
       32.280758
      ],
      [
       -106.748392,
       32.280795
      ],
      [
       -106.748646,
       32.280746
      ],
      [
       -106.748735,
       32.281077
      ]
     ]
    ]
   }
  }
 ]
}