{
 "//": [
  "Downloaded from OpenStreetMap way/50280146 (ODbL licence). Read by tools/build_campuses.py.",
  "Format: GeoJSON. One Feature: the NMSU Golf Course outline, with properties Name, City, km, points and source."
 ],
 "type": "FeatureCollection",
 "features": [
  {
   "type": "Feature",
   "properties": {
    "Name": "NMSU Golf Course",
    "City": "Las Cruces",
    "km": 2.2,
    "points": 42,
    "source": "OpenStreetMap way/50280146 (ODbL). Official East Campus is excluded (contains a public high school and a state museum), so the golf course is drawn on its own."
   },
   "geometry": {
    "type": "Polygon",
    "coordinates": [
     [
      [
       -106.732784,
       32.290357
      ],
      [
       -106.7325,
       32.289962
      ],
      [
       -106.731556,
       32.290243
      ],
      [
       -106.7311,
       32.290379
      ],
      [
       -106.729774,
       32.290395
      ],
      [
       -106.729653,
       32.290396
      ],
      [
       -106.728369,
       32.290411
      ],
      [
       -106.72823,
       32.290003
      ],
      [
       -106.728412,
       32.28955
      ],
      [
       -106.728793,
       32.289377
      ],
      [
       -106.729726,
       32.288525
      ],
      [
       -106.728654,
       32.287994
      ],
      [
       -106.728353,
       32.288225
      ],
      [
       -106.727152,
       32.288438
      ],
      [
       -106.72691,
       32.288044
      ],
      [
       -106.726552,
       32.287782
      ],
      [
       -106.72625,
       32.28725
      ],
      [
       -106.72521,
       32.287114
      ],
      [
       -106.724561,
       32.286733
      ],
      [
       -106.726143,
       32.285042
      ],
      [
       -106.726685,
       32.284665
      ],
      [
       -106.726837,
       32.28476
      ],
      [
       -106.727227,
       32.285001
      ],
      [
       -106.72765,
       32.284502
      ],
      [
       -106.728235,
       32.284203
      ],
      [
       -106.729759,
       32.283695
      ],
      [
       -106.730688,
       32.283468
      ],
      [
       -106.731223,
       32.283337
      ],
      [
       -106.733138,
       32.283024
      ],
      [
       -106.736429,
       32.28181
      ],
      [
       -106.736562,
       32.282232
      ],
      [
       -106.736586,
       32.282309
      ],
      [
       -106.737011,
       32.283654
      ],
      [
       -106.73707,
       32.284159
      ],
      [
       -106.73704,
       32.28464
      ],
      [
       -106.736863,
       32.285202
      ],
      [
       -106.735709,
       32.287218
      ],
      [
       -106.735692,
       32.287387
      ],
      [
       -106.735677,
       32.287543
      ],
      [
       -106.735778,
       32.287903
      ],
      [
       -106.735885,
       32.288062
      ],
      [
       -106.732784,
       32.290357
      ]
     ]
    ]
   }
  }
 ]
}