{"//": ["Downloaded from NMSU Office of Space Planning (parcels marked \"Ground Lease\"). Read by tools/build_campuses.py,", "which cuts this land out of the campus shapes. Format: GeoJSON. One Feature per parcel: ParcelID, Acres, Campus, OwnerCode."], "type": "FeatureCollection", "features": [{"type": "Feature", "geometry": {"type": "Polygon", "coordinates": [[[-106.765523, 32.2822], [-106.763763, 32.282546], [-106.763807, 32.281774], [-106.76533, 32.281536], [-106.765523, 32.2822]]]}, "properties": {"ParcelID": "R1901490", "Acres": 3.1346368997326746, "Campus": "Las Cruces Main", "OwnerCode": "Ground Lease"}}, {"type": "Feature", "geometry": {"type": "Polygon", "coordinates": [[[-106.765671, 32.282172], [-106.765523, 32.2822], [-106.76533, 32.281536], [-106.763807, 32.281774], [-106.76382, 32.281549], [-106.763825, 32.281308], [-106.765362, 32.281029], [-106.765671, 32.282172]]]}, "properties": {"ParcelID": "R1901491", "Acres": 2.248468096324789, "Campus": "Las Cruces Main", "OwnerCode": "Ground Lease"}}, {"type": "Feature", "geometry": {"type": "Polygon", "coordinates": [[[-106.763763, 32.282546], [-106.761599, 32.282956], [-106.761058, 32.280919], [-106.762088, 32.280739], [-106.762136, 32.280919], [-106.762354, 32.280886], [-106.762308, 32.2807], [-106.762668, 32.280635], [-106.762807, 32.281211], [-106.762928, 32.281679], [-106.763307, 32.281624], [-106.76382, 32.281549], [-106.763807, 32.281774], [-106.763763, 32.282546]]]}, "properties": {"ParcelID": "R1901485", "Acres": 10.543188090248917, "Campus": "Las Cruces Main", "OwnerCode": "Ground Lease"}}, {"type": "Feature", "geometry": {"type": "Polygon", "coordinates": [[[-106.76382, 32.281549], [-106.763307, 32.281624], [-106.763261, 32.281335], [-106.763335, 32.281324], [-106.763292, 32.281136], [-106.763837, 32.281044], [-106.76382, 32.281549]]]}, "properties": {"ParcelID": "R1901489", "Acres": 0.6606319811881798, "Campus": "Las Cruces Main", "OwnerCode": "Ground Lease"}}, {"type": "Feature", "geometry": {"type": "Polygon", "coordinates": [[[-106.763307, 32.281624], [-106.762928, 32.281679], [-106.762807, 32.281211], [-106.763292, 32.281136], [-106.763335, 32.281324], [-106.763261, 32.281335], [-106.763307, 32.281624]]]}, "properties": {"ParcelID": "R1901486", "Acres": 0.5423414104043484, "Campus": "Las Cruces Main", "OwnerCode": "Ground Lease"}}, {"type": "Feature", "geometry": {"type": "Polygon", "coordinates": [[[-106.74139, 32.277305], [-106.74133, 32.276974], [-106.741108, 32.277003], [-106.741169, 32.277334], [-106.74139, 32.277305], [-106.741167, 32.277747], [-106.741063, 32.277939], [-106.736741, 32.278945], [-106.736356, 32.277778], [-106.73701, 32.277642], [-106.737092, 32.277878], [-106.737697, 32.277736], [-106.737611, 32.277495], [-106.737517, 32.277203], [-106.73743, 32.276932], [-106.73683, 32.277052], [-106.736156, 32.277188], [-106.73565, 32.275578], [-106.733893, 32.270054], [-106.735896, 32.269509], [-106.738468, 32.268516], [-106.739849, 32.27009], [-106.738073, 32.271583], [-106.738212, 32.271706], [-106.739514, 32.272861], [-106.742051, 32.273007], [-106.742498, 32.273381], [-106.74311, 32.27414], [-106.74139, 32.277305]], [[-106.740601, 32.275575], [-106.740512, 32.275278], [-106.740293, 32.275325], [-106.740382, 32.275622], [-106.740601, 32.275575]]]}, "properties": {"ParcelID": "R0307773", "Acres": 118.59833195351297, "Campus": "Las Cruces Main", "OwnerCode": "Ground Lease"}}, {"type": "Feature", "geometry": {"type": "Polygon", "coordinates": [[[-106.738468, 32.268516], [-106.735896, 32.269509], [-106.733893, 32.270054], [-106.73332, 32.268381], [-106.735136, 32.267989], [-106.735581, 32.267865], [-106.736635, 32.267464], [-106.737316, 32.267083], [-106.738468, 32.268516]]]}, "properties": {"ParcelID": "R0314516", "Acres": 19.73837206693424, "Campus": "Las Cruces Main", "OwnerCode": "Ground Lease"}}, {"type": "Feature", "geometry": {"type": "Polygon", "coordinates": [[[-106.741919, 32.267878], [-106.740503, 32.269025], [-106.740832, 32.269263], [-106.739849, 32.27009], [-106.738468, 32.268516], [-106.737316, 32.267083], [-106.737881, 32.266611], [-106.738281, 32.266084], [-106.741919, 32.267878]]]}, "properties": {"ParcelID": "R0307820", "Acres": 21.93983848160106, "Campus": "Las Cruces Main", "OwnerCode": "Ground Lease"}}, {"type": "Feature", "geometry": {"type": "Polygon", "coordinates": [[[-106.738281, 32.265846], [-106.738059, 32.266111], [-106.737674, 32.266503], [-106.737217, 32.266923], [-106.736685, 32.267269], [-106.736024, 32.267538], [-106.735473, 32.267735], [-106.734729, 32.26789], [-106.73299, 32.268329], [-106.73274, 32.267296], [-106.732697, 32.267013], [-106.732669, 32.266695], [-106.732717, 32.266252], [-106.732785, 32.265903], [-106.733106, 32.265443], [-106.733334, 32.265164], [-106.73363, 32.26491], [-106.733951, 32.264762], [-106.734358, 32.264655], [-106.734818, 32.26462], [-106.735334, 32.264634], [-106.736024, 32.264737], [-106.736893, 32.264996], [-106.738281, 32.265846]]]}, "properties": {"ParcelID": "R0308257", "Acres": 35.74903113570553, "Campus": "Las Cruces Main", "OwnerCode": "Ground Lease"}}, {"type": "Feature", "geometry": {"type": "Polygon", "coordinates": [[[-106.723831, 32.300751], [-106.717518, 32.300752], [-106.717523, 32.297047], [-106.717519, 32.296719], [-106.717774, 32.296585], [-106.718373, 32.296294], [-106.718653, 32.296138], [-106.718978, 32.295991], [-106.719252, 32.295919], [-106.719464, 32.295865], [-106.719544, 32.295854], [-106.723831, 32.300751]]]}, "properties": {"ParcelID": "R0241259", "Acres": 50.710960969759476, "Campus": "East Campus", "OwnerCode": "Ground Lease"}}, {"type": "Feature", "geometry": {"type": "Polygon", "coordinates": [[[-106.747673, 32.285907], [-106.748123, 32.285813], [-106.748904, 32.287103], [-106.748227, 32.287233], [-106.747634, 32.285977], [-106.747692, 32.285962], [-106.747673, 32.285907]]]}, "properties": {"ParcelID": "R0224549", "Acres": 2.2078015739027133, "Campus": "North Campus", "OwnerCode": "Ground Lease"}}, {"type": "Feature", "geometry": {"type": "Polygon", "coordinates": [[[-106.745845, 32.287649], [-106.74577, 32.287663], [-106.745711, 32.287398], [-106.745783, 32.287385], [-106.745845, 32.287649]]]}, "properties": {"ParcelID": "R0215104", "Acres": 0.052344233103202284, "Campus": "North Campus", "OwnerCode": "Ground Lease"}}, {"type": "Feature", "geometry": {"type": "Polygon", "coordinates": [[[-106.742982, 32.288195], [-106.742809, 32.287484], [-106.742496, 32.287539], [-106.742273, 32.286754], [-106.742316, 32.286756], [-106.742418, 32.28678], [-106.742583, 32.286832], [-106.742601, 32.286839], [-106.742643, 32.286855], [-106.742723, 32.286877], [-106.742805, 32.286897], [-106.742885, 32.286902], [-106.742981, 32.286902], [-106.743059, 32.286898], [-106.743158, 32.286883], [-106.743223, 32.286858], [-106.7433, 32.286817], [-106.743364, 32.286771], [-106.743427, 32.286714], [-106.743465, 32.286652], [-106.743489, 32.286607], [-106.743513, 32.286548], [-106.743528, 32.286493], [-106.743524, 32.286342], [-106.74425, 32.28636], [-106.744642, 32.286384], [-106.745148, 32.286386], [-106.74534, 32.286378], [-106.745749, 32.28634], [-106.746049, 32.286306], [-106.746444, 32.286239], [-106.746418, 32.286117], [-106.747377, 32.285931], [-106.747987, 32.28724], [-106.745845, 32.287649], [-106.745783, 32.287385], [-106.745711, 32.287398], [-106.74577, 32.287663], [-106.742982, 32.288195]]]}, "properties": {"ParcelID": "R1903441", "Acres": 17.874976493960265, "Campus": "North Campus", "OwnerCode": "Ground Lease"}}, {"type": "Feature", "geometry": {"type": "Polygon", "coordinates": [[[-106.709066, 32.306612], [-106.709114, 32.30277], [-106.709191, 32.302758], [-106.710408, 32.302777], [-106.710625, 32.302755], [-106.710816, 32.302722], [-106.710907, 32.3027], [-106.711053, 32.30261], [-106.711723, 32.302246], [-106.712151, 32.302038], [-106.712523, 32.30192], [-106.712802, 32.301857], [-106.713303, 32.301841], [-106.713873, 32.301811], [-106.716358, 32.30189], [-106.716352, 32.304068], [-106.71634, 32.304313], [-106.7163, 32.304422], [-106.716213, 32.304604], [-106.716072, 32.304762], [-106.715915, 32.304856], [-106.715789, 32.304911], [-106.715685, 32.304944], [-106.715525, 32.304968], [-106.715413, 32.30496], [-106.711702, 32.306852], [-106.711488, 32.306564], [-106.710613, 32.30654], [-106.710267, 32.306594], [-106.709066, 32.306612]]]}, "properties": {"ParcelID": "R0241258", "Acres": 71.95531880920193, "Campus": "East Campus", "OwnerCode": "Ground Lease"}}, {"type": "Feature", "geometry": {"type": "Polygon", "coordinates": [[[-106.741919, 32.267878], [-106.742232, 32.268037], [-106.744793, 32.269464], [-106.743496, 32.27121], [-106.743239, 32.271015], [-106.740503, 32.269025], [-106.741919, 32.267878]]]}, "properties": {"ParcelID": "N/A", "Acres": 19.90790414744569, "Campus": "Main Campus", "OwnerCode": "Ground Lease"}}, {"type": "Feature", "geometry": {"type": "Polygon", "coordinates": [[[-106.733743, 32.281764], [-106.731692, 32.282618], [-106.731703, 32.282594], [-106.731712, 32.282568], [-106.731719, 32.282543], [-106.731724, 32.282517], [-106.731727, 32.282491], [-106.731727, 32.282464], [-106.731725, 32.282438], [-106.731721, 32.282412], [-106.731715, 32.282386], [-106.731707, 32.282361], [-106.731696, 32.282336], [-106.731684, 32.282312], [-106.731669, 32.282288], [-106.731653, 32.282266], [-106.731635, 32.282245], [-106.731615, 32.282224], [-106.731593, 32.282205], [-106.73157, 32.282188], [-106.731546, 32.282172], [-106.73152, 32.282157], [-106.731493, 32.282144], [-106.731465, 32.282132], [-106.731436, 32.282122], [-106.731406, 32.282114], [-106.731376, 32.282108], [-106.731346, 32.282103], [-106.731315, 32.282101], [-106.731283, 32.2821], [-106.731252, 32.282101], [-106.731221, 32.282104], [-106.731191, 32.282109], [-106.731161, 32.282115], [-106.730935, 32.281473], [-106.733618, 32.280791], [-106.733845, 32.281579], [-106.733743, 32.281764]]]}, "properties": {"ParcelID": "R0308245", "Acres": 7.480390172183909, "Campus": "East Campus", "OwnerCode": "Ground Lease"}}, {"type": "Feature", "geometry": {"type": "Polygon", "coordinates": [[[-106.734596, 32.288095], [-106.734609, 32.28807], [-106.73542, 32.287474], [-106.735635, 32.287487], [-106.735638, 32.287545], [-106.735645, 32.287603], [-106.735655, 32.28766], [-106.735668, 32.287717], [-106.735685, 32.287773], [-106.735704, 32.287829], [-106.735727, 32.287884], [-106.735753, 32.287937], [-106.734991, 32.288484], [-106.734704, 32.288202], [-106.734596, 32.288095]]]}, "properties": {"ParcelID": "R0221007", "Acres": 1.7666079758481281, "Campus": "East Campus", "OwnerCode": "Ground Lease"}}, {"type": "Feature", "geometry": {"type": "Polygon", "coordinates": [[[-106.734609, 32.28807], [-106.734596, 32.288095], [-106.734587, 32.288086], [-106.734609, 32.28807]]]}, "properties": {"ParcelID": "R0308055", "Acres": 0.00045218012024160763, "Campus": "East Campus", "OwnerCode": "Ground Lease"}}, {"type": "Feature", "geometry": {"type": "Polygon", "coordinates": [[[-106.734991, 32.288484], [-106.734324, 32.288962], [-106.734313, 32.288946], [-106.734305, 32.288928], [-106.734249, 32.288734], [-106.734566, 32.28815], [-106.734584, 32.288149], [-106.734602, 32.28815], [-106.734619, 32.288153], [-106.734636, 32.288158], [-106.734652, 32.288164], [-106.734667, 32.288172], [-106.734681, 32.288181], [-106.734694, 32.288192], [-106.734991, 32.288484]]]}, "properties": {"ParcelID": "R0221007", "Acres": null, "Campus": "East Campus", "OwnerCode": "Ground Lease"}}, {"type": "Feature", "geometry": {"type": "Polygon", "coordinates": [[[-106.734566, 32.28815], [-106.734249, 32.288734], [-106.734223, 32.288641], [-106.734169, 32.288455], [-106.734164, 32.288436], [-106.734163, 32.288417], [-106.734167, 32.288398], [-106.734174, 32.28838], [-106.734184, 32.288359], [-106.734191, 32.288336], [-106.734193, 32.288314], [-106.734191, 32.288291], [-106.734219, 32.288279], [-106.734249, 32.28827], [-106.734361, 32.288248], [-106.734384, 32.288242], [-106.734405, 32.288234], [-106.734425, 32.288224], [-106.734444, 32.288212], [-106.734452, 32.288206], [-106.734488, 32.28818], [-106.734505, 32.288169], [-106.734524, 32.28816], [-106.734545, 32.288154], [-106.734566, 32.28815]]]}, "properties": {"ParcelID": "R0308055", "Acres": 0.24350485434328242, "Campus": "East Campus", "OwnerCode": "Ground Lease"}}, {"type": "Feature", "geometry": {"type": "Polygon", "coordinates": [[[-106.734049, 32.289093], [-106.734054, 32.289113], [-106.734056, 32.289122], [-106.734056, 32.289131], [-106.734055, 32.28914], [-106.734053, 32.289149], [-106.734049, 32.289157], [-106.734044, 32.289165], [-106.734038, 32.289172], [-106.734031, 32.289179], [-106.734028, 32.289181], [-106.733935, 32.28925], [-106.734049, 32.289093]]]}, "properties": {"ParcelID": "R0221007", "Acres": 0.011349780128569199, "Campus": "East Campus", "OwnerCode": "Ground Lease"}}, {"type": "Feature", "geometry": {"type": "Polygon", "coordinates": [[[-106.734049, 32.289093], [-106.733935, 32.28925], [-106.733882, 32.289288], [-106.733643, 32.289464], [-106.733403, 32.289226], [-106.733313, 32.288898], [-106.733786, 32.288666], [-106.733811, 32.288757], [-106.733948, 32.28873], [-106.734049, 32.289093]]]}, "properties": {"ParcelID": "R0308055", "Acres": 0.9466773621593284, "Campus": "East Campus", "OwnerCode": "Ground Lease"}}]}