{"//": ["Downloaded from NMSU Office of Space Planning (\"Campus Boundaries\"). Read by tools/build_campuses.py.", "Format: GeoJSON. One Feature per NMSU property: its boundary, and properties such as Name, Acres, City and source."], "type": "FeatureCollection", "features": [{"type": "Feature", "geometry": {"type": "MultiPolygon", "coordinates": [[[[-106.73299, 32.268329], [-106.73274, 32.267296], [-106.732697, 32.267013], [-106.732669, 32.266695], [-106.732717, 32.266252], [-106.732785, 32.265903], [-106.733106, 32.265443], [-106.733334, 32.265164], [-106.73363, 32.26491], [-106.733951, 32.264762], [-106.734358, 32.264655], [-106.734818, 32.26462], [-106.735334, 32.264634], [-106.736024, 32.264737], [-106.736893, 32.264996], [-106.738281, 32.265846], [-106.738059, 32.266111], [-106.737674, 32.266503], [-106.737217, 32.266923], [-106.736685, 32.267269], [-106.736024, 32.267538], [-106.735473, 32.267735], [-106.734729, 32.26789], [-106.73299, 32.268329]]], [[[-106.766488, 32.282014], [-106.765671, 32.282172], [-106.765523, 32.2822], [-106.763763, 32.282546], [-106.761599, 32.282956], [-106.761479, 32.282979], [-106.753777, 32.284454], [-106.753517, 32.284504], [-106.752733, 32.284652], [-106.752338, 32.284727], [-106.75131, 32.284921], [-106.750963, 32.284987], [-106.749904, 32.285198], [-106.749843, 32.28521], [-106.746615, 32.285855], [-106.745627, 32.285977], [-106.744681, 32.285994], [-106.743764, 32.285921], [-106.743529, 32.285915], [-106.743425, 32.285913], [-106.743339, 32.285635], [-106.743186, 32.285511], [-106.742968, 32.285437], [-106.742659, 32.285481], [-106.74225, 32.285622], [-106.741492, 32.285918], [-106.741001, 32.286031], [-106.740662, 32.286066], [-106.740347, 32.286069], [-106.740182, 32.286053], [-106.739939, 32.286007], [-106.739716, 32.28595], [-106.739534, 32.285878], [-106.739313, 32.285749], [-106.739126, 32.28558], [-106.738971, 32.285407], [-106.738412, 32.284182], [-106.737838, 32.282284], [-106.736827, 32.279243], [-106.736275, 32.277548], [-106.736144, 32.277163], [-106.73603, 32.276809], [-106.73565, 32.275578], [-106.735528, 32.275191], [-106.735386, 32.274812], [-106.735282, 32.274446], [-106.733893, 32.270054], [-106.73332, 32.268381], [-106.735136, 32.267989], [-106.735581, 32.267865], [-106.736635, 32.267464], [-106.737316, 32.267083], [-106.737881, 32.266611], [-106.738281, 32.266084], [-106.741919, 32.267878], [-106.742232, 32.268037], [-106.745236, 32.269566], [-106.747619, 32.270757], [-106.748148, 32.270994], [-106.748524, 32.271119], [-106.748815, 32.271223], [-106.751526, 32.272605], [-106.754969, 32.274364], [-106.756352, 32.27507], [-106.757653, 32.27583], [-106.761539, 32.277867], [-106.761628, 32.277755], [-106.764111, 32.278878], [-106.764423, 32.279163], [-106.764624, 32.279125], [-106.765763, 32.279983], [-106.765836, 32.280227], [-106.765975, 32.280364], [-106.766066, 32.280505], [-106.766128, 32.280685], [-106.766488, 32.282014]]]]}, "properties": {"Name": "Las Cruces Main Campus", "Acres": 900, "HQAddress": "1780 E University Ave", "City": "Las Cruces", "County": "Dona Ana", "Ownership": "NMSU Owned", "center": [-106.744634, 32.276338], "km": 0.5, "points": 100, "source": "NMSU Office of Space Planning, Campus Boundaries layer (ArcGIS FeatureServer 18)"}}, {"type": "Feature", "geometry": {"type": "MultiPolygon", "coordinates": [[[[-106.748904, 32.287103], [-106.748227, 32.287233], [-106.747634, 32.285977], [-106.747692, 32.285962], [-106.747673, 32.285907], [-106.748123, 32.285813], [-106.748904, 32.287103]]], [[[-106.747145, 32.288291], [-106.746613, 32.288383], [-106.745989, 32.288491], [-106.745901, 32.28816], [-106.745815, 32.287831], [-106.746446, 32.287712], [-106.74653, 32.287697], [-106.746671, 32.287668], [-106.746948, 32.28762], [-106.747145, 32.288291]]], [[[-106.747987, 32.28724], [-106.740723, 32.288626], [-106.740535, 32.287884], [-106.741717, 32.287663], [-106.741478, 32.286872], [-106.741558, 32.286848], [-106.74177, 32.286799], [-106.741857, 32.286781], [-106.741945, 32.286769], [-106.742231, 32.286751], [-106.742316, 32.286756], [-106.742523, 32.286809], [-106.742643, 32.286855], [-106.742723, 32.286877], [-106.742805, 32.286897], [-106.742885, 32.286902], [-106.742981, 32.286902], [-106.743059, 32.286898], [-106.743158, 32.286883], [-106.743223, 32.286858], [-106.7433, 32.286817], [-106.743364, 32.286771], [-106.743427, 32.286714], [-106.743465, 32.286652], [-106.743489, 32.286607], [-106.743513, 32.286548], [-106.743528, 32.286493], [-106.743524, 32.286342], [-106.74425, 32.28636], [-106.744642, 32.286384], [-106.745148, 32.286386], [-106.74534, 32.286378], [-106.745749, 32.28634], [-106.746049, 32.286306], [-106.746444, 32.286239], [-106.746418, 32.286117], [-106.746767, 32.286054], [-106.747377, 32.285931], [-106.747987, 32.28724]]]]}, "properties": {"Name": "North Campus", "Acres": 43, "HQAddress": "N/A", "City": "Las Cruces", "County": "Dona Ana", "Ownership": "NMSU Owned", "center": [-106.744755, 32.286943], "km": 1.5, "points": 56, "source": "NMSU Office of Space Planning, Campus Boundaries layer (ArcGIS FeatureServer 18)"}}, {"type": "Feature", "geometry": {"type": "Polygon", "coordinates": [[[-106.770032, 32.272899], [-106.769659, 32.272342], [-106.76951, 32.272407], [-106.767214, 32.269072], [-106.769979, 32.268755], [-106.772915, 32.268425], [-106.774502, 32.270565], [-106.770032, 32.272899]]]}, "properties": {"Name": "Horse Farm", "Acres": 48, "HQAddress": "401 W Union Ave", "City": "Las Cruces", "County": "Dona Ana", "Ownership": "NMSU Owned", "center": [-106.77048, 32.270921], "km": 2.0, "points": 8, "source": "NMSU Office of Space Planning, Campus Boundaries layer (ArcGIS FeatureServer 18)"}}, {"type": "Feature", "geometry": {"type": "MultiPolygon", "coordinates": [[[[-106.775014, 32.278851], [-106.772884, 32.279877], [-106.772557, 32.280031], [-106.772284, 32.280152], [-106.772079, 32.280203], [-106.77188, 32.280241], [-106.77173, 32.280248], [-106.7715, 32.28024], [-106.771257, 32.280235], [-106.771026, 32.280253], [-106.770617, 32.280295], [-106.770201, 32.280406], [-106.769554, 32.27936], [-106.770448, 32.278963], [-106.773976, 32.277252], [-106.775014, 32.278851]]], [[[-106.771579, 32.280619], [-106.770832, 32.280944], [-106.770519, 32.280835], [-106.770418, 32.280638], [-106.770639, 32.280592], [-106.770712, 32.280582], [-106.770783, 32.280578], [-106.770847, 32.280575], [-106.77092, 32.280574], [-106.770984, 32.280575], [-106.771062, 32.280578], [-106.771142, 32.28058], [-106.771355, 32.2806], [-106.771579, 32.280619]]], [[[-106.775035, 32.278972], [-106.775177, 32.280284], [-106.775545, 32.281422], [-106.774011, 32.282114], [-106.772031, 32.281361], [-106.77097, 32.280966], [-106.771885, 32.280545], [-106.775035, 32.278972]]]]}, "properties": {"Name": "Fabian Garcia Science Center (Hort)", "Acres": 46.71, "HQAddress": "113 W. UNIVERSITY AVE.", "City": "Las Cruces", "County": "Dona Ana", "Ownership": "NMSU Owned", "center": [-106.771976, 32.280236], "km": 2.2, "points": 38, "source": "NMSU Office of Space Planning, Campus Boundaries layer (ArcGIS FeatureServer 18)"}}, {"type": "Feature", "geometry": {"type": "MultiPolygon", "coordinates": [[[[-106.717523, 32.297047], [-106.716631, 32.297078], [-106.716155, 32.29688], [-106.708863, 32.297084], [-106.708822, 32.298954], [-106.708419, 32.299093], [-106.708088, 32.299179], [-106.706515, 32.300303], [-106.706109, 32.300564], [-106.705747, 32.300757], [-106.70534, 32.300837], [-106.705147, 32.300838], [-106.704723, 32.300741], [-106.704499, 32.300638], [-106.704198, 32.300442], [-106.703934, 32.300038], [-106.703578, 32.299621], [-106.703199, 32.299321], [-106.702559, 32.299055], [-106.700347, 32.298407], [-106.700385, 32.286432], [-106.700383, 32.278807], [-106.700371, 32.271877], [-106.700372, 32.259821], [-106.704044, 32.26149], [-106.704637, 32.264088], [-106.707343, 32.264603], [-106.708913, 32.265628], [-106.709865, 32.265823], [-106.710613, 32.265976], [-106.711461, 32.26625], [-106.715084, 32.265323], [-106.721031, 32.282682], [-106.735702, 32.279278], [-106.737113, 32.283934], [-106.737133, 32.284193], [-106.73709, 32.284528], [-106.737027, 32.284847], [-106.736938, 32.285046], [-106.73662, 32.285647], [-106.736284, 32.286191], [-106.73572, 32.287167], [-106.735592, 32.287415], [-106.735552, 32.287532], [-106.735551, 32.287557], [-106.73555, 32.287577], [-106.73555, 32.287594], [-106.73555, 32.287613], [-106.735551, 32.287641], [-106.735555, 32.287691], [-106.735559, 32.287721], [-106.735566, 32.287756], [-106.735574, 32.287791], [-106.735581, 32.287818], [-106.735589, 32.287844], [-106.735602, 32.28788], [-106.735614, 32.287909], [-106.735632, 32.287948], [-106.735645, 32.287975], [-106.735655, 32.287992], [-106.735667, 32.288013], [-106.735679, 32.288032], [-106.735692, 32.288052], [-106.735699, 32.288061], [-106.733795, 32.289454], [-106.73112, 32.29152], [-106.730193, 32.292226], [-106.728633, 32.293476], [-106.728982, 32.290926], [-106.726425, 32.28941], [-106.72602, 32.28878], [-106.726022, 32.287356], [-106.72361, 32.287037], [-106.72232, 32.287807], [-106.722395, 32.290323], [-106.71597, 32.291687], [-106.716037, 32.291808], [-106.717519, 32.293584], [-106.71945, 32.295747], [-106.719544, 32.295854], [-106.723831, 32.300751], [-106.717518, 32.300752], [-106.717523, 32.297047]]], [[[-106.709133, 32.300828], [-106.717518, 32.300752], [-106.717476, 32.307972], [-106.709062, 32.307948], [-106.709133, 32.300828]]]]}, "properties": {"Name": "East Campus", "Acres": 1754, "HQAddress": "3500 Herb Wimberly Dr", "City": "Las Cruces", "County": "Dona Ana", "Ownership": "NMSU Owned", "center": [-106.721102, 32.289225], "km": 3.1, "points": 88, "source": "NMSU Office of Space Planning, Campus Boundaries layer (ArcGIS FeatureServer 18)"}}, {"type": "Feature", "geometry": {"type": "Polygon", "coordinates": [[[-106.750613, 32.310021], [-106.749596, 32.310704], [-106.748989, 32.30881], [-106.750123, 32.308552], [-106.750285, 32.309081], [-106.750215, 32.309097], [-106.750461, 32.309856], [-106.750613, 32.310021]]]}, "properties": {"Name": "DACC Workforce", "Acres": 5, "HQAddress": "2345 E Nevada St", "City": "Las Cruces", "County": "Dona Ana", "Ownership": "NMSU Owned", "center": [-106.750112, 32.309518], "km": 3.9, "points": 8, "source": "NMSU Office of Space Planning, Campus Boundaries layer (ArcGIS FeatureServer 18)"}}, {"type": "Feature", "geometry": {"type": "Polygon", "coordinates": [[[-106.745203, 32.197796], [-106.743538, 32.200309], [-106.743426, 32.200534], [-106.743021, 32.200465], [-106.744757, 32.201371], [-106.743672, 32.201911], [-106.743897, 32.202187], [-106.743935, 32.202234], [-106.745205, 32.201587], [-106.7514, 32.204788], [-106.751667, 32.204957], [-106.751822, 32.205165], [-106.752155, 32.20665], [-106.750643, 32.207449], [-106.749522, 32.208042], [-106.74913, 32.20819], [-106.745648, 32.206155], [-106.745477, 32.206038], [-106.745413, 32.20598], [-106.745349, 32.205921], [-106.745088, 32.205483], [-106.744712, 32.204927], [-106.744524, 32.204632], [-106.744316, 32.204396], [-106.743792, 32.203759], [-106.73382, 32.194957], [-106.737158, 32.192221], [-106.745203, 32.197796]]]}, "properties": {"Name": "Leyendecker Plant Science Research Center", "Acres": 203, "HQAddress": "7200 Plant Science Cir", "City": "Las Cruces", "County": "Dona Ana", "Ownership": "NMSU Owned", "center": [-106.745482, 32.203068], "km": 7.9, "points": 28, "source": "NMSU Office of Space Planning, Campus Boundaries layer (ArcGIS FeatureServer 18)"}}, {"type": "Feature", "geometry": {"type": "Polygon", "coordinates": [[[-106.734209, 32.351495], [-106.740472, 32.351441], [-106.74046, 32.351752], [-106.740432, 32.352458], [-106.740423, 32.352696], [-106.740433, 32.353115], [-106.740483, 32.355147], [-106.738531, 32.355124], [-106.737601, 32.355144], [-106.737234, 32.355188], [-106.736731, 32.355279], [-106.736463, 32.355286], [-106.734213, 32.355279], [-106.734209, 32.351495]]]}, "properties": {"Name": "DACC East Mesa", "Acres": 60, "HQAddress": "2800 N Sonoma Ranch Blvd", "City": "Las Cruces", "County": "Dona Ana", "Ownership": "Leased Federal Land", "center": [-106.737992, 32.353636], "km": 8.9, "points": 14, "source": "NMSU Office of Space Planning, Campus Boundaries layer (ArcGIS FeatureServer 18)"}}, {"type": "Feature", "geometry": {"type": "Polygon", "coordinates": [[[-106.585189, 32.025175], [-106.585053, 32.02517], [-106.584831, 32.02515], [-106.58456, 32.02511], [-106.584308, 32.025067], [-106.584051, 32.025015], [-106.583747, 32.024934], [-106.583252, 32.024765], [-106.58283, 32.024574], [-106.582881, 32.024417], [-106.582919, 32.024276], [-106.582957, 32.024142], [-106.582982, 32.024018], [-106.582992, 32.023942], [-106.583, 32.023898], [-106.583037, 32.023428], [-106.583029, 32.023269], [-106.583009, 32.023074], [-106.583001, 32.022883], [-106.58301, 32.022664], [-106.583009, 32.02259], [-106.583019, 32.022537], [-106.583065, 32.022411], [-106.58315, 32.022209], [-106.585751, 32.022176], [-106.585726, 32.02379], [-106.585584, 32.023982], [-106.585436, 32.024185], [-106.585344, 32.024355], [-106.585259, 32.024572], [-106.585212, 32.024767], [-106.58519, 32.024927], [-106.58519, 32.025054], [-106.585189, 32.025175]]]}, "properties": {"Name": "DACC Gadsden", "Acres": 20, "HQAddress": "1700 E Ohara Rd", "City": "Anthony", "County": "Dona Ana", "Ownership": "NMSU Owned", "center": [-106.584022, 32.02405], "km": 31.9, "points": 34, "source": "NMSU Office of Space Planning, Campus Boundaries layer (ArcGIS FeatureServer 18)"}}, {"type": "Feature", "geometry": {"type": "MultiPolygon", "coordinates": [[[[-106.854374, 32.434585], [-106.850092, 32.431186], [-106.854366, 32.431152], [-106.854374, 32.434585]]], [[[-106.886712, 32.45994], [-106.887545, 32.459938], [-106.887856, 32.460749], [-106.887842, 32.462526], [-106.886712, 32.45994]]], [[[-106.887804, 32.470597], [-106.880125, 32.459956], [-106.886038, 32.459942], [-106.887834, 32.463385], [-106.887804, 32.470597]]], [[[-106.905229, 32.505541], [-106.904808, 32.50371], [-106.905615, 32.50371], [-106.905229, 32.505541]]], [[[-106.997194, 32.562379], [-106.996372, 32.56239], [-106.995943, 32.553721], [-106.998985, 32.556625], [-106.999009, 32.558821], [-106.997194, 32.562379]]], [[[-106.88781, 32.472047], [-106.887806, 32.474478], [-106.887743, 32.489044], [-106.896251, 32.489013], [-106.896436, 32.503619], [-106.903432, 32.503655], [-106.904788, 32.508376], [-106.907546, 32.517978], [-106.911909, 32.532516], [-106.912222, 32.533753], [-106.913523, 32.536612], [-106.917134, 32.54328], [-106.917685, 32.544399], [-106.918948, 32.547044], [-106.921959, 32.55297], [-106.926538, 32.56156], [-106.93416, 32.576076], [-106.939276, 32.586105], [-106.941766, 32.590634], [-106.944396, 32.595875], [-106.944536, 32.596315], [-106.944378, 32.596371], [-106.944747, 32.597157], [-106.944918, 32.597108], [-106.945136, 32.597424], [-106.949211, 32.605121], [-106.939264, 32.605117], [-106.92209, 32.605113], [-106.904919, 32.605105], [-106.887754, 32.605095], [-106.870551, 32.60506], [-106.870707, 32.590494], [-106.86208, 32.590466], [-106.862046, 32.586769], [-106.853454, 32.586717], [-106.853447, 32.583001], [-106.844934, 32.583063], [-106.845048, 32.575877], [-106.836426, 32.57582], [-106.832191, 32.575815], [-106.832079, 32.568517], [-106.819417, 32.568509], [-106.819383, 32.564836], [-106.810767, 32.564931], [-106.810781, 32.561261], [-106.802212, 32.561236], [-106.802137, 32.55757], [-106.793563, 32.557621], [-106.793513, 32.553993], [-106.784802, 32.554043], [-106.784806, 32.550407], [-106.780657, 32.550401], [-106.780685, 32.546822], [-106.767775, 32.5468], [-106.767832, 32.532306], [-106.767833, 32.517793], [-106.769192, 32.517794], [-106.769104, 32.504217], [-106.768912, 32.489728], [-106.768788, 32.475239], [-106.785814, 32.475239], [-106.802845, 32.475258], [-106.802836, 32.460747], [-106.802805, 32.446223], [-106.802823, 32.431748], [-106.820015, 32.431792], [-106.828685, 32.431828], [-106.837122, 32.431281], [-106.84535, 32.431223], [-106.84929, 32.431196], [-106.854158, 32.435136], [-106.866859, 32.445598], [-106.866908, 32.449551], [-106.871568, 32.449514], [-106.871626, 32.453077], [-106.871211, 32.460001], [-106.879184, 32.459961], [-106.88781, 32.472047]]], [[[-106.951282, 32.605122], [-106.942993, 32.590631], [-106.939749, 32.584602], [-106.92788, 32.561556], [-106.920145, 32.547048], [-106.916004, 32.538799], [-106.914553, 32.535907], [-106.913897, 32.534273], [-106.913356, 32.53253], [-106.908919, 32.517982], [-106.922178, 32.518034], [-106.939098, 32.518044], [-106.956182, 32.518091], [-106.958303, 32.518092], [-106.96039, 32.519194], [-106.960341, 32.521651], [-106.973336, 32.521647], [-106.973306, 32.5186], [-106.973422, 32.518669], [-106.973696, 32.518846], [-106.973897, 32.519036], [-106.974012, 32.519203], [-106.974251, 32.519747], [-106.974539, 32.520377], [-106.974791, 32.520713], [-106.975327, 32.521311], [-106.975515, 32.52147], [-106.975846, 32.521696], [-106.976231, 32.521933], [-106.976958, 32.522234], [-106.977614, 32.52245], [-106.978974, 32.522964], [-106.979736, 32.523281], [-106.980575, 32.523611], [-106.981203, 32.524024], [-106.981566, 32.524399], [-106.981815, 32.524784], [-106.981968, 32.525219], [-106.982059, 32.525814], [-106.982074, 32.526459], [-106.981967, 32.527158], [-106.981914, 32.527553], [-106.98193, 32.528086], [-106.982192, 32.52945], [-106.982515, 32.531039], [-106.982831, 32.532432], [-106.98329, 32.534268], [-106.983759, 32.536263], [-106.984295, 32.537359], [-106.984989, 32.538197], [-106.985434, 32.5386], [-106.986103, 32.539097], [-106.986715, 32.539399], [-106.987509, 32.53968], [-106.988571, 32.539945], [-106.99066, 32.540653], [-106.99064, 32.543029], [-106.990783, 32.547017], [-106.994859, 32.546919], [-106.995025, 32.547557], [-106.99512, 32.548226], [-106.995998, 32.560564], [-106.995986, 32.561629], [-106.995135, 32.570229], [-106.995343, 32.572372], [-106.994969, 32.572364], [-106.995009, 32.576117], [-106.990909, 32.575976], [-106.982239, 32.575927], [-106.982161, 32.583276], [-106.973709, 32.583258], [-106.965091, 32.583267], [-106.965072, 32.586872], [-106.973698, 32.586814], [-106.982211, 32.586777], [-106.982195, 32.590478], [-106.99089, 32.590504], [-106.990885, 32.594111], [-106.988807, 32.59271], [-106.987035, 32.594653], [-106.990881, 32.597142], [-106.990732, 32.605051], [-106.986582, 32.605047], [-106.98637, 32.604718], [-106.983489, 32.601651], [-106.981937, 32.602188], [-106.984403, 32.604691], [-106.984649, 32.605045], [-106.951282, 32.605122]]]]}, "properties": {"Name": "Chihuahuan Desert Rangeland Research Center (College Ranch)", "Acres": 60800, "HQAddress": "9912 County Road E079", "City": "Las Cruces", "County": "Dona Ana", "Ownership": "NMSU Owned", "center": [-106.919592, 32.53467], "km": 33.1, "points": 191, "source": "NMSU Office of Space Planning, Campus Boundaries layer (ArcGIS FeatureServer 18)"}}, {"type": "Feature", "geometry": {"type": "Polygon", "coordinates": [[[-106.381389, 32.045413], [-106.385642, 32.04537], [-106.38565, 32.04722], [-106.381383, 32.047221], [-106.381389, 32.045413]]]}, "properties": {"Name": "DACC Chaparral", "Acres": 20, "HQAddress": "755 Prescott Anthony Dr", "City": "Chaparral", "County": "Dona Ana", "Ownership": "Leased Federal Land", "center": [-106.383091, 32.046127], "km": 42.8, "points": 5, "source": "NMSU Office of Space Planning, Campus Boundaries layer (ArcGIS FeatureServer 18)"}}, {"type": "Feature", "geometry": {"type": "Polygon", "coordinates": [[[-107.157147, 32.493385], [-107.157166, 32.489717], [-107.1616, 32.489764], [-107.173922, 32.489882], [-107.174, 32.485595], [-107.178616, 32.485604], [-107.178595, 32.489927], [-107.178532, 32.496817], [-107.175156, 32.496807], [-107.175239, 32.504388], [-107.165929, 32.504264], [-107.165853, 32.50023], [-107.161572, 32.50023], [-107.161591, 32.493375], [-107.157147, 32.493385]]]}, "properties": {"Name": "Blue Mesa (Magdalena Peak)", "Acres": 640, "HQAddress": null, "City": "Hatch", "County": "Dona Ana", "Ownership": "NMSU Owned", "center": [-107.168138, 32.494225], "km": 46.3, "points": 15, "source": "NMSU Office of Space Planning, Campus Boundaries layer (ArcGIS FeatureServer 18)"}}, {"type": "Feature", "geometry": {"type": "Polygon", "coordinates": [[[-106.594078, 31.80771], [-106.593496, 31.807941], [-106.59304, 31.808249], [-106.591134, 31.809621], [-106.590873, 31.809372], [-106.590899, 31.80775], [-106.590927, 31.807619], [-106.590944, 31.807498], [-106.59098, 31.807357], [-106.591042, 31.807153], [-106.591545, 31.806714], [-106.592187, 31.806262], [-106.593036, 31.80591], [-106.594078, 31.80771]]]}, "properties": {"Name": "DACC Sunland Park", "Acres": 17, "HQAddress": "3365 McNutt Rd", "City": "Sunland Park", "County": "Dona Ana", "Ownership": "NMSU Owned", "center": [-106.592018, 31.807633], "km": 54.0, "points": 14, "source": "NMSU Office of Space Planning, Campus Boundaries layer (ArcGIS FeatureServer 18)"}}, {"type": "Feature", "geometry": {"type": "Polygon", "coordinates": [[[-107.065736, 32.693727], [-107.065338, 32.693608], [-107.065469, 32.693297], [-107.065867, 32.693417], [-107.065736, 32.693727]]]}, "properties": {"Name": "Rincon", "Acres": 0.3581, "HQAddress": null, "City": "Rincon", "County": "Dona Ana", "Ownership": "Leased", "center": [-107.065629, 32.693555], "km": 55.2, "points": 5, "source": "NMSU Office of Space Planning, Campus Boundaries layer (ArcGIS FeatureServer 18)"}}, {"type": "Feature", "geometry": {"type": "Polygon", "coordinates": [[[-106.904981, 32.808224], [-106.902789, 32.80823], [-106.902792, 32.806401], [-106.904994, 32.806425], [-106.904981, 32.808224]]]}, "properties": {"Name": "Upham", "Acres": 10, "HQAddress": null, "City": "Upham", "County": "Sierra", "Ownership": "NMSU Owned", "center": [-106.904107, 32.807501], "km": 61.0, "points": 5, "source": "NMSU Office of Space Planning, Campus Boundaries layer (ArcGIS FeatureServer 18)"}}, {"type": "Feature", "geometry": {"type": "Polygon", "coordinates": [[[-107.441346, 32.257037], [-107.435594, 32.257038], [-107.435583, 32.249865], [-107.441406, 32.249839], [-107.441346, 32.257037]]]}, "properties": {"Name": "Akela Flats", "Acres": 112, "HQAddress": null, "City": "Deming", "County": "Luna", "Ownership": "NMSU Owned", "center": [-107.439055, 32.254163], "km": 64.9, "points": 5, "source": "NMSU Office of Space Planning, Campus Boundaries layer (ArcGIS FeatureServer 18)"}}, {"type": "Feature", "geometry": {"type": "Polygon", "coordinates": [[[-107.548244, 32.926402], [-107.544065, 32.926469], [-107.544108, 32.922838], [-107.548259, 32.922752], [-107.548244, 32.926402]]]}, "properties": {"Name": "Hillsboro", "Acres": 0.124, "HQAddress": null, "City": "Hillsboro", "County": "Sierra", "Ownership": "NMSU Owned", "center": [-107.546584, 32.924973], "km": 104.0, "points": 5, "source": "NMSU Office of Space Planning, Campus Boundaries layer (ArcGIS FeatureServer 18)"}}, {"type": "Feature", "geometry": {"type": "MultiPolygon", "coordinates": [[[[-105.930803, 32.923525], [-105.926302, 32.919052], [-105.926204, 32.918889], [-105.92614, 32.918769], [-105.926158, 32.918536], [-105.927005, 32.919296], [-105.927463, 32.919482], [-105.927883, 32.919582], [-105.928393, 32.919559], [-105.928905, 32.919501], [-105.92891, 32.918718], [-105.927634, 32.918722], [-105.927489, 32.918971], [-105.927175, 32.91899], [-105.926163, 32.918079], [-105.926164, 32.917545], [-105.927062, 32.917553], [-105.927045, 32.916144], [-105.929123, 32.916139], [-105.929151, 32.919139], [-105.930829, 32.919139], [-105.930803, 32.923525]]], [[[-105.935094, 32.927791], [-105.93382, 32.926492], [-105.935098, 32.926507], [-105.935094, 32.927791]]], [[[-105.935075, 32.933754], [-105.917936, 32.933716], [-105.917902, 32.922858], [-105.922132, 32.922818], [-105.922155, 32.921022], [-105.924302, 32.920979], [-105.924223, 32.919129], [-105.924987, 32.919131], [-105.924318, 32.918017], [-105.92464, 32.917891], [-105.925078, 32.917791], [-105.925349, 32.917763], [-105.925735, 32.917769], [-105.925797, 32.917789], [-105.925811, 32.918711], [-105.925849, 32.918838], [-105.926051, 32.919123], [-105.926216, 32.919314], [-105.930801, 32.923864], [-105.930788, 32.926531], [-105.933477, 32.926544], [-105.935091, 32.928105], [-105.935075, 32.933754]]]]}, "properties": {"Name": "Alamogordo", "Acres": 560, "HQAddress": "2400 N Scenic Dr", "City": "Alamogordo", "County": "Otero", "Ownership": "NMSU Owned", "center": [-105.927769, 32.921279], "km": 105.3, "points": 49, "source": "NMSU Office of Space Planning, Campus Boundaries layer (ArcGIS FeatureServer 18)"}}, {"type": "Feature", "geometry": {"type": "Polygon", "coordinates": [[[-107.231139, 33.200007], [-107.23044, 33.199607], [-107.230573, 33.199421], [-107.230632, 33.199315], [-107.23066, 33.19921], [-107.231135, 33.199227], [-107.231139, 33.200007]]]}, "properties": {"Name": "Elephant Butte", "Acres": 0.96, "HQAddress": "1300 Highway 195", "City": "Elephant Butte", "County": "Sierra", "Ownership": "NMSU Owned", "center": [-107.230817, 33.199542], "km": 112.3, "points": 7, "source": "NMSU Office of Space Planning, Campus Boundaries layer (ArcGIS FeatureServer 18)"}}, {"type": "Feature", "geometry": {"type": "Polygon", "coordinates": [[[-104.378393, 32.755175], [-104.378684, 32.750863], [-104.37877, 32.749543], [-104.378798, 32.748056], [-104.386827, 32.748008], [-104.38754, 32.755166], [-104.387547, 32.755237], [-104.378393, 32.755175]]]}, "properties": {"Name": "Artesia Science Center", "Acres": 160, "HQAddress": "67 E Four Dinkus Rd", "City": "Artesia", "County": "Eddy", "Ownership": "Leased from Southeastern New Mexico Agricultural Research Association", "center": [-104.381869, 32.752153], "km": 228.3, "points": 8, "source": "NMSU Office of Space Planning, Campus Boundaries layer (ArcGIS FeatureServer 18)"}}, {"type": "Feature", "geometry": {"type": "Polygon", "coordinates": [[[-104.265139, 32.436227], [-104.265462, 32.436226], [-104.265476, 32.436546], [-104.265493, 32.436584], [-104.265536, 32.436594], [-104.265573, 32.436594], [-104.267269, 32.436585], [-104.267267, 32.437062], [-104.267266, 32.43754], [-104.267273, 32.438174], [-104.266798, 32.438641], [-104.266343, 32.438693], [-104.26528, 32.439681], [-104.265073, 32.439827], [-104.263596, 32.440763], [-104.263626, 32.440595], [-104.264192, 32.439605], [-104.264269, 32.439411], [-104.26429, 32.439306], [-104.264296, 32.439207], [-104.264258, 32.438744], [-104.264276, 32.437064], [-104.264299, 32.436892], [-104.264362, 32.436734], [-104.264445, 32.436674], [-104.264585, 32.436621], [-104.264719, 32.436602], [-104.264892, 32.4366], [-104.265099, 32.436597], [-104.265133, 32.436597], [-104.265147, 32.436584], [-104.265148, 32.436543], [-104.265139, 32.436227]]]}, "properties": {"Name": "CEMRC", "Acres": 18, "HQAddress": "1400 UNIVERSITY DR.", "City": "Carlsbad", "County": "Eddy", "Ownership": "NMSU Owned", "center": [-104.265182, 32.437647], "km": 234.0, "points": 33, "source": "NMSU Office of Space Planning, Campus Boundaries layer (ArcGIS FeatureServer 18)"}}, {"type": "Feature", "geometry": {"type": "Polygon", "coordinates": [[[-104.546107, 33.394674], [-104.545616, 33.394674], [-104.545623, 33.394275], [-104.546111, 33.394273], [-104.546107, 33.394674]]]}, "properties": {"Name": "NMDA Roswell Office", "Acres": 0.5, "HQAddress": "1601 W Second St", "City": "Roswell", "County": "Chaves", "Ownership": "Leased", "center": [-104.545913, 33.394514], "km": 240.6, "points": 5, "source": "NMSU Office of Space Planning, Campus Boundaries layer (ArcGIS FeatureServer 18)"}}, {"type": "Feature", "geometry": {"type": "Polygon", "coordinates": [[[-105.400979, 34.318205], [-105.392154, 34.318189], [-105.39221, 34.303631], [-105.392231, 34.297973], [-105.392237, 34.296358], [-105.369485, 34.296369], [-105.348157, 34.296379], [-105.348184, 34.285977], [-105.348195, 34.281918], [-105.313177, 34.281896], [-105.313154, 34.27463], [-105.309775, 34.27462], [-105.302926, 34.274601], [-105.295722, 34.27458], [-105.278277, 34.27465], [-105.278146, 34.289184], [-105.278118, 34.292803], [-105.2738, 34.292836], [-105.273664, 34.296484], [-105.260557, 34.296446], [-105.260573, 34.303649], [-105.243233, 34.303684], [-105.22506, 34.303749], [-105.207736, 34.303727], [-105.207326, 34.289226], [-105.207475, 34.274674], [-105.207813, 34.260042], [-105.225315, 34.260053], [-105.242941, 34.260007], [-105.260454, 34.260047], [-105.261982, 34.260048], [-105.261967, 34.25321], [-105.275199, 34.253212], [-105.275182, 34.245929], [-105.279598, 34.245949], [-105.297166, 34.245992], [-105.313365, 34.246031], [-105.33145, 34.245961], [-105.348942, 34.245903], [-105.357573, 34.245877], [-105.36645, 34.24585], [-105.366391, 34.242281], [-105.383813, 34.242284], [-105.383868, 34.24587], [-105.392903, 34.245704], [-105.401404, 34.245667], [-105.401291, 34.241577], [-105.418725, 34.241366], [-105.418833, 34.245627], [-105.427827, 34.245598], [-105.43649, 34.24557], [-105.441513, 34.245555], [-105.45415, 34.245516], [-105.467037, 34.24547], [-105.467111, 34.241622], [-105.471471, 34.241695], [-105.471443, 34.234294], [-105.480235, 34.234367], [-105.480191, 34.230897], [-105.489101, 34.230858], [-105.489071, 34.245384], [-105.489103, 34.260041], [-105.471314, 34.260042], [-105.454161, 34.260059], [-105.444882, 34.260103], [-105.444877, 34.274631], [-105.436099, 34.274644], [-105.418586, 34.274646], [-105.418617, 34.300087], [-105.41854, 34.303738], [-105.418576, 34.318126], [-105.400979, 34.318205]]]}, "properties": {"Name": "Corona Range and Livestock Research Center and The Southwest Center for Rangeland Sustainability", "Acres": 27886, "HQAddress": "4 University Rd", "City": "Corona", "County": "Lincoln/Torrance", "Ownership": "NMSU Owned/Leased", "center": [-105.358008, 34.268223], "km": 256.7, "points": 72, "source": "NMSU Office of Space Planning, Campus Boundaries layer (ArcGIS FeatureServer 18)"}}, {"type": "Feature", "geometry": {"type": "MultiPolygon", "coordinates": [[[[-106.756873, 34.771911], [-106.754075, 34.771703], [-106.753698, 34.767006], [-106.756519, 34.766895], [-106.756873, 34.771911]]], [[[-106.764603, 34.771621], [-106.761457, 34.771646], [-106.761289, 34.771653], [-106.761152, 34.77169], [-106.761078, 34.771758], [-106.761076, 34.771817], [-106.761014, 34.77204], [-106.76097, 34.772133], [-106.760825, 34.772143], [-106.759893, 34.772083], [-106.757245, 34.771916], [-106.757008, 34.766847], [-106.763968, 34.766603], [-106.763938, 34.767083], [-106.763872, 34.767517], [-106.763707, 34.768475], [-106.763598, 34.769017], [-106.764603, 34.771621]]], [[[-106.763735, 34.768978], [-106.763911, 34.768154], [-106.764049, 34.767285], [-106.764116, 34.766578], [-106.764167, 34.766588], [-106.765225, 34.766505], [-106.765406, 34.766491], [-106.765588, 34.766483], [-106.765795, 34.766475], [-106.766443, 34.766449], [-106.76661, 34.766442], [-106.76688, 34.766431], [-106.767121, 34.766422], [-106.767433, 34.766409], [-106.767777, 34.766395], [-106.76846, 34.766368], [-106.768574, 34.766363], [-106.768732, 34.766357], [-106.76913, 34.766341], [-106.770166, 34.766299], [-106.770518, 34.766302], [-106.770394, 34.766377], [-106.769496, 34.769085], [-106.769623, 34.769971], [-106.769757, 34.770911], [-106.769961, 34.772342], [-106.769574, 34.772318], [-106.769396, 34.772307], [-106.768241, 34.772057], [-106.767512, 34.771899], [-106.766625, 34.771707], [-106.765583, 34.771655], [-106.764765, 34.771615], [-106.763735, 34.768978]]]]}, "properties": {"Name": "Agricultural Science Center at Los Lunas", "Acres": 210, "HQAddress": "1036 Miller Rd", "City": "Los Lunas", "County": "Valencia", "Ownership": "NMSU Owned", "center": [-106.764453, 34.769095], "km": 277.4, "points": 57, "source": "NMSU Office of Space Planning, Campus Boundaries layer (ArcGIS FeatureServer 18)"}}, {"type": "Feature", "geometry": {"type": "Polygon", "coordinates": [[[-106.615067, 35.119826], [-106.615066, 35.120026], [-106.615063, 35.120047], [-106.615057, 35.12006], [-106.615048, 35.120074], [-106.615027, 35.120082], [-106.614489, 35.120081], [-106.614491, 35.119829], [-106.615067, 35.119826]]]}, "properties": {"Name": "Albuquerque NMDA", "Acres": 0.4, "HQAddress": "2604 Aztec Rd NE", "City": "Albuquerque", "County": "Bernalillo", "Ownership": "NMSU Owned", "center": [-106.614931, 35.119983], "km": 316.7, "points": 9, "source": "NMSU Office of Space Planning, Campus Boundaries layer (ArcGIS FeatureServer 18)"}}, {"type": "Feature", "geometry": {"type": "Polygon", "coordinates": [[[-107.844726, 35.164747], [-107.844899, 35.16827], [-107.840668, 35.168346], [-107.840633, 35.164782], [-107.844726, 35.164747]]]}, "properties": {"Name": "Grants", "Acres": 40, "HQAddress": "1500 Third St", "City": "Grants", "County": "Cibola", "Ownership": "NMSU Owned", "center": [-107.84313, 35.166178], "km": 337.1, "points": 5, "source": "NMSU Office of Space Planning, Campus Boundaries layer (ArcGIS FeatureServer 18)"}}, {"type": "Feature", "geometry": {"type": "Polygon", "coordinates": [[[-106.129363, 35.855529], [-106.127308, 35.855522], [-106.125293, 35.855525], [-106.120611, 35.855533], [-106.118418, 35.855553], [-106.116174, 35.855564], [-106.113942, 35.855568], [-106.111719, 35.855579], [-106.109483, 35.855588], [-106.107511, 35.855614], [-106.072842, 35.855726], [-106.073113, 35.871173], [-106.071938, 35.870479], [-106.070755, 35.869885], [-106.070181, 35.864428], [-106.067942, 35.863165], [-106.067571, 35.855685], [-106.067471, 35.853595], [-106.063989, 35.849477], [-106.065602, 35.846802], [-106.065727, 35.842762], [-106.064579, 35.841529], [-106.064604, 35.840787], [-106.064698, 35.838914], [-106.068208, 35.827649], [-106.068299, 35.827384], [-106.069644, 35.825514], [-106.069691, 35.824012], [-106.067537, 35.82314], [-106.063396, 35.821547], [-106.061884, 35.820985], [-106.059964, 35.819605], [-106.059779, 35.819457], [-106.058905, 35.819108], [-106.055293, 35.817675], [-106.054474, 35.817643], [-106.05294, 35.817615], [-106.05065, 35.81585], [-106.049616, 35.815135], [-106.047143, 35.813423], [-106.045382, 35.812443], [-106.072241, 35.812465], [-106.072141, 35.805331], [-106.072041, 35.798188], [-106.071722, 35.78378], [-106.071835, 35.776508], [-106.03629, 35.776343], [-106.036295, 35.754614], [-106.054082, 35.754786], [-106.054082, 35.745986], [-106.054082, 35.740278], [-106.071866, 35.740274], [-106.071813, 35.729446], [-106.08069, 35.729377], [-106.080759, 35.700358], [-106.071845, 35.700325], [-106.071849, 35.696661], [-106.089679, 35.696641], [-106.090503, 35.696629], [-106.089673, 35.70422], [-106.092386, 35.711146], [-106.100209, 35.729204], [-106.114628, 35.771046], [-106.119993, 35.779888], [-106.122559, 35.783742], [-106.126236, 35.793044], [-106.126869, 35.794645], [-106.128703, 35.798248], [-106.135328, 35.802883], [-106.142874, 35.806402], [-106.143314, 35.806635], [-106.147461, 35.806448], [-106.150087, 35.811385], [-106.150103, 35.813153], [-106.150148, 35.827644], [-106.150079, 35.831308], [-106.150075, 35.834912], [-106.150145, 35.838567], [-106.150143, 35.84158], [-106.151609, 35.841568], [-106.155999, 35.841434], [-106.159365, 35.841426], [-106.159682, 35.842079], [-106.156001, 35.842117], [-106.151616, 35.842152], [-106.147235, 35.842154], [-106.142853, 35.842157], [-106.138328, 35.842173], [-106.138309, 35.845005], [-106.134018, 35.845], [-106.134021, 35.845897], [-106.134014, 35.846805], [-106.134014, 35.847728], [-106.131804, 35.847714], [-106.129545, 35.847716], [-106.129527, 35.848477], [-106.129363, 35.855529]]]}, "properties": {"Name": "Santa Fe", "Acres": 18460, "HQAddress": "N/A", "City": "Santa Fe", "County": "Santa Fe", "Ownership": "Leased from BLM/NMSU Owned/Easements", "center": [-106.098513, 35.814324], "km": 398.2, "points": 97, "source": "NMSU Office of Space Planning, Campus Boundaries layer (ArcGIS FeatureServer 18)"}}, {"type": "Feature", "geometry": {"type": "Polygon", "coordinates": [[[-103.222688, 34.594161], [-103.222693, 34.60147], [-103.213814, 34.601551], [-103.213507, 34.594134], [-103.222688, 34.594161]]]}, "properties": {"Name": "Agricultural Science Center at Clovis", "Acres": 160, "HQAddress": "2346 State Road 288", "City": "Clovis", "County": "Curry", "Ownership": "NMSU Owned", "center": [-103.219078, 34.597095], "km": 417.1, "points": 5, "source": "NMSU Office of Space Planning, Campus Boundaries layer (ArcGIS FeatureServer 18)"}}, {"type": "Feature", "geometry": {"type": "Polygon", "coordinates": [[[-106.05557, 36.089979], [-106.056743, 36.090593], [-106.057758, 36.089669], [-106.058774, 36.089845], [-106.058983, 36.089338], [-106.060952, 36.089687], [-106.060762, 36.090301], [-106.063449, 36.090694], [-106.063181, 36.09191], [-106.063338, 36.091921], [-106.064338, 36.092087], [-106.062824, 36.093465], [-106.054545, 36.09231], [-106.054593, 36.09216], [-106.054694, 36.091789], [-106.055139, 36.090413], [-106.055224, 36.090256], [-106.055434, 36.090084], [-106.05557, 36.089979]]]}, "properties": {"Name": "Sustainable Agriculture Science Center at Alcalde", "Acres": 61, "HQAddress": "371 County Road 40", "City": "Alcalde", "County": "Rio Arriba", "Ownership": "NMSU Owned", "center": [-106.05852, 36.090867], "km": 429.1, "points": 19, "source": "NMSU Office of Space Planning, Campus Boundaries layer (ArcGIS FeatureServer 18)"}}, {"type": "Feature", "geometry": {"type": "Polygon", "coordinates": [[[-105.346788, 35.972229], [-105.347357, 35.972359], [-105.347915, 35.970823], [-105.349398, 35.966701], [-105.350431, 35.963982], [-105.351146, 35.961958], [-105.352078, 35.959831], [-105.352742, 35.959962], [-105.353822, 35.96018], [-105.35581, 35.961247], [-105.351662, 35.968677], [-105.350434, 35.971504], [-105.349373, 35.974329], [-105.348661, 35.976121], [-105.348367, 35.976853], [-105.348078, 35.976812], [-105.347742, 35.977928], [-105.347657, 35.977923], [-105.348034, 35.976586], [-105.347387, 35.975844], [-105.347512, 35.975546], [-105.347272, 35.975468], [-105.347139, 35.975745], [-105.346285, 35.975344], [-105.345849, 35.975136], [-105.346788, 35.972229]], [[-105.35011, 35.968543], [-105.350568, 35.968669], [-105.350483, 35.968832], [-105.350862, 35.968977], [-105.350968, 35.968818], [-105.350568, 35.968669], [-105.350652, 35.968497], [-105.350198, 35.968354], [-105.35011, 35.968543]]]}, "properties": {"Name": "John T. Harrington Forestry Research Center", "Acres": 118, "HQAddress": "3021 Highway 518", "City": "Mora", "County": "Mora", "Ownership": "NMSU Owned", "center": [-105.349436, 35.970549], "km": 430.7, "points": 35, "source": "NMSU Office of Space Planning, Campus Boundaries layer (ArcGIS FeatureServer 18)"}}, {"type": "Feature", "geometry": {"type": "MultiPolygon", "coordinates": [[[[-103.70649, 35.208052], [-103.70649, 35.208027], [-103.70652, 35.208052], [-103.70649, 35.208052]]], [[[-103.70649, 35.208052], [-103.70649, 35.211618], [-103.688232, 35.211747], [-103.688251, 35.20803], [-103.684336, 35.208076], [-103.684332, 35.195451], [-103.690239, 35.193964], [-103.693059, 35.193833], [-103.693006, 35.198133], [-103.693066, 35.204168], [-103.693096, 35.208101], [-103.70649, 35.208052]]]]}, "properties": {"Name": "Rex E. Kirksey Agricultural Science Center at Tucumcari", "Acres": 465, "HQAddress": "6502 Quay Road AM 5", "City": "Tucumcari", "County": "Quay", "Ownership": "NMSU Owned", "center": [-103.697067, 35.205088], "km": 431.1, "points": 16, "source": "NMSU Office of Space Planning, Campus Boundaries layer (ArcGIS FeatureServer 18)"}}, {"type": "Feature", "geometry": {"type": "Polygon", "coordinates": [[[-108.306132, 36.690762], [-108.306344, 36.680553], [-108.316632, 36.680565], [-108.316592, 36.685392], [-108.318318, 36.685392], [-108.318302, 36.687156], [-108.318241, 36.687289], [-108.318118, 36.687343], [-108.315299, 36.687355], [-108.315313, 36.687975], [-108.315278, 36.68808], [-108.315207, 36.688192], [-108.314091, 36.688225], [-108.314064, 36.690751], [-108.306132, 36.690762]]]}, "properties": {"Name": "Agricultural Science Center at Farmington", "Acres": 253, "HQAddress": "300 County Road 4063", "City": "Farmington", "County": "San Juan", "Ownership": "Leased from Navajo Agricultural Products Industry/Navajo Nation", "center": [-108.314271, 36.687053], "km": 511.2, "points": 15, "source": "NMSU Office of Space Planning, Campus Boundaries layer (ArcGIS FeatureServer 18)"}}, {"type": "Feature", "geometry": {"type": "Polygon", "coordinates": [[[-103.08971, 36.481895], [-103.080926, 36.481922], [-103.081146, 36.478258], [-103.081719, 36.468535], [-103.081754, 36.467919], [-103.081796, 36.467182], [-103.090709, 36.467193], [-103.090095, 36.476303], [-103.090085, 36.476453], [-103.08971, 36.481895]]]}, "properties": {"Name": "Clayton Livestock Research Center", "Acres": 320, "HQAddress": "15 NMSU Ln", "City": "Clayton", "County": "Union", "Ownership": "Leased from U.S. Forest Service", "center": [-103.085765, 36.474756], "km": 575.4, "points": 10, "source": "NMSU Office of Space Planning, Campus Boundaries layer (ArcGIS FeatureServer 18)"}}]}