{"type":"FeatureCollection","features":[{"type":"Feature","properties":{"id":"323"},"geometry":{"type":"Polygon","coordinates":[[[-106.751265144289,32.2821376161792],[-106.751306389537,32.2822958976355],[-106.75121557076,32.2823140198662],[-106.751240925709,32.2824040514975],[-106.75139259816,32.2823750150967],[-106.751404815248,32.2824247080205],[-106.751454140842,32.2824149656822],[-106.751486227765,32.2825345401309],[-106.751496924005,32.2825336052382],[-106.751545421353,32.2827195917353],[-106.751091790101,32.2828053350776],[-106.751048454473,32.282635094581],[-106.750950906416,32.282653178771],[-106.750911811735,32.2825000857972],[-106.750999218711,32.2824827815405],[-106.75098815506,32.2824408442409],[-106.751001211174,32.282438332711],[-106.750996728581,32.2824221418091],[-106.751004024697,32.2824202211377],[-106.75098714176,32.2823564683405],[-106.750926927686,32.2823669359689],[-106.750886972419,32.2822066025737],[-106.751265144289,32.2821376161792]]]}},{"type":"Feature","properties":{"id":"461"},"geometry":{"type":"Polygon","coordinates":[[[-106.749423076934,32.2816182335826],[-106.749335805604,32.2816359298885],[-106.749265680418,32.2813868355157],[-106.749295175702,32.2813809633126],[-106.749274965405,32.2813095725733],[-106.749875349035,32.2811872776099],[-106.749888954918,32.2812343844339],[-106.749833603425,32.281245599509],[-106.749842270371,32.2812771766933],[-106.750018425507,32.2812413457246],[-106.750088965715,32.2814916434922],[-106.749933817682,32.2815232676778],[-106.749958153941,32.2816093303671],[-106.749870077721,32.2816272886903],[-106.749865951759,32.2816126173345],[-106.749445760293,32.2816981194539],[-106.749423076934,32.2816182335826]]]}},{"type":"Feature","properties":{"id":"285"},"geometry":{"type":"Polygon","coordinates":[[[-106.747360502821,32.2830939452307],[-106.747260320904,32.2831127485312],[-106.747269011206,32.2831461637007],[-106.747235647776,32.2831524246293],[-106.747286584948,32.2833488226919],[-106.747132492435,32.2833776628426],[-106.747087463483,32.2833797589269],[-106.747063936606,32.2833758697791],[-106.747042421057,32.2833657523741],[-106.747022184708,32.2833524361601],[-106.747006300697,32.2833357168434],[-106.746997160339,32.2833214520704],[-106.746990617011,32.2833063549362],[-106.746952479035,32.2831685348988],[-106.747028222285,32.2831544257872],[-106.746937506815,32.282802972411],[-106.7469341022,32.2827691697925],[-106.746936927401,32.282743861679],[-106.74694596086,32.2827192142855],[-106.746955404848,32.282701386805],[-106.746968950545,32.2826856812429],[-106.746988114304,32.2826693119129],[-106.747008733335,32.2826543194753],[-106.747019431372,32.2826476795433],[-106.747031204692,32.282642847878],[-106.747088612429,32.2826285457825],[-106.747562188077,32.2825405550374],[-106.747598569846,32.2826818581381],[-106.747182288746,32.2827592011732],[-106.747151670568,32.282800205714],[-106.747121054187,32.2828412102362],[-106.747165650151,32.2830144213294],[-106.747246801259,32.2830605771281],[-106.747346369626,32.2830418907726],[-106.747281682841,32.2827931648],[-106.747723231753,32.2827102929511],[-106.747718485055,32.2826920416921],[-106.747757032662,32.2826848063488],[-106.74776177936,32.2827030576093],[-106.74801835168,32.2826549019787],[-106.748019135011,32.2826579124659],[-106.748060350614,32.2826501773972],[-106.748039164746,32.2825665330492],[-106.748082345864,32.2825531263425],[-106.748148046847,32.2825407957855],[-106.748143873274,32.2825247446422],[-106.748438354499,32.2824694758293],[-106.748539563191,32.2828532286162],[-106.748540803764,32.28286843139],[-106.748450002055,32.2828862595971],[-106.74846111152,32.282939240679],[-106.748477255144,32.2829588794114],[-106.74827781388,32.2829989702386],[-106.748284341039,32.2830240694312],[-106.74828567324,32.2830231801108],[-106.748287043171,32.2830223310414],[-106.748288446339,32.283021523742],[-106.748289882746,32.283020757453],[-106.748291347898,32.2830200352125],[-106.748292843593,32.2830193555013],[-106.748294365339,32.2830187213573],[-106.748295912238,32.2830181327806],[-106.748297482493,32.28301759129],[-106.748299074308,32.2830170953666],[-106.748300685885,32.2830166480482],[-106.748302314531,32.2830162478161],[-106.748303958448,32.2830158961889],[-106.74830561584,32.2830155939262],[-106.748307284909,32.2830153410281],[-106.748308962064,32.2830151374945],[-106.748310648202,32.2830149840848],[-106.748312338831,32.2830148807991],[-106.748314033054,32.2830148283967],[-106.748315729073,32.2830148253589],[-106.748317423296,32.2830148724451],[-106.748319113925,32.2830149704146],[-106.748320800961,32.2830151192675],[-106.748322479014,32.2830153159661],[-106.748324148982,32.2830155643075],[-106.74832580817,32.2830158604945],[-106.748327453884,32.2830162068055],[-106.748329084326,32.2830166017216],[-106.748330696802,32.2830170444831],[-106.748332291312,32.2830175343309],[-106.748333864262,32.2830180712648],[-106.748335414754,32.2830186545254],[-106.748336939195,32.2830192841126],[-106.748338436687,32.2830199585076],[-106.748339906331,32.283020675432],[-106.748341345432,32.2830214371642],[-106.748342752193,32.2830222406664],[-106.748344124819,32.283023085179],[-106.748345463309,32.2830239699427],[-106.748346762273,32.2830248934386],[-106.748348024406,32.283025856426],[-106.748349245216,32.2830268551077],[-106.748350424704,32.2830278894838],[-106.748351561073,32.2830289580352],[-106.748352651628,32.2830300600026],[-106.748353697267,32.2830311938671],[-106.748354696193,32.2830323573503],[-106.748355645713,32.2830335504521],[-106.748356546723,32.2830347701348],[-106.748357395631,32.2830360163984],[-106.748358194233,32.2830372869644],[-106.748358938936,32.2830385810735],[-106.748359629741,32.2830398956878],[-106.748360266646,32.2830412308074],[-106.748360848755,32.2830425833943],[-106.748361374269,32.2830439519299],[-106.74836184319,32.2830453364138],[-106.748362255516,32.2830467322896],[-106.748362610351,32.283048141076],[-106.748362905897,32.2830495589759],[-106.74836314395,32.2830509844703],[-106.748363322715,32.2830524167998],[-106.748363443089,32.2830538529265],[-106.748363503276,32.283055292091],[-106.748363505073,32.2830567327743],[-106.748363447581,32.2830581711794],[-106.7483633308,32.2830596080654],[-106.748363155628,32.2830610403947],[-106.748362921168,32.2830624674078],[-106.748362628317,32.2830638853075],[-106.748362277076,32.2830652940937],[-106.748361867444,32.2830666922475],[-106.748361402117,32.2830680759717],[-106.748360879297,32.2830694467851],[-106.748360300782,32.2830707993717],[-106.748359666572,32.2830721352503],[-106.748358978462,32.2830734521425],[-106.748358237352,32.2830747462511],[-106.748357441445,32.2830760183354],[-106.748356595232,32.2830772661173],[-106.748355698713,32.2830784873184],[-106.748354751889,32.2830796826979],[-106.748353755657,32.2830808476994],[-106.748352712713,32.2830819830821],[-106.748351623057,32.2830830865678],[-106.748350490281,32.283084157397],[-106.748349313488,32.2830851932913],[-106.748348094474,32.2830861950102],[-106.748346835036,32.2830871587564],[-106.748345536971,32.2830880852894],[-106.748344202074,32.2830889715713],[-106.748342830347,32.2830898183617],[-106.748341425382,32.2830906249011],[-106.748339988976,32.2830913881516],[-106.74833852023,32.2830921088728],[-106.748337023637,32.2830927847862],[-106.748335500094,32.2830934166513],[-106.748333951399,32.2830940029491],[-106.748332380245,32.2830945429204],[-106.748330787532,32.2830950358055],[-106.748329175954,32.2830954808451],[-106.748327546411,32.2830958780391],[-106.748325901595,32.2830962273876],[-106.748324242407,32.2830965266122],[-106.748322574235,32.2830967772317],[-106.748320894386,32.2830969777273],[-106.748319208248,32.2830971280991],[-106.748317517619,32.2830972291064],[-106.748315824294,32.2830972784708],[-106.748314128275,32.2830972792303],[-106.748312434951,32.2830972291064],[-106.748310743423,32.2830971280991],[-106.748309057285,32.2830969784868],[-106.748307379232,32.2830967772317],[-106.748305710163,32.2830965281311],[-106.748304050974,32.2830962273876],[-106.748302407057,32.283095879558],[-106.748300776615,32.283095482364],[-106.748299165037,32.283095036565],[-106.748297572324,32.2830945444393],[-106.748296000273,32.2830940044681],[-106.748294452475,32.2830934181701],[-106.748292928034,32.2830927870645],[-106.748291432339,32.2830921111511],[-106.748289964492,32.28309139043],[-106.74828852629,32.2830906271795],[-106.748287121324,32.2830898206401],[-106.748285749597,32.2830889738497],[-106.7482844147,32.2830880875678],[-106.748283116635,32.2830871610347],[-106.748281856299,32.2830861972885],[-106.748280637285,32.2830851963291],[-106.74827946139,32.2830841604348],[-106.748278327716,32.2830830896056],[-106.748277238958,32.2830819861199],[-106.748276195116,32.2830808507372],[-106.748275199782,32.2830796849763],[-106.74827425206,32.2830784911156],[-106.748273354643,32.2830772691552],[-106.74827250843,32.2830760213733],[-106.748271712522,32.2830747492889],[-106.748270970514,32.2830734544208],[-106.748258048249,32.283075880115],[-106.748267511102,32.2831122640001],[-106.748242178611,32.2831187261861],[-106.748253282686,32.2831548153864],[-106.748259336433,32.2831744943231],[-106.748205460872,32.2831847287051],[-106.748196201936,32.2831655282258],[-106.748179647782,32.2831312039984],[-106.74813166517,32.2831283317474],[-106.74794377085,32.2831635954189],[-106.747866461836,32.2831786781471],[-106.747851333309,32.2831205093818],[-106.747848204477,32.2831210956795],[-106.747844079413,32.283105245894],[-106.747821975467,32.2831093963053],[-106.747828890698,32.2831359809571],[-106.747776757869,32.2831457657474],[-106.747769952232,32.2831196071516],[-106.747748317207,32.2831236671873],[-106.747752706375,32.2831405528633],[-106.74774990453,32.2831410784046],[-106.74776416798,32.2831959207555],[-106.747709950161,32.2832074743037],[-106.747683043822,32.2832125269396],[-106.747429021819,32.2832602000222],[-106.74741061444,32.2831910245659],[-106.747386908798,32.283195473438],[-106.747383976697,32.2831842001263],[-106.747360502821,32.2830939452307]]]}},{"type":"Feature","properties":{"id":"278"},"geometry":{"type":"Polygon","coordinates":[[[-106.75249955705,32.2816365648016],[-106.752147070709,32.2817035686145],[-106.752161494059,32.281758329053],[-106.752093178979,32.2817713143746],[-106.7520779175,32.281713374065],[-106.751933759457,32.2817407763098],[-106.751895113933,32.2815940742197],[-106.751873705283,32.2815981426778],[-106.751888730505,32.2816551717027],[-106.751454986156,32.2817376199751],[-106.751440622993,32.2816830797689],[-106.751431973116,32.2816847247702],[-106.75144171265,32.2817217076717],[-106.751405861785,32.2817285238673],[-106.751370915524,32.2815958490912],[-106.751415591438,32.2815873559851],[-106.75138979362,32.2814894091413],[-106.75182052412,32.2814075332817],[-106.751827358503,32.2814334835179],[-106.751849827165,32.2814292130341],[-106.751836026347,32.2813768113033],[-106.751814992295,32.2813808091407],[-106.751810557312,32.2813639762998],[-106.75183586465,32.2813591673501],[-106.751842725084,32.2813852231661],[-106.752008074385,32.2813537933562],[-106.752011518526,32.2813668607582],[-106.752059471494,32.2813577441076],[-106.752067489857,32.2813881805327],[-106.752422090832,32.2813207739687],[-106.752465951974,32.2814872925077],[-106.752545657692,32.2814721426651],[-106.752553655393,32.2815025023456],[-106.752489097067,32.2815147738053],[-106.752485908048,32.2815026618336],[-106.752470589077,32.2815055728689],[-106.75247558371,32.2815245367461],[-106.752608859562,32.2814992009444],[-106.752604491055,32.2814826179901],[-106.752609862981,32.2814815980263],[-106.752691156921,32.2817902060472],[-106.752547236032,32.2818175634604],[-106.75249955705,32.2816365648016]]]}},{"type":"Feature","properties":{"id":"391"},"geometry":{"type":"Polygon","coordinates":[[[-106.751681398439,32.2802029652584],[-106.751635058845,32.2802118276001],[-106.751579511519,32.2800022024924],[-106.751824402147,32.2799553699601],[-106.751870777674,32.2801303766545],[-106.751888598453,32.2801976329672],[-106.75199307252,32.2801776549098],[-106.751994308602,32.280182317343],[-106.751940537246,32.2801925999098],[-106.75199397353,32.2803942561573],[-106.752024642912,32.2803883914848],[-106.75203122936,32.2804132430512],[-106.752063338742,32.2804071011712],[-106.75207155114,32.2804380885351],[-106.752104411513,32.2804318061538],[-106.752111972633,32.2804603290119],[-106.752305417643,32.2804233319255],[-106.752316946621,32.280466847588],[-106.752770008341,32.2803802035749],[-106.752844295422,32.2806605363481],[-106.751852886827,32.2808501296215],[-106.751681398439,32.2802029652584]],[[-106.751994658047,32.2803969431829],[-106.752000302161,32.2804191069627],[-106.752028070884,32.280413841518],[-106.7520221968,32.2803916769774],[-106.751994658047,32.2803969431829]],[[-106.75207221769,32.2804407785971],[-106.752078599322,32.2804665020268],[-106.752108809665,32.2804609130484],[-106.7521019654,32.2804350916448],[-106.75207221769,32.2804407785971]]]}},{"type":"Feature","properties":{"id":"386"},"geometry":{"type":"Polygon","coordinates":[[[-106.751862826685,32.283691622319],[-106.751787460728,32.2837060070267],[-106.75177891236,32.2836750481196],[-106.751854820001,32.2836595887873],[-106.751821811406,32.2835405785741],[-106.75185660136,32.2835329331957],[-106.751879485942,32.2835019286625],[-106.752041193473,32.2834696687477],[-106.752044849616,32.2834837064219],[-106.752103598538,32.2834726617404],[-106.752088244533,32.283413396517],[-106.75212347017,32.2834064141284],[-106.752136351113,32.2834543172224],[-106.752405198911,32.2834007843208],[-106.752416528464,32.2834459936477],[-106.752433682692,32.2834427226954],[-106.752458405227,32.2835441449488],[-106.752535077335,32.283530384483],[-106.752543967063,32.2835614550786],[-106.75246756984,32.2835760425799],[-106.752485276532,32.2836429500288],[-106.752295993417,32.2836801857876],[-106.752246016544,32.2837450768259],[-106.752210522311,32.2837516285816],[-106.752195598599,32.2836982219239],[-106.752019258411,32.2837348485827],[-106.751997352094,32.2837642992065],[-106.751888475383,32.2837839301658],[-106.751862826685,32.283691622319]]]}},{"type":"Feature","properties":{"id":"189"},"geometry":{"type":"Polygon","coordinates":[[[-106.754418021629,32.2808389934827],[-106.754595409253,32.2808071024837],[-106.754711650353,32.2812736003563],[-106.755256343825,32.2811755559616],[-106.755138444436,32.2807023643472],[-106.755327148137,32.2806684515817],[-106.755483110044,32.2812951700178],[-106.754572727691,32.281458931739],[-106.754418021629,32.2808389934827]]]}},{"type":"Feature","properties":{"id":"184"},"geometry":{"type":"Polygon","coordinates":[[[-106.748279612307,32.2806047347673],[-106.748279685969,32.2806050264054],[-106.748315141575,32.2807449563568],[-106.748387764976,32.2807854727078],[-106.748656472637,32.2807363932994],[-106.748741220599,32.2810709048302],[-106.74862767714,32.2810916262119],[-106.748568973135,32.2808600946533],[-106.748364512084,32.2808974097802],[-106.748399243648,32.281035488451],[-106.748424814193,32.2810513659391],[-106.748505223292,32.2810367020847],[-106.748601556827,32.2814188432688],[-106.74851427831,32.2814348224584],[-106.748533711565,32.2815123161719],[-106.748472624329,32.2814779092963],[-106.74827761625,32.2815169648661],[-106.748250139481,32.2815466129118],[-106.748225677457,32.2815730066363],[-106.748209203253,32.2815104251004],[-106.748201581946,32.2814814719548],[-106.748131935562,32.2814918113343],[-106.748044714538,32.2811455523628],[-106.748114619637,32.2811327355539],[-106.748131938257,32.2811193521787],[-106.748088945786,32.2809496074901],[-106.747893777808,32.2809852540226],[-106.747956614063,32.2812333485185],[-106.747844280635,32.2812538070869],[-106.747756640098,32.2809076246729],[-106.748009187067,32.2808616158756],[-106.74806063538,32.2808023109724],[-106.748022186588,32.2806499880186],[-106.748279176624,32.2806030160775],[-106.748279612307,32.2806047347673]]]}},{"type":"Feature","properties":{"id":"397"},"geometry":{"type":"Polygon","coordinates":[[[-106.754854463618,32.2805350408429],[-106.754818254326,32.2804136167133],[-106.754782759194,32.2802771433892],[-106.754813532781,32.2802716956619],[-106.754792761036,32.2801919156205],[-106.754828721495,32.2801851585487],[-106.754786968699,32.2800248000313],[-106.754841648252,32.2800145265593],[-106.754804989802,32.2799151608276],[-106.754835130975,32.2799157403107],[-106.75486890763,32.2800096317169],[-106.755061279153,32.2799736741739],[-106.755050820966,32.2799332972045],[-106.755138807355,32.2799168506703],[-106.755212447649,32.2802011728917],[-106.755186907647,32.2802059454478],[-106.755190203566,32.2802190912414],[-106.755191881619,32.2802305859296],[-106.75519257422,32.2802421960569],[-106.755193363839,32.2802627163665],[-106.755192640695,32.2802832397094],[-106.755190620384,32.2802975998949],[-106.755187349618,32.2803118157776],[-106.755183316182,32.2803262093756],[-106.755178486839,32.2803404260132],[-106.755170582563,32.2803581924402],[-106.755160746909,32.280375270019],[-106.755149127201,32.2803916374847],[-106.755136177088,32.2804072940781],[-106.755121993588,32.2804230152242],[-106.755106460818,32.2804377536064],[-106.755090288448,32.280450186219],[-106.755072782978,32.2804612456985],[-106.755056730084,32.2804700776361],[-106.755040091488,32.280478062758],[-106.755022596798,32.2804856483953],[-106.755004441846,32.2804918343195],[-106.754976903991,32.2804988245272],[-106.754965898731,32.2805033244163],[-106.754969181175,32.2805159309396],[-106.754930058646,32.2805232811366],[-106.754929360655,32.2805205994312],[-106.754854463618,32.2805350408429]]]}},{"type":"Feature","properties":{"id":"364"},"geometry":{"type":"Polygon","coordinates":[[[-106.750805102659,32.2835830287527],[-106.750799472917,32.2835602627432],[-106.750667588555,32.2835853063406],[-106.750665029255,32.2835857528967],[-106.750662855332,32.2835854263336],[-106.750659264766,32.2835820741251],[-106.750626752041,32.2834575555181],[-106.750626889483,32.2834566289889],[-106.750627064655,32.2834557070164],[-106.750627278454,32.2834547911194],[-106.750627531779,32.2834538828169],[-106.750629357155,32.2834526608615],[-106.750631883218,32.2834519439405],[-106.750662117815,32.2834464523557],[-106.750627002671,32.2833159202268],[-106.750750442869,32.2832922435678],[-106.750785812237,32.2834233445592],[-106.750793460493,32.2834219099573],[-106.750797054652,32.2834217884452],[-106.750798749773,32.2834231129269],[-106.750799880752,32.2834253783676],[-106.75080455289,32.2834447640977],[-106.750995466448,32.283408579322],[-106.750990114285,32.2833831650639],[-106.750983248461,32.2833846216905],[-106.75098207077,32.2833845297969],[-106.750980896672,32.2833844044875],[-106.75097972976,32.2833842450028],[-106.750977588177,32.2833825711733],[-106.750975994565,32.2833801690304],[-106.750940123938,32.2832392269978],[-106.750939644238,32.2832368764939],[-106.75094018143,32.2832349907744],[-106.750941062677,32.2832345814298],[-106.750941957399,32.2832341963876],[-106.750942867393,32.2832338356478],[-106.750943789963,32.2832334992106],[-106.750944725109,32.2832331878353],[-106.751011937957,32.2832197166736],[-106.751009172942,32.2832107437457],[-106.751010574314,32.2832100906168],[-106.751011404357,32.2832092119305],[-106.751011235474,32.2832043172605],[-106.75100378305,32.2831768850797],[-106.751032477936,32.2831708565453],[-106.751027906409,32.2831537840497],[-106.751027609965,32.2831518041564],[-106.751028165124,32.2831503011994],[-106.751033182215,32.2831481420752],[-106.751108120574,32.2831331352871],[-106.75110900811,32.283133234016],[-106.751109891154,32.2831333585662],[-106.751110767909,32.2831335104568],[-106.751111638377,32.2831336881688],[-106.751113256243,32.2831353642813],[-106.751114257864,32.2831376714992],[-106.751162999553,32.2833264766002],[-106.751200909356,32.283318491729],[-106.751201629805,32.2833185213477],[-106.751202346661,32.2833185714715],[-106.751203062618,32.2833186436193],[-106.751203774084,32.2833187377913],[-106.751204481956,32.2833188509495],[-106.751205184439,32.2833189861318],[-106.751207125698,32.2833206630004],[-106.751208567494,32.2833229094574],[-106.751229392239,32.283397972075],[-106.751247914602,32.2833924584628],[-106.751250024745,32.2833926331365],[-106.751252126802,32.2833928731229],[-106.75125421808,32.2833931753844],[-106.751256832178,32.2833952464064],[-106.751258775234,32.2833981938345],[-106.75126643966,32.2834297201457],[-106.751266397439,32.2834322878475],[-106.751265452411,32.2834343558309],[-106.75126461608,32.2834347378345],[-106.751263764477,32.2834350962951],[-106.751262899399,32.2834354304532],[-106.751262021745,32.283435740309],[-106.751261132413,32.2834360251029],[-106.751239870189,32.2834409721624],[-106.751246416212,32.2834662003391],[-106.751246810572,32.283468005552],[-106.751246493467,32.2834695753353],[-106.751245522388,32.2834702884589],[-106.751244521665,32.2834709727235],[-106.751243494891,32.28347162661],[-106.751242441167,32.2834722493591],[-106.750832715074,32.2835507141864],[-106.750839892613,32.2835767473487],[-106.750840170193,32.2835784477554],[-106.750840004903,32.2835800699388],[-106.750838771516,32.2835814726414],[-106.750837304567,32.2835827477565],[-106.750811400748,32.2835879735258],[-106.750809358877,32.283587620382],[-106.750807589196,32.2835869057404],[-106.75080621657,32.283585046609],[-106.750805102659,32.2835830287527]]]}},{"type":"Feature","properties":{"id":"287"},"geometry":{"type":"Polygon","coordinates":[[[-106.751660184724,32.2794512526431],[-106.751597151737,32.2794630132479],[-106.751576490485,32.2793833783162],[-106.75155184251,32.2793880301574],[-106.751501014035,32.27919194554],[-106.751522024731,32.2791880820351],[-106.751500948458,32.2791066453598],[-106.751568425411,32.2790940067422],[-106.751562636667,32.2790708370778],[-106.751668497733,32.2790510888969],[-106.751674283782,32.2790734003461],[-106.751741759836,32.2790607632428],[-106.751750852583,32.2790960307743],[-106.751827622608,32.2790817243221],[-106.751810673195,32.2790153891996],[-106.751886635634,32.2790011715948],[-106.751913503345,32.2791059504296],[-106.752482410008,32.2789999191999],[-106.752486352714,32.2790151165437],[-106.752503303923,32.2790121993526],[-106.752498526683,32.2789920030612],[-106.75257496433,32.2789787948119],[-106.752554791762,32.2788990394559],[-106.752782403296,32.2788633936226],[-106.75289415731,32.2793028319327],[-106.752675824475,32.2793454686495],[-106.752671991364,32.2793297078234],[-106.752372077128,32.2793881866112],[-106.752349133258,32.2792976871813],[-106.752358075088,32.2792957421402],[-106.752353983262,32.2792811706592],[-106.752032901125,32.2793410195886],[-106.752046121631,32.2793911341695],[-106.752010160273,32.2793978047193],[-106.751996109724,32.2793435706975],[-106.751830850254,32.2793743791864],[-106.75184118627,32.2794149698196],[-106.751768052626,32.2794285752156],[-106.751773843167,32.2794517463075],[-106.751665555751,32.2794719333827],[-106.751660184724,32.2794512526431]]]}},{"type":"Feature","properties":{"id":"389"},"geometry":{"type":"Polygon","coordinates":[[[-106.754852331018,32.2834647923186],[-106.754768546948,32.2834802137115],[-106.754737658377,32.2834629058445],[-106.754736379176,32.2834578972707],[-106.75474520692,32.2834562735662],[-106.7547252221,32.2833779172586],[-106.754714725286,32.283379850061],[-106.754713197252,32.2833738724233],[-106.754735723406,32.2833478467972],[-106.754780986818,32.2833395156183],[-106.754769363516,32.2832939470176],[-106.754721530024,32.2833027505796],[-106.754691202002,32.2832854859675],[-106.75468962456,32.2832792926393],[-106.754699177245,32.2832775360276],[-106.754679227459,32.2831993261398],[-106.754669566078,32.2832011055367],[-106.75466821591,32.2831958212672],[-106.754690627978,32.2831677374735],[-106.754766544603,32.2831537643039],[-106.754713846733,32.2829471587515],[-106.754724436972,32.2829341037285],[-106.754900760991,32.2829016461534],[-106.754886948495,32.2828474962479],[-106.755215161459,32.2827870807999],[-106.755253832136,32.2828095766372],[-106.755304930106,32.2830098911868],[-106.755291420342,32.2830283178157],[-106.755302228872,32.2830706945671],[-106.75529137363,32.2830841968885],[-106.755212340749,32.2830987464939],[-106.755203518395,32.283064154154],[-106.755156073873,32.2830728878686],[-106.755151184343,32.2830799614173],[-106.755119950819,32.2830857127573],[-106.755114543859,32.2830921119106],[-106.755083136062,32.2830978943874],[-106.755077472184,32.2831053636092],[-106.755038503267,32.2831125381627],[-106.755037233049,32.2831075591882],[-106.755008864253,32.2831127804282],[-106.755082244035,32.2834004562381],[-106.75510000283,32.2833971298442],[-106.755075131174,32.2833013205324],[-106.755361188897,32.28324773286],[-106.755403310901,32.2834099812678],[-106.755117250483,32.2834635688444],[-106.755110454728,32.2834373943918],[-106.755092523457,32.2834407534407],[-106.755095653187,32.2834530246382],[-106.754897562989,32.2834894888737],[-106.754852331018,32.2834647923186]]]}},{"type":"Feature","properties":{"id":"187"},"geometry":{"type":"Polygon","coordinates":[[[-106.753867837653,32.283931641815],[-106.753852542937,32.2838722576583],[-106.753825873753,32.2838771743163],[-106.753814707694,32.2838328081904],[-106.753840971738,32.2838278930491],[-106.753823607304,32.2837598412489],[-106.753794917809,32.283765197633],[-106.753782933384,32.2837190300418],[-106.753806368633,32.2837146404323],[-106.753790247467,32.2836520816387],[-106.753767619804,32.2836562958187],[-106.75375562999,32.2836092692353],[-106.753781894932,32.2836044383807],[-106.75376364386,32.2835337708686],[-106.753752345749,32.2834900235265],[-106.753738133503,32.2834923527594],[-106.753626183655,32.2830588683577],[-106.75371912066,32.2830415740804],[-106.753712920488,32.2830178046965],[-106.753956172589,32.2829725943966],[-106.753961127696,32.2829910438167],[-106.754054063802,32.282973750286],[-106.754117304299,32.2832184035808],[-106.754253475422,32.2831930355959],[-106.754210481154,32.2830252670898],[-106.754292102979,32.2830100802909],[-106.75428011586,32.282963741438],[-106.754345171853,32.2829516273814],[-106.754365012942,32.2830286018514],[-106.75451694321,32.2830004207958],[-106.75452272836,32.2830226454553],[-106.754532023228,32.2830208903575],[-106.754556408895,32.2831149425911],[-106.754546306441,32.2831167865431],[-106.754554994049,32.2831516272039],[-106.754540041591,32.2831543513608],[-106.754549132541,32.2831887613977],[-106.754526098839,32.2831930621767],[-106.754540986618,32.283251759474],[-106.754416533121,32.2832748498469],[-106.754400407463,32.2832116900232],[-106.754355556377,32.2832200288084],[-106.754353075231,32.2832102463045],[-106.754125178931,32.2832525599364],[-106.754167338664,32.2834159505492],[-106.753879597499,32.2834691675107],[-106.75389089561,32.2835129148628],[-106.753918080427,32.2835084591712],[-106.753926765339,32.2835428721115],[-106.753938887206,32.2835405892064],[-106.753973198358,32.2836740296993],[-106.754150991123,32.2836410210293],[-106.754127009698,32.2835470543996],[-106.754600582651,32.2834589172122],[-106.7546646487,32.2837063161221],[-106.754201174608,32.2837924382552],[-106.75419167133,32.2837560538834],[-106.754002160941,32.283791256555],[-106.754030679757,32.2839013550949],[-106.753867837653,32.283931641815]]]}},{"type":"Feature","properties":{"id":"34"},"geometry":{"type":"Polygon","coordinates":[[[-106.753095759921,32.2817118194405],[-106.753078185281,32.2816443417273],[-106.752901839703,32.2816774870682],[-106.752872699253,32.2815656010834],[-106.752889332459,32.2815624743617],[-106.752860492047,32.2814517411059],[-106.752893859968,32.2814454694273],[-106.752885959285,32.2814151340306],[-106.752860839695,32.2814198548792],[-106.752854064601,32.2813938446412],[-106.752776941539,32.2814083398361],[-106.752767884724,32.2813735630603],[-106.752740524735,32.2813787054155],[-106.752726735596,32.2813257613954],[-106.752727006887,32.2813257097515],[-106.752726842495,32.2813250755957],[-106.752727860286,32.2813248842098],[-106.752698833025,32.2812134322063],[-106.752670421109,32.2812187720324],[-106.752648861542,32.2811359936787],[-106.752675643914,32.2811309606733],[-106.752679500381,32.2811457688117],[-106.752762356492,32.2811301958873],[-106.752760194247,32.2811218910861],[-106.752841490882,32.2811066097942],[-106.752849263106,32.2811364501199],[-106.752868164557,32.2811364364494],[-106.752868337932,32.2811328798531],[-106.75286863258,32.2811293262946],[-106.752869047601,32.2811257841279],[-106.752869581201,32.2811222503153],[-106.752870234276,32.2811187339704],[-106.752890352047,32.2811205384705],[-106.752894719656,32.2811319434271],[-106.752923077672,32.2811266127094],[-106.752921375365,32.2811147072616],[-106.752938717342,32.2811058624758],[-106.752941262269,32.2811090833875],[-106.752943685923,32.2811123726514],[-106.752945986509,32.2811157249511],[-106.752948164025,32.2811191357299],[-106.752950213981,32.2811226027093],[-106.752966944204,32.2811160036765],[-106.752958757857,32.2810845692164],[-106.753037710788,32.2810697299298],[-106.753039873032,32.2810780339764],[-106.753110772566,32.2810647075534],[-106.753106607977,32.2810487199444],[-106.753124887794,32.2810452841005],[-106.753125420495,32.2810473301136],[-106.753146468022,32.2810433747919],[-106.753156785173,32.2810414351045],[-106.753156253371,32.2810393890912],[-106.753239944914,32.2810236574193],[-106.753314919206,32.2813115206091],[-106.753186436764,32.2813356694148],[-106.753185369566,32.2813315728446],[-106.753071810836,32.2813529176898],[-106.752976504974,32.2813708312552],[-106.752981132196,32.2813885944425],[-106.753009815403,32.2813832029825],[-106.753023685391,32.2814364537938],[-106.753031749567,32.2814472177204],[-106.753043907366,32.2814406430142],[-106.753060633997,32.2814629667866],[-106.753008487693,32.2814911635093],[-106.75302066256,32.2815379109479],[-106.753056373288,32.2815311987848],[-106.753054945865,32.2815257199947],[-106.753068591274,32.2815231537578],[-106.753068231049,32.2815217707695],[-106.753073119681,32.2815208525746],[-106.75307360028,32.2815226973185],[-106.753094781656,32.2815187161956],[-106.753094301057,32.2815168714517],[-106.753099188791,32.2815159524973],[-106.753099549015,32.2815173362452],[-106.753113196221,32.2815147707675],[-106.753114622746,32.2815202503178],[-106.753176266937,32.2815086638976],[-106.753162613443,32.2814562386692],[-106.753164293293,32.281455922731],[-106.753162009775,32.2814471569631],[-106.753160329926,32.2814474729014],[-106.753147351066,32.2813976427379],[-106.753248575927,32.2813786173173],[-106.753252785433,32.2813778251925],[-106.753281460555,32.281487924384],[-106.753297754198,32.2814848606953],[-106.753327104853,32.2815975548513],[-106.753150488882,32.281630751853],[-106.753168062623,32.2816982288169],[-106.753095759921,32.2817118194405]]]}},{"type":"Feature","properties":{"id":"249"},"geometry":{"type":"Polygon","coordinates":[[[-106.751219566467,32.281549852035],[-106.751220242,32.2815522838456],[-106.751277805145,32.2817592882566],[-106.75127473111,32.28175999228],[-106.751290001571,32.2818150443186],[-106.751042959478,32.2818613769232],[-106.751052179786,32.2819011310339],[-106.750901199038,32.2819311419774],[-106.750904195818,32.2819455618996],[-106.750844955518,32.2819566698025],[-106.750841729668,32.281942445064],[-106.750734083649,32.2819625161465],[-106.750735006219,32.281966413709],[-106.750672308304,32.2819777175507],[-106.750603738102,32.2817146742687],[-106.750594592354,32.2817155468936],[-106.750577331226,32.2816508169288],[-106.750657879564,32.2816358509041],[-106.750649234178,32.2816054692436],[-106.750756903553,32.2815848482288],[-106.750747914111,32.2815486004348],[-106.750807153513,32.281538077271],[-106.750816373821,32.2815731554916],[-106.750935544327,32.2815509388311],[-106.750927014823,32.2815211229447],[-106.751116951013,32.2814848766441],[-106.751136083332,32.2815421700346],[-106.751146225312,32.2815408060332],[-106.751150578548,32.2815610473249],[-106.751219164021,32.2815484082898],[-106.751219566467,32.281549852035]]]}},{"type":"Feature","properties":{"id":"83"},"geometry":{"type":"Polygon","coordinates":[[[-106.749879917867,32.2829772809886],[-106.749877029783,32.2829668984896],[-106.749754154625,32.2829830186649],[-106.749747574466,32.2829632888033],[-106.74969341324,32.2829704603301],[-106.749670233113,32.2828739989553],[-106.749652849814,32.282875785953],[-106.749585907359,32.2826174858077],[-106.749705741719,32.2824159150058],[-106.749611294647,32.2823788351766],[-106.749743943475,32.2821536765045],[-106.749832342191,32.28219413071],[-106.749974178988,32.2819481471111],[-106.750086057868,32.2819920296218],[-106.750102479071,32.281962413619],[-106.750213562044,32.2820089633545],[-106.750197150723,32.2820402957263],[-106.750303786137,32.2820869479492],[-106.750218839647,32.2822335755745],[-106.75028737212,32.2822655177152],[-106.750258084347,32.2823090993262],[-106.750302272475,32.2823271342163],[-106.750172470408,32.2825549460032],[-106.750251196065,32.2828962661752],[-106.749950558685,32.2829509734911],[-106.749949047719,32.2829705651348],[-106.749936999515,32.2829862478639],[-106.749910730081,32.2829902167712],[-106.749894146282,32.2829902828437],[-106.749879917867,32.2829772809886]]]}},{"type":"Feature","properties":{"id":"244"},"geometry":{"type":"Polygon","coordinates":[[[-106.756415542444,32.2813257469655],[-106.75645151548,32.2813212212953],[-106.75642003941,32.2811890585652],[-106.756381224105,32.2811917918947],[-106.75636871776,32.2811248393476],[-106.756398216637,32.2811194790102],[-106.756398047754,32.2810889855347],[-106.756803295745,32.2810097910046],[-106.756777563504,32.2808193641644],[-106.756878045458,32.280798421714],[-106.756942071982,32.2809440344905],[-106.756953410517,32.2809465650486],[-106.756962116989,32.2809847565692],[-106.757377459349,32.2809022544495],[-106.757386550299,32.2809370093813],[-106.75752995825,32.2809042192025],[-106.757596191934,32.2811766921277],[-106.757451524546,32.2812009822305],[-106.757462269295,32.2812421720266],[-106.757352363115,32.2812622850349],[-106.757349464251,32.2812501836619],[-106.75704560731,32.2813056947288],[-106.757049729679,32.2813195945147],[-106.756894582544,32.2813507121953],[-106.756893314123,32.2813410958131],[-106.756584167003,32.2813911287855],[-106.75658828488,32.2814041696007],[-106.756442003219,32.2814290664569],[-106.756415542444,32.2813257469655]]]}},{"type":"Feature","properties":{"id":"590"},"geometry":{"type":"Polygon","coordinates":[[[-106.75159159925,32.2835469640251],[-106.751525714112,32.2835590339542],[-106.751550089897,32.2836550571581],[-106.75161657511,32.2836428771218],[-106.751687660595,32.2839254675171],[-106.751520769785,32.2839557367617],[-106.751507316615,32.283901411294],[-106.751472399998,32.2839076843216],[-106.751434245853,32.2837555678369],[-106.751390798834,32.2837634319173],[-106.751357147046,32.2836285668301],[-106.751410179088,32.2836188937309],[-106.751299531798,32.2832368848478],[-106.751354298488,32.2832254391455],[-106.751337399381,32.283160834049],[-106.751384007571,32.2831519697171],[-106.751433970969,32.2831421196144],[-106.751481808054,32.2831336782959],[-106.751498042408,32.2832000742004],[-106.751558939201,32.2831895178123],[-106.751605022775,32.2833701093441],[-106.751549832081,32.2833800771368],[-106.751556661074,32.2834073619227],[-106.75159159925,32.2835469640251]]]}},{"type":"Feature","properties":{"id":"188"},"geometry":{"type":"Polygon","coordinates":[[[-106.753114786239,32.2834872135618],[-106.753131466157,32.2834843390437],[-106.753224753504,32.2838750410305],[-106.753065592697,32.2839024646463],[-106.753056154997,32.2838629400062],[-106.752954736998,32.2834381827013],[-106.752931329597,32.283442216142],[-106.752931064594,32.283441108104],[-106.752893483574,32.2834475277373],[-106.752837996435,32.283214611636],[-106.752955589499,32.2831943000841],[-106.752952696026,32.2831828004553],[-106.753013310748,32.283172335959],[-106.753010831398,32.2831628116638],[-106.753097713757,32.2831479476553],[-106.753099373844,32.2831556720491],[-106.75315311825,32.2831463528044],[-106.753155188867,32.2831551062568],[-106.75328288708,32.2831330365582],[-106.753340434953,32.2833729884225],[-106.753074535426,32.2834188038048],[-106.753086543206,32.2834692662391],[-106.753109578705,32.2834653938031],[-106.753114786239,32.2834872135618]]]}},{"type":"Feature","properties":{"id":"541"},"geometry":{"type":"Polygon","coordinates":[[[-106.754053741306,32.280711685362],[-106.754054855217,32.2806890614127],[-106.754049097915,32.2806858518782],[-106.753968246844,32.2807012107073],[-106.753947444557,32.2806221852014],[-106.754021862792,32.2806080483527],[-106.754009381599,32.2805606328567],[-106.754071398592,32.2805488518884],[-106.754056143402,32.2804909001652],[-106.754149166644,32.2804732279392],[-106.754153327641,32.2804890326161],[-106.754184905219,32.280483034282],[-106.754180593306,32.2804677870588],[-106.754260089717,32.2804526848929],[-106.754264385461,32.2804679351565],[-106.75429596304,32.2804619360616],[-106.754174235031,32.2799995017847],[-106.754329311198,32.2799700415841],[-106.754339685841,32.2799846653585],[-106.754376843755,32.2799776067579],[-106.754360409975,32.2799159552435],[-106.754613000063,32.2799163220723],[-106.754619443679,32.2799419469183],[-106.754656691424,32.2799348708464],[-106.754674719713,32.2800033591791],[-106.754637473765,32.2800104360052],[-106.754648567958,32.2800525825257],[-106.754443916465,32.2800914609912],[-106.754433898453,32.2800534020032],[-106.754398730308,32.2800607476807],[-106.754413977414,32.2801186723376],[-106.754364365257,32.2801280974609],[-106.754371299353,32.2801544391941],[-106.754420912408,32.2801450140737],[-106.754490253364,32.2804084302537],[-106.754440640309,32.2804178553469],[-106.754449578547,32.2804518061799],[-106.754486787664,32.2804447377425],[-106.754495108758,32.2804763478631],[-106.754544720915,32.2804669220166],[-106.754533625823,32.2804247756886],[-106.754732076246,32.2803870753131],[-106.754743242304,32.2804292489997],[-106.754818254326,32.2804136167133],[-106.754854463618,32.2805350408429],[-106.754479871535,32.2806040170643],[-106.754477826071,32.2806084151786],[-106.754490758218,32.2806294245066],[-106.754437224915,32.2806585138699],[-106.754435895408,32.2806537884248],[-106.754434371865,32.2806491047507],[-106.754432656982,32.2806444696826],[-106.754430752553,32.2806398877774],[-106.754428661275,32.280635365111],[-106.754426387639,32.2806309062401],[-106.754423930747,32.2806265187595],[-106.75442129509,32.2806222057072],[-106.75441848516,32.2806179739184],[-106.754415502753,32.2806138279499],[-106.754412352361,32.2806097723587],[-106.754409037578,32.2806058132205],[-106.754405561996,32.2806019535732],[-106.754401930107,32.2805982002522],[-106.754398146403,32.2805945555358],[-106.754394215376,32.2805910262593],[-106.754390143312,32.2805876154606],[-106.754385931112,32.2805843254183],[-106.754381588656,32.280581163727],[-106.754377118639,32.2805781326651],[-106.75437252735,32.2805752352707],[-106.754367819279,32.2805724753409],[-106.754363001614,32.2805698566734],[-106.754358078847,32.2805673830653],[-106.754353058163,32.2805650552763],[-106.754347944054,32.2805628786226],[-106.754342744605,32.2805608546233],[-106.754337464307,32.2805589847972],[-106.754332112145,32.2805572737012],[-106.754326692609,32.2805557220949],[-106.754321211089,32.2805543307376],[-106.754315677467,32.2805531034269],[-106.754310096234,32.2805520401625],[-106.754304475475,32.2805511432231],[-106.754298820581,32.2805504133681],[-106.754293138736,32.2805498505975],[-106.754287438028,32.2805494564302],[-106.754281724742,32.2805492323852],[-106.754276004271,32.2805491769436],[-106.754270287392,32.2805492908647],[-106.754264576802,32.2805495741487],[-106.754258882381,32.2805500260361],[-106.75425320952,32.2805506465268],[-106.754247564507,32.2805514341019],[-106.754241956325,32.2805523887613],[-106.754236391262,32.2805535089862],[-106.754230874707,32.2805547932576],[-106.754225414747,32.2805562400565],[-106.754220016771,32.2805578471044],[-106.754214688863,32.280559613642],[-106.754209435515,32.2805615366313],[-106.75420426571,32.2805636137939],[-106.754199183043,32.2805658428513],[-106.754194194698,32.280568221525],[-106.754189307863,32.2805707452584],[-106.754184527029,32.2805734132917],[-106.754179858484,32.2805762210683],[-106.754175308517,32.2805791647907],[-106.75417088162,32.280582241421],[-106.754166584079,32.2805854479213],[-106.754162421286,32.2805887797346],[-106.754158396834,32.2805922315448],[-106.754154516112,32.2805958018328],[-106.75415078451,32.2805994845229],[-106.754147205622,32.2806032758176],[-106.754143785736,32.2806071696411],[-106.754140526648,32.2806111629556],[-106.754137433748,32.2806152504447],[-106.75413451063,32.2806194260326],[-106.754131760887,32.2806236866813],[-106.754129187214,32.2806280255557],[-106.754126793204,32.2806324396178],[-106.754124580653,32.2806369205133],[-106.754122554054,32.2806414636854],[-106.754120715203,32.2806460653369],[-106.754119066794,32.2806507171133],[-106.754117609727,32.2806554167364],[-106.754116345797,32.2806601550924],[-106.7541152777,32.2806649283839],[-106.754114406334,32.2806697305351],[-106.754113731699,32.2806745554703],[-106.754113255592,32.2806793978731],[-106.754112978911,32.2806842516677],[-106.754112900758,32.2806891107785],[-106.75411302203,32.28069396837],[-106.754113343627,32.280698819126],[-106.754113863752,32.2807036577302],[-106.754114581506,32.2807084781067],[-106.754115496889,32.2807132749393],[-106.754116608105,32.2807180413928],[-106.754053741306,32.280711685362]]]}},{"type":"Feature","properties":{"id":"657"},"geometry":{"type":"Polygon","coordinates":[[[-106.752186622633,32.2839589735206],[-106.752248388995,32.2841906209576],[-106.752450129947,32.2841521748542],[-106.75257519879,32.2846212360998],[-106.752248347673,32.2846832891974],[-106.752216001136,32.2845619754242],[-106.751898301156,32.2846225180353],[-106.751859782295,32.2844780609594],[-106.751920264965,32.2844665341535],[-106.751818868525,32.2840862542998],[-106.751747350052,32.2840998840567],[-106.751848929748,32.2844808450724],[-106.751776586621,32.2844946319744],[-106.751675007824,32.2841136710167],[-106.751671220527,32.2841143924891],[-106.751661593282,32.284078285444],[-106.751856810668,32.2840410832643],[-106.751851924731,32.2840227578474],[-106.752186622633,32.2839589735206]]]}},{"type":"Feature","properties":{"id":"365"},"geometry":{"type":"Polygon","coordinates":[[[-106.750244228732,32.2833990755568],[-106.750242697104,32.283397894611],[-106.750241636194,32.2833959678846],[-106.750233990632,32.2833666386534],[-106.750218913309,32.2833687597998],[-106.750218200945,32.2833688440989],[-106.750217486784,32.2833689101711],[-106.750216770827,32.2833689549787],[-106.750216053073,32.2833689815595],[-106.750215335319,32.2833689876351],[-106.750214616667,32.2833689747244],[-106.750211912738,32.2833675454377],[-106.750209572626,32.2833654159373],[-106.750200841002,32.2833339617517],[-106.750201031445,32.2833292607485],[-106.750202699616,32.283327156309],[-106.750205391867,32.2833254255196],[-106.750239096656,32.2833189549944],[-106.750221159995,32.2832538980906],[-106.750221003688,32.2832513326621],[-106.750221686408,32.2832490877223],[-106.750223574667,32.2832480146167],[-106.750225678521,32.2832471731439],[-106.750474548686,32.2831997005498],[-106.750473176958,32.2831938041617],[-106.750473300027,32.283190391942],[-106.750474863994,32.2831889520202],[-106.750477417006,32.2831879677699],[-106.750717772939,32.2831427583143],[-106.75072013461,32.2831426231317],[-106.750722291465,32.2831429853907],[-106.750724327945,32.2831449614869],[-106.750726019473,32.2831472390858],[-106.750761477774,32.2832837308748],[-106.750761606233,32.283286169474],[-106.750761139109,32.2832884607395],[-106.750759783551,32.2832898429413],[-106.750758217788,32.2832910945176],[-106.750750522819,32.2832925572213],[-106.750750442869,32.2832922435678],[-106.750627002671,32.2833159202268],[-106.750627030519,32.28331602655],[-106.750508318154,32.2833385875689],[-106.750509949494,32.2833452692202],[-106.750510343855,32.2833470706382],[-106.750509932426,32.2833484854956],[-106.75050651793,32.2833502466626],[-106.750247619872,32.2833991697287],[-106.750244228732,32.2833990755568]]]}},{"type":"Feature","properties":{"id":"288"},"geometry":{"type":"Polygon","coordinates":[[[-106.751597085261,32.2830475555373],[-106.751560686424,32.2830543442929],[-106.751534010952,32.2829511101929],[-106.751571913569,32.2829440419504],[-106.751549423347,32.28285701526],[-106.751713394633,32.2828264365502],[-106.751744970415,32.2829486252581],[-106.751836294943,32.2829315922121],[-106.751824136246,32.2828845493045],[-106.751858768097,32.282878092418],[-106.751860367996,32.2828842903303],[-106.752020586121,32.282854411088],[-106.752141749089,32.2828318150136],[-106.752144841091,32.2828437771952],[-106.752180819516,32.2828370689261],[-106.752209700352,32.2829488249946],[-106.752172128316,32.2829558302021],[-106.752168626683,32.2829422815348],[-106.751920644054,32.2829885277452],[-106.751926972685,32.2830130193775],[-106.751858486924,32.2830257903535],[-106.751846961539,32.2829811898994],[-106.751755103411,32.282998320146],[-106.751784255539,32.2831111278583],[-106.75162136313,32.2831415036982],[-106.751597085261,32.2830475555373]]]}},{"type":"Feature","properties":{"id":"551"},"geometry":{"type":"Polygon","coordinates":[[[-106.756770128148,32.2828947951111],[-106.756748644938,32.2828139609743],[-106.756712682682,32.2828207208881],[-106.756620541585,32.2824712970107],[-106.756657310528,32.2824643639143],[-106.756638302177,32.2823920247039],[-106.75656487658,32.2823540418677],[-106.756550684996,32.2822729247298],[-106.75660004742,32.2822035852365],[-106.75669345604,32.2821891691526],[-106.756772530243,32.2822266386626],[-106.75676780241,32.2822093753645],[-106.756850361178,32.2821936856659],[-106.756831357318,32.2821222051904],[-106.757436546935,32.2820064806722],[-106.757454522224,32.2820633203344],[-106.75751211681,32.2820523818046],[-106.757570059044,32.2822454945457],[-106.757630428526,32.2822363612753],[-106.757659038071,32.282330930755],[-106.757741975928,32.2823169240402],[-106.757778166356,32.2824513498325],[-106.757695197058,32.2824664668548],[-106.757723248749,32.2825760460152],[-106.757805624261,32.2825602341073],[-106.75781853395,32.2826083867503],[-106.757735938351,32.2826244583842],[-106.757751414527,32.2826764462496],[-106.757836000792,32.2826600700828],[-106.757851189507,32.2827117533858],[-106.757761790068,32.2827283026994],[-106.757763339662,32.2827333766267],[-106.757712841767,32.2827427042678],[-106.757711580532,32.2827375976844],[-106.757627261965,32.2827532067865],[-106.757613427909,32.2827042476776],[-106.757698211804,32.2826885892023],[-106.757681459122,32.2826331048035],[-106.757601492892,32.2826507864817],[-106.757585734646,32.2826011924111],[-106.757557293984,32.2826058182657],[-106.757545143371,32.2825624813426],[-106.757445096201,32.2825830216326],[-106.757357520343,32.2823033813532],[-106.757030136524,32.282372240792],[-106.757042119151,32.2824176351802],[-106.756940700254,32.2824369406232],[-106.756929966285,32.2823976409038],[-106.756903298897,32.2824027300388],[-106.756879033605,32.2823110139244],[-106.756814127631,32.282323298945],[-106.756810877526,32.2823131753469],[-106.756794418593,32.2823168351834],[-106.756745096593,32.2823823917241],[-106.75675110183,32.282402328285],[-106.756784206545,32.2823971578878],[-106.75679382301,32.2824304009238],[-106.756831416607,32.2824237207241],[-106.756922734847,32.2827700545587],[-106.756877479519,32.2827786553968],[-106.75690144747,32.2828698720763],[-106.756770128148,32.2828947951111]]]}},{"type":"Feature","properties":{"id":"631"},"geometry":{"type":"Polygon","coordinates":[[[-106.756006747006,32.2839857417093],[-106.756003032472,32.283951349442],[-106.755969715755,32.2839769131519],[-106.755936184341,32.2839635848765],[-106.755901049433,32.283978684939],[-106.75587807502,32.2839638180264],[-106.755855256913,32.2839773718571],[-106.755825190301,32.2839535579111],[-106.75578998802,32.2839566913854],[-106.755788119524,32.2839372510845],[-106.755770750598,32.2839807035459],[-106.755698419149,32.2839570581978],[-106.755720249109,32.2839054705352],[-106.755705180769,32.2839061715043],[-106.75569974147,32.283877768963],[-106.75567502163,32.2838659026081],[-106.75567308576,32.2838344949223],[-106.755641273721,32.2838136799958],[-106.755657021188,32.2837956659064],[-106.755628739528,32.2837763326532],[-106.755640891937,32.2837448702561],[-106.755635459824,32.2837179652957],[-106.755649504086,32.2837104300524],[-106.755642286122,32.2836790435773],[-106.755654480752,32.2836550601959],[-106.755626339229,32.2836611570485],[-106.755590374279,32.2835266700151],[-106.755778559653,32.2834840299476],[-106.755792921019,32.2835333372229],[-106.75581583794,32.2835377351952],[-106.755835090633,32.2835167143897],[-106.755817206973,32.2834674207754],[-106.755986073178,32.2834338340885],[-106.756018350545,32.2835384179402],[-106.756050063769,32.2835412833432],[-106.756051941248,32.2835622175657],[-106.756092450776,32.2835635511587],[-106.756103147914,32.2835874434304],[-106.75613834211,32.2835828138286],[-106.756167340626,32.2836918858476],[-106.756137311743,32.2836965686052],[-106.756150556503,32.283717479249],[-106.756159400417,32.2837400044741],[-106.756163587465,32.283763480522],[-106.756162991882,32.2837872208515],[-106.756157632533,32.2838105244926],[-106.756147667521,32.2838327094623],[-106.756133387902,32.283853122637],[-106.75618424153,32.2839207057888],[-106.756006747006,32.2839857417093]]]}}]}