{
  "type": "FeatureCollection",
  "features": [
    {
      "type": "Feature",
      "properties": {
        "id": "HJLC",
        "name": "Hardman and Jacobs Undergraduate Learning Center",
        "aka": ["HJLC", "Hardman", "Jacobs", "Learning Center", "323"],
        "address": "2902 McFie Circle, Las Cruces, NM 88003",
        "floors": [1, 2],
        "floorImages": {
          "1": "data/floors/hjlc-1.svg",
          "2": "data/floors/hjlc-2.svg"
        }
      },
      "geometry": {
        "type": "Point",
        "coordinates": [-106.7512196, 32.2824753]
      }
    }
  ]
}
