{"//": ["Made by tools/build_campuses.py. Do not edit by hand.", "Format: GeoJSON. One Point Feature per NMSU class place, inside its biggest piece: where the map writes its Name."], "type": "FeatureCollection", "features": [{"type": "Feature", "properties": {"Name": "Las Cruces Main Campus"}, "geometry": {"type": "Point", "coordinates": [-106.751083, 32.277526]}}, {"type": "Feature", "properties": {"Name": "Horse Farm"}, "geometry": {"type": "Point", "coordinates": [-106.770827, 32.271453]}}, {"type": "Feature", "properties": {"Name": "Fabian Garcia Science Center (Hort)"}, "geometry": {"type": "Point", "coordinates": [-106.773411, 32.278052]}}, {"type": "Feature", "properties": {"Name": "DACC Workforce"}, "geometry": {"type": "Point", "coordinates": [-106.74977, 32.309477]}}, {"type": "Feature", "properties": {"Name": "Leyendecker Plant Science Research Center"}, "geometry": {"type": "Point", "coordinates": [-106.741415, 32.199052]}}, {"type": "Feature", "properties": {"Name": "DACC East Mesa"}, "geometry": {"type": "Point", "coordinates": [-106.737335, 32.354119]}}, {"type": "Feature", "properties": {"Name": "DACC Gadsden"}, "geometry": {"type": "Point", "coordinates": [-106.584376, 32.023609]}}, {"type": "Feature", "properties": {"Name": "Chihuahuan Desert Rangeland Research Center (College Ranch)"}, "geometry": {"type": "Point", "coordinates": [-106.838764, 32.525142]}}, {"type": "Feature", "properties": {"Name": "DACC Chaparral"}, "geometry": {"type": "Point", "coordinates": [-106.383516, 32.046317]}}, {"type": "Feature", "properties": {"Name": "Blue Mesa (Magdalena Peak)"}, "geometry": {"type": "Point", "coordinates": [-107.170067, 32.495096]}}, {"type": "Feature", "properties": {"Name": "DACC Sunland Park"}, "geometry": {"type": "Point", "coordinates": [-106.592317, 31.807846]}}, {"type": "Feature", "properties": {"Name": "Rincon"}, "geometry": {"type": "Point", "coordinates": [-107.065602, 32.693512]}}, {"type": "Feature", "properties": {"Name": "Upham"}, "geometry": {"type": "Point", "coordinates": [-106.903889, 32.807325]}}, {"type": "Feature", "properties": {"Name": "Akela Flats"}, "geometry": {"type": "Point", "coordinates": [-107.438482, 32.253451]}}, {"type": "Feature", "properties": {"Name": "Hillsboro"}, "geometry": {"type": "Point", "coordinates": [-107.546169, 32.92462]}}, {"type": "Feature", "properties": {"Name": "Alamogordo"}, "geometry": {"type": "Point", "coordinates": [-105.924352, 32.925197]}}, {"type": "Feature", "properties": {"Name": "Elephant Butte"}, "geometry": {"type": "Point", "coordinates": [-107.230964, 33.199807]}}, {"type": "Feature", "properties": {"Name": "Artesia Science Center"}, "geometry": {"type": "Point", "coordinates": [-104.382932, 32.753019]}}, {"type": "Feature", "properties": {"Name": "CEMRC"}, "geometry": {"type": "Point", "coordinates": [-104.265649, 32.438407]}}, {"type": "Feature", "properties": {"Name": "NMDA Roswell Office"}, "geometry": {"type": "Point", "coordinates": [-104.545864, 33.394475]}}, {"type": "Feature", "properties": {"Name": "Corona Range and Livestock Research Center and The Southwest Center for Rangeland Sustainability"}, "geometry": {"type": "Point", "coordinates": [-105.326262, 34.267342]}}, {"type": "Feature", "properties": {"Name": "Agricultural Science Center at Los Lunas"}, "geometry": {"type": "Point", "coordinates": [-106.760635, 34.770319]}}, {"type": "Feature", "properties": {"Name": "Albuquerque NMDA"}, "geometry": {"type": "Point", "coordinates": [-106.614778, 35.119928]}}, {"type": "Feature", "properties": {"Name": "Grants"}, "geometry": {"type": "Point", "coordinates": [-107.842732, 35.166526]}}, {"type": "Feature", "properties": {"Name": "Santa Fe"}, "geometry": {"type": "Point", "coordinates": [-106.098115, 35.788412]}}, {"type": "Feature", "properties": {"Name": "Agricultural Science Center at Clovis"}, "geometry": {"type": "Point", "coordinates": [-103.218175, 34.597815]}}, {"type": "Feature", "properties": {"Name": "Sustainable Agriculture Science Center at Alcalde"}, "geometry": {"type": "Point", "coordinates": [-106.0591, 36.091241]}}, {"type": "Feature", "properties": {"Name": "John T. Harrington Forestry Research Center"}, "geometry": {"type": "Point", "coordinates": [-105.350628, 35.967689]}}, {"type": "Feature", "properties": {"Name": "Rex E. Kirksey Agricultural Science Center at Tucumcari"}, "geometry": {"type": "Point", "coordinates": [-103.688685, 35.20115]}}, {"type": "Feature", "properties": {"Name": "Agricultural Science Center at Farmington"}, "geometry": {"type": "Point", "coordinates": [-108.312268, 36.686274]}}, {"type": "Feature", "properties": {"Name": "Clayton Livestock Research Center"}, "geometry": {"type": "Point", "coordinates": [-103.085923, 36.472419]}}, {"type": "Feature", "properties": {"Name": "NMSU Golf Course"}, "geometry": {"type": "Point", "coordinates": [-106.730851, 32.285967]}}]}