{"type": "FeatureCollection", "features": [{"type": "Feature", "properties": {"Name": "Las Cruces Main Campus", "City": "Las Cruces", "Acres": 900, "km": 0.4, "source": "NMSU Office of Space Planning, Campus Boundaries layer (ArcGIS FeatureServer 18)"}, "geometry": {"type": "MultiPolygon", "coordinates": [[[[-106.74051199999998, 32.275278], [-106.740601, 32.275574999999996], [-106.74038200000001, 32.275622], [-106.740293, 32.275325], [-106.74051199999998, 32.275278]]], [[[-106.74133, 32.276974], [-106.74139, 32.277305000000005], [-106.74116899999999, 32.277333999999996], [-106.741108, 32.277003], [-106.74133, 32.276974]]], [[[-106.73615273093982, 32.27718865963232], [-106.73683, 32.277052], [-106.73743, 32.276932], [-106.7375169938722, 32.27720298091229], [-106.73761100000038, 32.277495000001096], [-106.737697, 32.277736], [-106.737092, 32.277878], [-106.73701, 32.277642], [-106.73635028938952, 32.277779187527564], [-106.73627500000012, 32.27754800000033], [-106.73615273093982, 32.27718865963232]]], [[[-106.76382813200992, 32.2813074314699], [-106.763837, 32.281044], [-106.763292, 32.281136], [-106.762807, 32.281211], [-106.762668, 32.280635], [-106.762308, 32.2807], [-106.762354, 32.280885999999995], [-106.762136, 32.280919000000004], [-106.762088, 32.280739], [-106.761058, 32.28091899999999], [-106.761599, 32.282956], [-106.76147900372752, 32.282978999285554], [-106.75377701891945, 32.284453996376755], [-106.75351699999739, 32.284504000000496], [-106.752733, 32.284652], [-106.752338, 32.284727], [-106.75131, 32.284921], [-106.750963, 32.284987], [-106.749904, 32.285198], [-106.749843, 32.28521], [-106.746615, 32.285855], [-106.745627, 32.285977], [-106.744681, 32.285994], [-106.743764, 32.285921], [-106.743529, 32.285915], [-106.743425, 32.285912999999994], [-106.743339, 32.285635], [-106.74318600000001, 32.285511000000014], [-106.74296799999999, 32.285437], [-106.742659, 32.285481], [-106.74225, 32.285622], [-106.741492, 32.285918], [-106.741001, 32.286031], [-106.740662, 32.286066], [-106.740347, 32.286069], [-106.740182, 32.286053], [-106.739939, 32.286007], [-106.739716, 32.28595], [-106.73953400000003, 32.28587800000001], [-106.73931299999998, 32.28574899999998], [-106.739126, 32.28558], [-106.738971, 32.285407], [-106.738412, 32.284182], [-106.737838, 32.282284], [-106.73682700000012, 32.27924300000034], [-106.73673073065291, 32.278947390320035], [-106.741063, 32.277939], [-106.74116699999995, 32.2777470000001], [-106.74138999999995, 32.27730500000009], [-106.74311, 32.27414], [-106.742498, 32.273381], [-106.742051, 32.273007], [-106.739514, 32.272861], [-106.73821199999999, 32.271706], [-106.738073, 32.271583], [-106.7398489927121, 32.2700900061266], [-106.74083117470585, 32.26926369432187], [-106.743239, 32.271015], [-106.743496, 32.27121], [-106.744793, 32.26946399999999], [-106.74434076467588, 32.269212012570264], [-106.74438338438517, 32.26913202886981], [-106.745236, 32.269566], [-106.747619, 32.270757], [-106.748148, 32.270994], [-106.748524, 32.271119], [-106.748815, 32.271223], [-106.7515259802637, 32.27260498993893], [-106.75496899283354, 32.274363996338714], [-106.75635200000012, 32.27507000000007], [-106.757653, 32.27583], [-106.761539, 32.277867], [-106.761628, 32.277755], [-106.764111, 32.278878], [-106.764423, 32.279163], [-106.764624, 32.279125], [-106.765763, 32.279983], [-106.765836, 32.280227], [-106.765975, 32.280364], [-106.766066, 32.280505], [-106.766128, 32.280685000000005], [-106.766488, 32.282014], [-106.765671, 32.282172], [-106.765362, 32.281029], [-106.76382813200992, 32.2813074314699]]]]}}, {"type": "Feature", "properties": {"Name": "Horse Farm", "City": "Las Cruces", "Acres": 48, "km": 2.0, "source": "NMSU Office of Space Planning, Campus Boundaries layer (ArcGIS FeatureServer 18)"}, "geometry": {"type": "Polygon", "coordinates": [[[-106.769659, 32.272342], [-106.76951000000001, 32.272407], [-106.767214, 32.269072], [-106.769979, 32.268755], [-106.772915, 32.268425], [-106.774502, 32.270565], [-106.770032, 32.272899], [-106.769659, 32.272342]]]}}, {"type": "Feature", "properties": {"Name": "NMSU Golf Course", "City": "Las Cruces", "Acres": null, "km": 2.2, "source": "OpenStreetMap way/50280146 (ODbL). Official East Campus is excluded (contains a public high school and a state museum), so the golf course is drawn on its own."}, "geometry": {"type": "Polygon", "coordinates": [[[-106.73578528450581, 32.287913824639496], [-106.735885, 32.288062], [-106.732784, 32.290357], [-106.7325, 32.289962], [-106.73155601268378, 32.29024299622442], [-106.73109999999961, 32.29037900000001], [-106.729774, 32.290395], [-106.729653, 32.290396], [-106.728369, 32.290411], [-106.72823, 32.290003], [-106.728412, 32.28955], [-106.728793, 32.289377], [-106.729726, 32.288525], [-106.728654, 32.287994], [-106.728353, 32.288225], [-106.727152, 32.288438], [-106.72691, 32.288044], [-106.726552, 32.287782], [-106.72625, 32.28725], [-106.72521, 32.287114], [-106.724561, 32.286733], [-106.726143, 32.285042], [-106.726685, 32.284665], [-106.726837, 32.28476], [-106.727227, 32.285001], [-106.72765, 32.284502], [-106.728235, 32.284203], [-106.729759, 32.283695], [-106.73068798828996, 32.28346800286133], [-106.73122300000031, 32.283336999999946], [-106.733138, 32.283024], [-106.736429, 32.28181], [-106.736562, 32.282232], [-106.736586, 32.282309], [-106.737011, 32.283654], [-106.73707, 32.284159], [-106.73704, 32.28464], [-106.736863, 32.285202], [-106.735709, 32.287218], [-106.73569199999999, 32.28738700000015], [-106.73568211071589, 32.287489848554905], [-106.73542, 32.287474], [-106.73460899999864, 32.28807000000099], [-106.73458699999999, 32.288086000000014], [-106.73463740000003, 32.28813640000011], [-106.73454500000001, 32.28815399999999], [-106.734524, 32.28816], [-106.73450499999998, 32.28816900000001], [-106.73448799999993, 32.28818000000004], [-106.73445199999975, 32.28820600000018], [-106.73444399999978, 32.288212000000144], [-106.73442500000007, 32.288223999999964], [-106.734405, 32.288234], [-106.734384, 32.288242], [-106.73436099999999, 32.288248], [-106.73424899999999, 32.28827], [-106.73421900000004, 32.28827899999999], [-106.734191, 32.28829100000001], [-106.734193, 32.28831399999998], [-106.734191, 32.28833599999999], [-106.734184, 32.28835900000003], [-106.73417399999998, 32.28838000000004], [-106.734167, 32.288398], [-106.734163, 32.28841700000001], [-106.734164, 32.28843599999998], [-106.73416900000002, 32.28845500000006], [-106.73422300000006, 32.28864100000018], [-106.73424900000008, 32.28873400000022], [-106.73430499999998, 32.288927999999935], [-106.73431300000001, 32.288946], [-106.734324, 32.28896199999999], [-106.73499098382469, 32.28848401159189], [-106.73578528450581, 32.287913824639496]], [[-106.733403, 32.289226], [-106.733643, 32.289464], [-106.733882, 32.289288], [-106.733935, 32.28925], [-106.73402799999991, 32.289181000000056], [-106.73403099999997, 32.28917900000002], [-106.73403800000001, 32.28917199999998], [-106.73404399999998, 32.28916500000002], [-106.734049, 32.28915699999999], [-106.73405300000002, 32.28914899999997], [-106.734055, 32.28914000000004], [-106.734056, 32.289131000000005], [-106.734056, 32.289122000000006], [-106.734054, 32.289113], [-106.734049, 32.289093], [-106.733948, 32.28873], [-106.733811, 32.28875699999999], [-106.733786, 32.288666], [-106.733313, 32.288898], [-106.733403, 32.289226]]]}}, {"type": "Feature", "properties": {"Name": "Fabian Garcia Science Center (Hort)", "City": "Las Cruces", "Acres": 46.71, "km": 2.3, "source": "NMSU Office of Space Planning, Campus Boundaries layer (ArcGIS FeatureServer 18)"}, "geometry": {"type": "MultiPolygon", "coordinates": [[[[-106.772557, 32.280031], [-106.772284, 32.280152], [-106.772079, 32.280203], [-106.77188, 32.280241], [-106.77173, 32.280248], [-106.7715, 32.28024], [-106.771257, 32.280235], [-106.77102599999995, 32.28025300000001], [-106.770617, 32.280294999999995], [-106.770201, 32.280406], [-106.769554, 32.27936], [-106.770448, 32.278963], [-106.773976, 32.277252], [-106.775014, 32.278851], [-106.772884, 32.279877], [-106.772557, 32.280031]]], [[[-106.774011, 32.282114], [-106.772031, 32.281361], [-106.77097, 32.280966], [-106.771885, 32.280545], [-106.775035, 32.278972], [-106.775177, 32.280284], [-106.775545, 32.281422], [-106.774011, 32.282114]]], [[[-106.770418, 32.280638], [-106.77063899999997, 32.280592], [-106.77071200000003, 32.280582], [-106.770783, 32.280578], [-106.770847, 32.280575], [-106.77092, 32.280574], [-106.770984, 32.280575], [-106.771062, 32.280578], [-106.771142, 32.28058], [-106.771355, 32.2806], [-106.77157899999997, 32.28061900000001], [-106.770832, 32.280944], [-106.770519, 32.280835], [-106.770418, 32.280638]]]]}}, {"type": "Feature", "properties": {"Name": "DACC Workforce", "City": "Las Cruces", "Acres": 5, "km": 3.9, "source": "NMSU Office of Space Planning, Campus Boundaries layer (ArcGIS FeatureServer 18)"}, "geometry": {"type": "Polygon", "coordinates": [[[-106.749596, 32.310704], [-106.748989, 32.30881], [-106.750123, 32.308552], [-106.750285, 32.309081], [-106.750215, 32.309097], [-106.750461, 32.309856], [-106.750613, 32.310021], [-106.749596, 32.310704]]]}}, {"type": "Feature", "properties": {"Name": "Leyendecker Plant Science Research Center", "City": "Las Cruces", "Acres": 203, "km": 8.4, "source": "NMSU Office of Space Planning, Campus Boundaries layer (ArcGIS FeatureServer 18)"}, "geometry": {"type": "Polygon", "coordinates": [[[-106.743538, 32.200309], [-106.74342600000001, 32.200534], [-106.743021, 32.200465], [-106.744757, 32.201371], [-106.743672, 32.201911], [-106.743897, 32.202187], [-106.743935, 32.202234], [-106.745205, 32.201587], [-106.7514, 32.204788], [-106.751667, 32.204957], [-106.751822, 32.205165], [-106.752155, 32.20665], [-106.750643009538, 32.20744899495975], [-106.74952199999987, 32.20804200000004], [-106.74913, 32.20819], [-106.74564800000007, 32.206155000000045], [-106.74547699999997, 32.20603799999997], [-106.745413, 32.20598], [-106.74534900000002, 32.205921000000004], [-106.74508800000004, 32.20548300000005], [-106.744712, 32.204927], [-106.744524, 32.204632], [-106.74431599999991, 32.2043959999999], [-106.74379199999997, 32.20375899999998], [-106.73382, 32.194957], [-106.73715800000001, 32.192221], [-106.745203, 32.197796], [-106.743538, 32.200309]]]}}, {"type": "Feature", "properties": {"Name": "DACC East Mesa", "City": "Las Cruces", "Acres": 60, "km": 8.9, "source": "NMSU Office of Space Planning, Campus Boundaries layer (ArcGIS FeatureServer 18)"}, "geometry": {"type": "Polygon", "coordinates": [[[-106.740472, 32.351441], [-106.74046, 32.351752], [-106.740432, 32.352458], [-106.740423, 32.352696], [-106.7404329995587, 32.353114981509975], [-106.74048299999964, 32.355147], [-106.738531, 32.355124], [-106.737601, 32.355144], [-106.737234, 32.355188], [-106.736731, 32.355279], [-106.736463, 32.355286], [-106.734213, 32.355279], [-106.734209, 32.351495], [-106.740472, 32.351441]]]}}, {"type": "Feature", "properties": {"Name": "Chihuahuan Desert Rangeland Research Center (College Ranch)", "City": "Las Cruces", "Acres": 60800, "km": 29.1, "source": "NMSU Office of Space Planning, Campus Boundaries layer (ArcGIS FeatureServer 18)"}, "geometry": {"type": "MultiPolygon", "coordinates": [[[[-106.854374, 32.434585], [-106.850092, 32.431186], [-106.854366, 32.431152], [-106.854374, 32.434585]]], [[[-106.886712, 32.45994], [-106.887545, 32.459938], [-106.887856, 32.460749], [-106.887842, 32.462526], [-106.886712, 32.45994]]], [[[-106.887804, 32.470597], [-106.880125, 32.459956], [-106.886038, 32.459942], [-106.887834, 32.463385], [-106.887804, 32.470597]]], [[[-106.904808, 32.50371], [-106.905615, 32.50371], [-106.905229, 32.505541], [-106.904808, 32.50371]]], [[[-106.896436, 32.503619], [-106.903432, 32.503655], [-106.904788, 32.508376], [-106.907546, 32.517978], [-106.911909, 32.532516], [-106.912222, 32.533753], [-106.913523, 32.536612], [-106.917134, 32.54328], [-106.917685, 32.544399], [-106.918948, 32.547044], [-106.921959, 32.55297], [-106.926538, 32.56156], [-106.93416, 32.576076], [-106.939276, 32.586105], [-106.941766, 32.590634], [-106.944396, 32.595875], [-106.944536, 32.596315], [-106.944378, 32.596371000000005], [-106.944747, 32.597156999999996], [-106.944918, 32.59710799999999], [-106.94513599999999, 32.59742399999997], [-106.949211, 32.605121], [-106.93926400422633, 32.6051170000017], [-106.92209000582059, 32.60511300000136], [-106.90491900294326, 32.60510500000137], [-106.887754, 32.605095], [-106.870551, 32.60506], [-106.870707, 32.590494], [-106.86208, 32.590466], [-106.862046, 32.586769], [-106.853454, 32.586717], [-106.853447, 32.583001], [-106.844934, 32.583063], [-106.845048, 32.575877], [-106.836426, 32.57582], [-106.832191, 32.575815], [-106.832079, 32.568517], [-106.819417, 32.568509], [-106.819383, 32.564836], [-106.810767, 32.564931], [-106.810781, 32.561261], [-106.802212, 32.561236], [-106.802137, 32.55757], [-106.793563, 32.557621], [-106.793513, 32.553993], [-106.784802, 32.554043], [-106.784806, 32.550407], [-106.780657, 32.550401], [-106.780685, 32.546822], [-106.767775, 32.5468], [-106.767832, 32.532306], [-106.767833, 32.517793], [-106.769192, 32.517794], [-106.769104, 32.504217], [-106.768912, 32.489728], [-106.768788, 32.475239], [-106.785814, 32.475239], [-106.802845, 32.475258], [-106.802836, 32.460747], [-106.802805, 32.446223], [-106.802823, 32.431748], [-106.820015, 32.431792], [-106.828685, 32.431828], [-106.837122, 32.431281], [-106.84534999510501, 32.43122300003451], [-106.84929, 32.431196], [-106.854158, 32.435136], [-106.866859, 32.445598], [-106.866908, 32.449551], [-106.871568, 32.449514], [-106.871626, 32.453077], [-106.871211, 32.460001], [-106.879184, 32.459961], [-106.88781, 32.472047], [-106.887806, 32.474478], [-106.887743, 32.489044], [-106.896251, 32.489013], [-106.896436, 32.503619]]], [[[-106.999009, 32.558821], [-106.997194, 32.562379], [-106.996372, 32.56239], [-106.995943, 32.553721], [-106.998985, 32.556625], [-106.999009, 32.558821]]], [[[-106.920145, 32.547048], [-106.91600400243482, 32.538799004850226], [-106.914553, 32.535907], [-106.913897, 32.534273], [-106.913356, 32.53253], [-106.908919, 32.517982], [-106.922178, 32.518034], [-106.939098, 32.518044], [-106.956182, 32.518091], [-106.958303, 32.518092], [-106.96039, 32.519194], [-106.960341, 32.521651], [-106.973336, 32.521647], [-106.973306, 32.51860000000002], [-106.97342200000016, 32.5186690000001], [-106.973696, 32.518846], [-106.973897, 32.519036], [-106.974012, 32.519203], [-106.974251, 32.519747], [-106.974539, 32.520377], [-106.97479099999995, 32.52071299999996], [-106.97532700000002, 32.52131100000002], [-106.97551500000006, 32.52147000000005], [-106.97584599999986, 32.521695999999906], [-106.976231, 32.521933], [-106.976958, 32.522234], [-106.977614, 32.52245], [-106.978974, 32.522964], [-106.979736, 32.523281], [-106.980575, 32.523611], [-106.981203, 32.524024], [-106.98156599999999, 32.52439899999999], [-106.981815, 32.52478400000001], [-106.981968, 32.525219], [-106.982059, 32.525814], [-106.982074, 32.526459], [-106.981967, 32.527158], [-106.981914, 32.527553], [-106.98193, 32.528086], [-106.982192, 32.52945], [-106.98251499999999, 32.53103899999993], [-106.98283100000002, 32.53243200000007], [-106.98329, 32.534268], [-106.983759, 32.536263], [-106.984295, 32.537359], [-106.984989, 32.538197], [-106.985434, 32.5386], [-106.986103, 32.539097], [-106.986715, 32.539399], [-106.987509, 32.53968], [-106.988571, 32.539945], [-106.99066, 32.540653], [-106.99064, 32.543029], [-106.990783, 32.547017], [-106.994859, 32.546919], [-106.995025, 32.547557], [-106.99512, 32.548226], [-106.995998, 32.560564], [-106.995986, 32.561629], [-106.995135, 32.570229], [-106.995343, 32.572372], [-106.994969, 32.572364], [-106.995009, 32.576117], [-106.990909, 32.575976], [-106.982239, 32.575927], [-106.982161, 32.583276], [-106.973709, 32.583258], [-106.965091, 32.583267], [-106.965072, 32.586872], [-106.973698, 32.586814], [-106.982211, 32.586777], [-106.982195, 32.590478], [-106.99089, 32.590504], [-106.990885, 32.594111], [-106.988807, 32.59271], [-106.987035, 32.594653], [-106.990881, 32.597142], [-106.990732, 32.605051], [-106.986582, 32.605047], [-106.98637, 32.604718], [-106.983489, 32.601651], [-106.981937, 32.602188], [-106.984403, 32.604691], [-106.984649, 32.605045], [-106.951282, 32.605122], [-106.942993, 32.590631], [-106.939749, 32.584602], [-106.92788, 32.561556], [-106.920145, 32.547048]]]]}}, {"type": "Feature", "properties": {"Name": "DACC Gadsden", "City": "Anthony", "Acres": 20, "km": 31.9, "source": "NMSU Office of Space Planning, Campus Boundaries layer (ArcGIS FeatureServer 18)"}, "geometry": {"type": "Polygon", "coordinates": [[[-106.585053, 32.02517], [-106.584831, 32.02515], [-106.58456, 32.02511], [-106.584308, 32.025067], [-106.584051, 32.025015], [-106.583747, 32.024934], [-106.583252, 32.024765], [-106.58283, 32.024574], [-106.582881, 32.024417], [-106.582919, 32.024276], [-106.58295699999998, 32.02414200000001], [-106.582982, 32.02401799999998], [-106.58299200000003, 32.02394199999975], [-106.583, 32.02389799999988], [-106.583037, 32.023428], [-106.583029, 32.023269], [-106.583009, 32.023074], [-106.583001, 32.02288299999999], [-106.58301, 32.022664], [-106.583009, 32.022589999999994], [-106.583019, 32.02253700000002], [-106.58306500000002, 32.022410999999956], [-106.58315, 32.022209], [-106.585751, 32.022176], [-106.585726, 32.02379], [-106.585584, 32.023982], [-106.58543600000002, 32.02418499999998], [-106.58534399999999, 32.02435500000002], [-106.585259, 32.024572], [-106.585212, 32.024767], [-106.58519, 32.024927], [-106.58519, 32.025054], [-106.585189, 32.025175000000004], [-106.585053, 32.02517]]]}}, {"type": "Feature", "properties": {"Name": "DACC Chaparral", "City": "Chaparral", "Acres": 20, "km": 42.8, "source": "NMSU Office of Space Planning, Campus Boundaries layer (ArcGIS FeatureServer 18)"}, "geometry": {"type": "Polygon", "coordinates": [[[-106.385642, 32.04537], [-106.38565, 32.04722], [-106.381383, 32.047221], [-106.381389, 32.045413], [-106.385642, 32.04537]]]}}, {"type": "Feature", "properties": {"Name": "Blue Mesa (Magdalena Peak)", "City": "Hatch", "Acres": 640, "km": 46.5, "source": "NMSU Office of Space Planning, Campus Boundaries layer (ArcGIS FeatureServer 18)"}, "geometry": {"type": "Polygon", "coordinates": [[[-107.157166, 32.489717], [-107.1616, 32.489764], [-107.173922, 32.489882], [-107.174, 32.485595], [-107.178616, 32.485604], [-107.178595, 32.489927], [-107.178532, 32.496817], [-107.175156, 32.496807], [-107.175239, 32.504388], [-107.165929, 32.504264], [-107.165853, 32.50023], [-107.161572, 32.50023], [-107.161591, 32.493375], [-107.157147, 32.493385], [-107.157166, 32.489717]]]}}, {"type": "Feature", "properties": {"Name": "DACC Sunland Park", "City": "Sunland Park", "Acres": 17, "km": 53.9, "source": "NMSU Office of Space Planning, Campus Boundaries layer (ArcGIS FeatureServer 18)"}, "geometry": {"type": "Polygon", "coordinates": [[[-106.593496, 31.807941], [-106.59304, 31.808249], [-106.591134, 31.809621], [-106.590873, 31.809372], [-106.590899, 31.807749999999995], [-106.590927, 31.80761899999999], [-106.590944, 31.807498000000002], [-106.59098, 31.807357], [-106.591042, 31.807153], [-106.591545, 31.806714], [-106.592187, 31.806262], [-106.593036, 31.80591], [-106.594078, 31.80771], [-106.593496, 31.807941]]]}}, {"type": "Feature", "properties": {"Name": "Rincon", "City": "Rincon", "Acres": 0.3581, "km": 55.2, "source": "NMSU Office of Space Planning, Campus Boundaries layer (ArcGIS FeatureServer 18)"}, "geometry": {"type": "Polygon", "coordinates": [[[-107.065338, 32.693608], [-107.065469, 32.693297], [-107.06586700000001, 32.693417], [-107.065736, 32.693726999999996], [-107.065338, 32.693608]]]}}, {"type": "Feature", "properties": {"Name": "Upham", "City": "Upham", "Acres": 10, "km": 61.0, "source": "NMSU Office of Space Planning, Campus Boundaries layer (ArcGIS FeatureServer 18)"}, "geometry": {"type": "Polygon", "coordinates": [[[-106.902789, 32.80823], [-106.902792, 32.806401], [-106.904994, 32.806425], [-106.904981, 32.808224], [-106.902789, 32.80823]]]}}, {"type": "Feature", "properties": {"Name": "Akela Flats", "City": "Deming", "Acres": 112, "km": 64.8, "source": "NMSU Office of Space Planning, Campus Boundaries layer (ArcGIS FeatureServer 18)"}, "geometry": {"type": "Polygon", "coordinates": [[[-107.435594, 32.257038], [-107.435583, 32.249865], [-107.441406, 32.249839], [-107.441346, 32.257037], [-107.435594, 32.257038]]]}}, {"type": "Feature", "properties": {"Name": "Hillsboro", "City": "Hillsboro", "Acres": 0.124, "km": 103.9, "source": "NMSU Office of Space Planning, Campus Boundaries layer (ArcGIS FeatureServer 18)"}, "geometry": {"type": "Polygon", "coordinates": [[[-107.544065, 32.926469], [-107.544108, 32.922838], [-107.548259, 32.922752], [-107.548244, 32.926402], [-107.544065, 32.926469]]]}}, {"type": "Feature", "properties": {"Name": "Alamogordo", "City": "Alamogordo", "Acres": 560, "km": 105.9, "source": "NMSU Office of Space Planning, Campus Boundaries layer (ArcGIS FeatureServer 18)"}, "geometry": {"type": "MultiPolygon", "coordinates": [[[[-105.926204, 32.918889], [-105.92614, 32.918769], [-105.92615800000002, 32.91853600000001], [-105.927005, 32.919296], [-105.927463, 32.919482], [-105.927883, 32.919582], [-105.928393, 32.919559], [-105.928905, 32.919501], [-105.92891, 32.918718], [-105.927634, 32.918722], [-105.927489, 32.918971], [-105.927175, 32.91899], [-105.926163, 32.918079], [-105.926164, 32.917545], [-105.927062, 32.917553], [-105.927045, 32.916144], [-105.929123, 32.916139], [-105.929151, 32.919139], [-105.930829, 32.919139], [-105.930803, 32.923525], [-105.926302, 32.919052], [-105.926204, 32.918889]]], [[[-105.922132, 32.922818], [-105.922155, 32.921022], [-105.924302, 32.920979], [-105.924223, 32.919129], [-105.924987, 32.919131], [-105.924318, 32.918017], [-105.92464, 32.917891], [-105.925078, 32.917791], [-105.925349, 32.917762999999994], [-105.925735, 32.917769], [-105.925797, 32.917789], [-105.925811, 32.91871100000001], [-105.925849, 32.918837999999994], [-105.926051, 32.919123], [-105.926216, 32.919314], [-105.930801, 32.923864], [-105.930788, 32.926531], [-105.933477, 32.926544], [-105.935091, 32.928105], [-105.935075, 32.933754], [-105.917936, 32.933716], [-105.917902, 32.922858], [-105.922132, 32.922818]]], [[[-105.935094, 32.927791000000006], [-105.93382, 32.926491999999996], [-105.935098, 32.926507], [-105.935094, 32.927791000000006]]]]}}, {"type": "Feature", "properties": {"Name": "Elephant Butte", "City": "Elephant Butte", "Acres": 0.96, "km": 112.3, "source": "NMSU Office of Space Planning, Campus Boundaries layer (ArcGIS FeatureServer 18)"}, "geometry": {"type": "Polygon", "coordinates": [[[-107.23044, 33.199607], [-107.230573, 33.199421], [-107.230632, 33.199315000000006], [-107.23066, 33.19921], [-107.231135, 33.199227], [-107.23113899999998, 33.200007], [-107.23044, 33.199607]]]}}, {"type": "Feature", "properties": {"Name": "Artesia Science Center", "City": "Artesia", "Acres": 160, "km": 228.2, "source": "NMSU Office of Space Planning, Campus Boundaries layer (ArcGIS FeatureServer 18)"}, "geometry": {"type": "Polygon", "coordinates": [[[-104.378684, 32.750863], [-104.37877, 32.749543], [-104.378798, 32.748056], [-104.386827, 32.748008], [-104.38753999999987, 32.755165999998624], [-104.38754699999998, 32.755237], [-104.378393, 32.755175], [-104.378684, 32.750863]]]}}, {"type": "Feature", "properties": {"Name": "CEMRC", "City": "Carlsbad", "Acres": 18, "km": 234.0, "source": "NMSU Office of Space Planning, Campus Boundaries layer (ArcGIS FeatureServer 18)"}, "geometry": {"type": "Polygon", "coordinates": [[[-104.26546200000001, 32.436226], [-104.265476, 32.43654599999997], [-104.26549300000002, 32.43658400000001], [-104.265536, 32.436594], [-104.265573, 32.436594], [-104.267269, 32.436585], [-104.267267, 32.437062], [-104.267266, 32.43754], [-104.267273, 32.438174], [-104.266798, 32.438641], [-104.266343, 32.438693], [-104.26528, 32.439681], [-104.265073, 32.439827], [-104.26359599999999, 32.440763000000004], [-104.26362600000002, 32.440595], [-104.264192, 32.439605], [-104.264269, 32.43941099999999], [-104.26429, 32.439306000000016], [-104.264296, 32.439207], [-104.264258, 32.438744], [-104.264276, 32.437064], [-104.264299, 32.436892], [-104.264362, 32.436734], [-104.26444499999998, 32.436674], [-104.264585, 32.436621], [-104.264719, 32.436602], [-104.264892, 32.4366], [-104.265099, 32.436597], [-104.265133, 32.436597], [-104.265147, 32.436584], [-104.265148, 32.43654299999999], [-104.265139, 32.436227], [-104.26546200000001, 32.436226]]]}}, {"type": "Feature", "properties": {"Name": "NMDA Roswell Office", "City": "Roswell", "Acres": 0.5, "km": 240.6, "source": "NMSU Office of Space Planning, Campus Boundaries layer (ArcGIS FeatureServer 18)"}, "geometry": {"type": "Polygon", "coordinates": [[[-104.545616, 33.394674], [-104.54562300000002, 33.39427499999999], [-104.546111, 33.394273], [-104.546107, 33.394674], [-104.545616, 33.394674]]]}}, {"type": "Feature", "properties": {"Name": "Corona Range and Livestock Research Center and The Southwest Center for Rangeland Sustainability", "City": "Corona", "Acres": 27886, "km": 258.1, "source": "NMSU Office of Space Planning, Campus Boundaries layer (ArcGIS FeatureServer 18)"}, "geometry": {"type": "Polygon", "coordinates": [[[-105.392154, 34.318189], [-105.39220999998686, 34.30363100341555], [-105.392231, 34.297973], [-105.392237, 34.296358], [-105.36948500039257, 34.29636899999981], [-105.348157, 34.296379], [-105.34818399999241, 34.28597700292443], [-105.348195, 34.281918], [-105.313177, 34.281896], [-105.313154, 34.27463], [-105.3097750046478, 34.274620000013755], [-105.3029260035106, 34.27460100000974], [-105.295722, 34.27458], [-105.278277, 34.27465], [-105.278146, 34.289184], [-105.278118, 34.292803], [-105.2738, 34.292836], [-105.273664, 34.296484], [-105.260557, 34.296446], [-105.260573, 34.303649], [-105.243233, 34.303684], [-105.22506, 34.303749], [-105.207736, 34.303727], [-105.207326, 34.289226], [-105.207475, 34.274674], [-105.207813, 34.260042], [-105.225315, 34.260053], [-105.242941, 34.260007], [-105.260454, 34.260047], [-105.261982, 34.260048], [-105.261967, 34.25321], [-105.275199, 34.253212], [-105.275182, 34.245929], [-105.279598, 34.245949], [-105.29716599892735, 34.24599199999738], [-105.313365, 34.246031], [-105.33144998613076, 34.24596100005368], [-105.34894199239879, 34.2459030000252], [-105.35757299942938, 34.24587700000172], [-105.36645, 34.24585], [-105.366391, 34.242281], [-105.383813, 34.242284], [-105.383868, 34.24587], [-105.392903, 34.245704], [-105.401404, 34.245667], [-105.401291, 34.241577], [-105.418725, 34.241366], [-105.418833, 34.245627], [-105.427827, 34.245598], [-105.43648999386484, 34.24557000001983], [-105.4415129974564, 34.2455550000076], [-105.45414998792027, 34.245516000037284], [-105.46703700000002, 34.24546999999997], [-105.467111, 34.241622], [-105.471471, 34.241695], [-105.471443, 34.234294], [-105.480235, 34.234367], [-105.480191, 34.230897], [-105.489101, 34.230858], [-105.489071, 34.245384], [-105.489103, 34.260041], [-105.47131402337025, 34.260041999998684], [-105.45416099999998, 34.260059], [-105.444882, 34.260103], [-105.444877, 34.274631], [-105.436099, 34.274644], [-105.418586, 34.274646], [-105.418617, 34.300087], [-105.41854, 34.303738], [-105.418576, 34.318126], [-105.400979, 34.318205], [-105.392154, 34.318189]]]}}, {"type": "Feature", "properties": {"Name": "Agricultural Science Center at Los Lunas", "City": "Los Lunas", "Acres": 210, "km": 277.5, "source": "NMSU Office of Space Planning, Campus Boundaries layer (ArcGIS FeatureServer 18)"}, "geometry": {"type": "MultiPolygon", "coordinates": [[[[-106.769496, 34.769085], [-106.7696229972623, 34.769970980900844], [-106.769757, 34.770911], [-106.769961, 34.772342], [-106.76957400541181, 34.772318000335616], [-106.76939599999984, 34.77230699999996], [-106.76824100665897, 34.77205700144133], [-106.76751200642876, 34.77189900139334], [-106.76662499999993, 34.77170699999999], [-106.765583, 34.771655], [-106.764765, 34.771615], [-106.763735, 34.768978], [-106.763911, 34.768154], [-106.764049, 34.767285], [-106.764116, 34.766577999999996], [-106.764167, 34.766588], [-106.765225, 34.766505], [-106.765406, 34.766491], [-106.765588, 34.766483], [-106.765795, 34.766475], [-106.766443, 34.766449], [-106.76661, 34.766442], [-106.76688, 34.766431], [-106.767121, 34.766422], [-106.7674329758368, 34.76640900100681], [-106.767777, 34.766395], [-106.76845999999986, 34.76636800000001], [-106.7685739999999, 34.766363], [-106.768732, 34.766357], [-106.76912999152185, 34.76634100034083], [-106.77016600000005, 34.766299], [-106.77041915012502, 34.766301157529476], [-106.769496, 34.769085]]], [[[-106.76115199999997, 34.77169000000001], [-106.761078, 34.771757999999984], [-106.761076, 34.771817], [-106.761014, 34.772040000000004], [-106.76097, 34.772133], [-106.760825, 34.772143], [-106.759893, 34.772083], [-106.757245, 34.771916], [-106.757008, 34.766847], [-106.763968, 34.766603], [-106.763938, 34.767083], [-106.763872, 34.767517], [-106.763707, 34.768475], [-106.763598, 34.769017], [-106.764603, 34.771621], [-106.761457, 34.771646], [-106.761289, 34.771653], [-106.76115199999997, 34.77169000000001]]], [[[-106.756519, 34.766895], [-106.756873, 34.771911], [-106.754075, 34.771703], [-106.753698, 34.767006], [-106.756519, 34.766895]]]]}}, {"type": "Feature", "properties": {"Name": "Albuquerque NMDA", "City": "Albuquerque", "Acres": 0.4, "km": 316.7, "source": "NMSU Office of Space Planning, Campus Boundaries layer (ArcGIS FeatureServer 18)"}, "geometry": {"type": "Polygon", "coordinates": [[[-106.615066, 35.120025999999925], [-106.61505799177063, 35.12008205760552], [-106.614489, 35.120081], [-106.614491, 35.119829], [-106.615067, 35.119826], [-106.615066, 35.120025999999925]]]}}, {"type": "Feature", "properties": {"Name": "Grants", "City": "Grants", "Acres": 40, "km": 337.1, "source": "NMSU Office of Space Planning, Campus Boundaries layer (ArcGIS FeatureServer 18)"}, "geometry": {"type": "Polygon", "coordinates": [[[-107.844899, 35.16827], [-107.840668, 35.168346], [-107.840633, 35.164782], [-107.844726, 35.164747], [-107.844899, 35.16827]]]}}, {"type": "Feature", "properties": {"Name": "Santa Fe", "City": "Santa Fe", "Acres": 18460, "km": 395.3, "source": "NMSU Office of Space Planning, Campus Boundaries layer (ArcGIS FeatureServer 18)"}, "geometry": {"type": "Polygon", "coordinates": [[[-106.127308, 35.855522], [-106.12529300550278, 35.85552499999181], [-106.120611, 35.855533], [-106.118418, 35.855553], [-106.116174, 35.855564], [-106.113942, 35.855568], [-106.11171902307865, 35.8555789998858], [-106.109483, 35.855588], [-106.107511, 35.855614], [-106.072842, 35.855726], [-106.073113, 35.871173], [-106.071938, 35.870479], [-106.070755, 35.869885], [-106.070181, 35.864428], [-106.067942, 35.863165], [-106.067571, 35.855685], [-106.067471, 35.853595], [-106.063989, 35.849477], [-106.065602, 35.846802], [-106.065727, 35.842762], [-106.06457899999998, 35.841529], [-106.064604, 35.840787], [-106.064698, 35.838914], [-106.068208, 35.827649], [-106.068299, 35.827384], [-106.069644, 35.825514], [-106.069691, 35.824012], [-106.067537, 35.82314], [-106.063396, 35.821547], [-106.061884, 35.820985], [-106.059964, 35.819605], [-106.059779, 35.819457], [-106.058905, 35.819108], [-106.055293, 35.817675], [-106.054474, 35.817643], [-106.05294, 35.817615], [-106.05065, 35.81585], [-106.0496160109486, 35.81513500757084], [-106.047143, 35.813423], [-106.045382, 35.812443], [-106.072241, 35.812465], [-106.072141, 35.805331], [-106.072041, 35.798188], [-106.071722, 35.78378], [-106.071835, 35.776508], [-106.03629, 35.776343], [-106.036295, 35.754614], [-106.054082, 35.754786], [-106.054082, 35.740278], [-106.071866, 35.740274], [-106.071813, 35.729446], [-106.08069, 35.729377], [-106.080759, 35.700358], [-106.071845, 35.700325], [-106.071849, 35.696661], [-106.089679, 35.696641], [-106.090503, 35.696629], [-106.089673, 35.70422000000001], [-106.09238599999998, 35.711145999999935], [-106.100209, 35.729204], [-106.114628, 35.771046], [-106.119993, 35.779888], [-106.122559, 35.783742], [-106.12623599932992, 35.793043998304825], [-106.126869, 35.79464499999998], [-106.128703, 35.798248], [-106.135328, 35.802883], [-106.142874, 35.806402], [-106.143314, 35.806635], [-106.147461, 35.806448], [-106.150087, 35.811385], [-106.150103, 35.813153], [-106.150148, 35.827644], [-106.150079, 35.831308], [-106.150075, 35.834912], [-106.150145, 35.838567], [-106.150143, 35.84158], [-106.151609, 35.841568], [-106.155999, 35.841434], [-106.159365, 35.841426], [-106.159682, 35.842079], [-106.156001, 35.842117], [-106.151616, 35.842152], [-106.14723500572846, 35.842153999997386], [-106.142853, 35.842157], [-106.138328, 35.842173], [-106.138309, 35.845005], [-106.134018, 35.845], [-106.134021, 35.845897], [-106.134014, 35.846805], [-106.134014, 35.847728], [-106.131804, 35.847714], [-106.129545, 35.847716], [-106.12952700023457, 35.84847699008274], [-106.12936299999997, 35.855529], [-106.127308, 35.855522]]]}}, {"type": "Feature", "properties": {"Name": "Agricultural Science Center at Clovis", "City": "Clovis", "Acres": 160, "km": 417.2, "source": "NMSU Office of Space Planning, Campus Boundaries layer (ArcGIS FeatureServer 18)"}, "geometry": {"type": "Polygon", "coordinates": [[[-103.222693, 34.60147], [-103.213814, 34.601551], [-103.213507, 34.594134], [-103.222688, 34.594161], [-103.222693, 34.60147]]]}}, {"type": "Feature", "properties": {"Name": "Sustainable Agriculture Science Center at Alcalde", "City": "Alcalde", "Acres": 61, "km": 429.1, "source": "NMSU Office of Space Planning, Campus Boundaries layer (ArcGIS FeatureServer 18)"}, "geometry": {"type": "Polygon", "coordinates": [[[-106.056743, 36.090593], [-106.057758, 36.089669], [-106.058774, 36.089845], [-106.058983, 36.089338], [-106.060952, 36.089687], [-106.060762, 36.090301], [-106.063449, 36.090694], [-106.063181, 36.09191], [-106.063338, 36.091921], [-106.064338, 36.092087], [-106.06282399999999, 36.093465], [-106.054545, 36.09231], [-106.054593, 36.09216], [-106.054694, 36.091789], [-106.055139, 36.090413], [-106.055224, 36.090256], [-106.055434, 36.090084], [-106.05557, 36.089979], [-106.056743, 36.090593]]]}}, {"type": "Feature", "properties": {"Name": "John T. Harrington Forestry Research Center", "City": "Mora", "Acres": 118, "km": 430.5, "source": "NMSU Office of Space Planning, Campus Boundaries layer (ArcGIS FeatureServer 18)"}, "geometry": {"type": "Polygon", "coordinates": [[[-105.34794560410715, 35.97725174350126], [-105.34785382140626, 35.97722498880593], [-105.348034, 35.976586], [-105.347387, 35.975843999999995], [-105.34751199999998, 35.975546], [-105.347272, 35.975468], [-105.347139, 35.97574500000001], [-105.346285, 35.975344], [-105.345849, 35.975136], [-105.346788, 35.972229], [-105.347357, 35.972359], [-105.347915, 35.970823], [-105.349398, 35.966701], [-105.350431, 35.963982], [-105.351146, 35.961958], [-105.35207799999999, 35.959831], [-105.352742, 35.959962], [-105.353822, 35.96018], [-105.35581, 35.961247], [-105.351662, 35.968677], [-105.350434, 35.971504], [-105.349373, 35.974329], [-105.348661, 35.976121], [-105.348367, 35.976853], [-105.348078, 35.976812], [-105.34794560410715, 35.97725174350126]], [[-105.350652, 35.968497], [-105.350198, 35.968354], [-105.35011, 35.968543], [-105.350568, 35.968669], [-105.350483, 35.968832], [-105.350862, 35.968977], [-105.350968, 35.968818], [-105.350568, 35.968669000000006], [-105.350652, 35.968497]]]}}, {"type": "Feature", "properties": {"Name": "Rex E. Kirksey Agricultural Science Center at Tucumcari", "City": "Tucumcari", "Acres": 465, "km": 431.2, "source": "NMSU Office of Space Planning, Campus Boundaries layer (ArcGIS FeatureServer 18)"}, "geometry": {"type": "Polygon", "coordinates": [[[-103.70649, 35.211618], [-103.688232, 35.211747], [-103.688251, 35.20803], [-103.684336, 35.208076], [-103.684332, 35.195451], [-103.690239, 35.193964], [-103.693059, 35.193833], [-103.693006, 35.198133], [-103.693066, 35.204168], [-103.693096, 35.208101], [-103.70649, 35.208052], [-103.70649, 35.211618]]]}}, {"type": "Feature", "properties": {"Name": "Agricultural Science Center at Farmington", "City": "Farmington", "Acres": 253, "km": 511.0, "source": "NMSU Office of Space Planning, Campus Boundaries layer (ArcGIS FeatureServer 18)"}, "geometry": {"type": "Polygon", "coordinates": [[[-108.306344, 36.680553], [-108.316632, 36.680565], [-108.316592, 36.685392], [-108.318318, 36.685392], [-108.318302, 36.687156], [-108.318241, 36.687289], [-108.318118, 36.687343], [-108.315299, 36.687355], [-108.315313, 36.687975], [-108.315278, 36.68808], [-108.315207, 36.688192], [-108.314091, 36.688225], [-108.314064, 36.690751], [-108.306132, 36.690762], [-108.306344, 36.680553]]]}}, {"type": "Feature", "properties": {"Name": "Clayton Livestock Research Center", "City": "Clayton", "Acres": 320, "km": 575.2, "source": "NMSU Office of Space Planning, Campus Boundaries layer (ArcGIS FeatureServer 18)"}, "geometry": {"type": "Polygon", "coordinates": [[[-103.080926, 36.481922], [-103.081146, 36.478258], [-103.081719, 36.468535], [-103.0817539997575, 36.46791900426803], [-103.081796, 36.467182], [-103.090709, 36.467193], [-103.09009500122382, 36.47630298184208], [-103.0900849999997, 36.47645300000431], [-103.08971, 36.481895], [-103.080926, 36.481922]]]}}]}