{
 "type": "FeatureCollection",
 "features": [
  {
   "type": "Feature",
   "properties": {
    "name": "New Mexico State University",
    "source": "OpenStreetMap relation 13399173 (ODbL)"
   },
   "geometry": {
    "type": "Polygon",
    "coordinates": [
     [
      [
       -106.764622,
       32.279126
      ],
      [
       -106.764446,
       32.279167
      ],
      [
       -106.763903,
       32.27889
      ],
      [
       -106.760995,
       32.277405
      ],
      [
       -106.757502,
       32.27561
      ],
      [
       -106.756399,
       32.274935
      ],
      [
       -106.748176,
       32.27075
      ],
      [
       -106.748091,
       32.270871
      ],
      [
       -106.745929,
       32.269771
      ],
      [
       -106.738464,
       32.265971
      ],
      [
       -106.73732,
       32.265388
      ],
      [
       -106.736683,
       32.265036
      ],
      [
       -106.735867,
       32.264539
      ],
      [
       -106.735048,
       32.263958
      ],
      [
       -106.733233,
       32.262441
      ],
      [
       -106.732846,
       32.262449
      ],
      [
       -106.732538,
       32.262518
      ],
      [
       -106.732297,
       32.26263
      ],
      [
       -106.732042,
       32.262796
      ],
      [
       -106.731839,
       32.263005
      ],
      [
       -106.731545,
       32.263345
      ],
      [
       -106.732451,
       32.264536
      ],
      [
       -106.731941,
       32.264792
      ],
      [
       -106.733164,
       32.268524
      ],
      [
       -106.738295,
       32.284411
      ],
      [
       -106.738591,
       32.285133
      ],
      [
       -106.73881,
       32.285505
      ],
      [
       -106.739035,
       32.285785
      ],
      [
       -106.739374,
       32.286037
      ],
      [
       -106.739639,
       32.286174
      ],
      [
       -106.739952,
       32.286267
      ],
      [
       -106.740242,
       32.286316
      ],
      [
       -106.740507,
       32.286318
      ],
      [
       -106.740844,
       32.286283
      ],
      [
       -106.74126,
       32.286222
      ],
      [
       -106.742239,
       32.286022
      ],
      [
       -106.742451,
       32.285988
      ],
      [
       -106.743142,
       32.285929
      ],
      [
       -106.743504,
       32.285916
      ],
      [
       -106.743752,
       32.285907
      ],
      [
       -106.743942,
       32.285908
      ],
      [
       -106.74408,
       32.28592
      ],
      [
       -106.744437,
       32.285976
      ],
      [
       -106.744615,
       32.285993
      ],
      [
       -106.744927,
       32.286004
      ],
      [
       -106.745287,
       32.285997
      ],
      [
       -106.745648,
       32.285974
      ],
      [
       -106.745984,
       32.285945
      ],
      [
       -106.746561,
       32.285855
      ],
      [
       -106.747246,
       32.285721
      ],
      [
       -106.747581,
       32.285669
      ],
      [
       -106.748396,
       32.285517
      ],
      [
       -106.748801,
       32.285418
      ],
      [
       -106.750009,
       32.285121
      ],
      [
       -106.750665,
       32.285005
      ],
      [
       -106.751398,
       32.284865
      ],
      [
       -106.752813,
       32.284596
      ],
      [
       -106.753945,
       32.284381
      ],
      [
       -106.755491,
       32.284085
      ],
      [
       -106.75551,
       32.284107
      ],
      [
       -106.756186,
       32.283967
      ],
      [
       -106.756205,
       32.283943
      ],
      [
       -106.756528,
       32.283878
      ],
      [
       -106.756518,
       32.283841
      ],
      [
       -106.757256,
       32.283702
      ],
      [
       -106.757623,
       32.283661
      ],
      [
       -106.758483,
       32.283499
      ],
      [
       -106.761475,
       32.282911
      ],
      [
       -106.761478,
       32.282877
      ],
      [
       -106.761349,
       32.282381
      ],
      [
       -106.761224,
       32.281858
      ],
      [
       -106.760984,
       32.281035
      ],
      [
       -106.762134,
       32.280818
      ],
      [
       -106.762167,
       32.280957
      ],
      [
       -106.762378,
       32.280927
      ],
      [
       -106.762341,
       32.280777
      ],
      [
       -106.762703,
       32.280709
      ],
      [
       -106.762818,
       32.281181
      ],
      [
       -106.76381,
       32.281015
      ],
      [
       -106.76395,
       32.280992
      ],
      [
       -106.763926,
       32.281225
      ],
      [
       -106.765315,
       32.280949
      ],
      [
       -106.765645,
       32.28213
      ],
      [
       -106.766838,
       32.281897
      ],
      [
       -106.767135,
       32.281838
      ],
      [
       -106.767231,
       32.2818
      ],
      [
       -106.767278,
       32.281729
      ],
      [
       -106.76729,
       32.28163
      ],
      [
       -106.767246,
       32.281537
      ],
      [
       -106.765695,
       32.280024
      ],
      [
       -106.765464,
       32.279783
      ],
      [
       -106.765072,
       32.27945
      ],
      [
       -106.764622,
       32.279126
      ]
     ]
    ]
   }
  }
 ]
}