{
 "type": "FeatureCollection",
 "features": [
  {
   "type": "Feature",
   "properties": {
    "id": "park-527603",
    "code": "",
    "name": "Preciado Park",
    "aka": [
     "Outdoor Spaces"
    ],
    "address": null,
    "propertyNumber": null,
    "built": null,
    "floors": [],
    "floorsSource": "",
    "kind": "Outdoor Spaces",
    "nmsuUrl": "https://map.nmsu.edu/?id=1888#!m/527603",
    "photos": [],
    "source": "NMSU's official campus map (Concept3D location 527603)",
    "floorImages": {},
    "postedImages": {},
    "description": [],
    "doors": [],
    "codeSource": "",
    "category": "park"
   },
   "geometry": {
    "type": "Point",
    "coordinates": [
     -106.751343,
     32.278271
    ]
   }
  },
  {
   "type": "Feature",
   "properties": {
    "id": "park-527602",
    "code": "",
    "name": "Pride Field",
    "aka": [
     "Outdoor Spaces"
    ],
    "address": null,
    "propertyNumber": null,
    "built": null,
    "floors": [],
    "floorsSource": "",
    "kind": "Outdoor Spaces",
    "nmsuUrl": "https://map.nmsu.edu/?id=1888#!m/527602",
    "photos": [],
    "source": "NMSU's official campus map (Concept3D location 527602)",
    "floorImages": {},
    "postedImages": {},
    "description": [],
    "doors": [],
    "codeSource": "",
    "category": "park"
   },
   "geometry": {
    "type": "Point",
    "coordinates": [
     -106.754425,
     32.282249
    ]
   }
  },
  {
   "type": "Feature",
   "properties": {
    "id": "park-527604",
    "code": "",
    "name": "Alumni Pond",
    "aka": [
     "Outdoor Spaces"
    ],
    "address": null,
    "propertyNumber": null,
    "built": null,
    "floors": [],
    "floorsSource": "",
    "kind": "Outdoor Spaces",
    "nmsuUrl": "https://map.nmsu.edu/?id=1888#!m/527604",
    "photos": [],
    "source": "NMSU's official campus map (Concept3D location 527604)",
    "floorImages": {},
    "postedImages": {},
    "description": [],
    "doors": [],
    "codeSource": "",
    "category": "park"
   },
   "geometry": {
    "type": "Point",
    "coordinates": [
     -106.745255,
     32.283398
    ]
   }
  },
  {
   "type": "Feature",
   "properties": {
    "id": "park-528759",
    "code": "",
    "name": "Turtle Pond",
    "aka": [
     "Outdoor Spaces"
    ],
    "address": null,
    "propertyNumber": null,
    "built": null,
    "floors": [],
    "floorsSource": "",
    "kind": "Outdoor Spaces",
    "nmsuUrl": "https://map.nmsu.edu/?id=1888#!m/528759",
    "photos": [],
    "source": "NMSU's official campus map (Concept3D location 528759)",
    "floorImages": {},
    "postedImages": {},
    "description": [],
    "doors": [],
    "codeSource": "",
    "category": "park"
   },
   "geometry": {
    "type": "Point",
    "coordinates": [
     -106.75602,
     32.28112
    ]
   }
  },
  {
   "type": "Feature",
   "properties": {
    "id": "park-568698",
    "code": "",
    "name": "Desert Sculpture Garden",
    "aka": [
     "Green Spaces"
    ],
    "address": null,
    "propertyNumber": null,
    "built": null,
    "floors": [],
    "floorsSource": "",
    "kind": "Green Spaces",
    "nmsuUrl": "https://map.nmsu.edu/?id=1888#!m/568698",
    "photos": [],
    "source": "NMSU's official campus map (Concept3D location 568698)",
    "floorImages": {},
    "postedImages": {},
    "description": [],
    "doors": [],
    "codeSource": "",
    "category": "park"
   },
   "geometry": {
    "type": "Point",
    "coordinates": [
     -106.749786,
     32.283325
    ]
   }
  }
 ]
}