{"//":["Made by tools/build_parks.py. Do not edit by hand.","Format: GeoJSON. One Feature per park: properties {\"id\": \"park-<NMSU map id>\"} and its outline (a Polygon).","Directions use it to tell when you have arrived."],"type":"FeatureCollection","features":[{"type":"Feature","properties":{"id":"park-527603"},"geometry":{"type":"Polygon","coordinates":[[[-106.7518715,32.2788993],[-106.7518005,32.2786511],[-106.7518014,32.2786342],[-106.7518062,32.2786181],[-106.7518146,32.2786072],[-106.751826,32.278597],[-106.7518385,32.2785907],[-106.7518565,32.278586],[-106.7518665,32.2785799],[-106.7518748,32.2785705],[-106.751877,32.2785608],[-106.7518684,32.2785217],[-106.7526636,32.2783717],[-106.7524755,32.2776406],[-106.7524652,32.2776293],[-106.7524513,32.2776197],[-106.7524341,32.2776163],[-106.7503659,32.2780012],[-106.7503525,32.2780107],[-106.7503439,32.2780285],[-106.7503407,32.2780483],[-106.7506201,32.2791011],[-106.7506351,32.2790982],[-106.7506373,32.2791067],[-106.7506474,32.2791138],[-106.7506613,32.2791157],[-106.7508337,32.2790831],[-106.7508371,32.2790946],[-106.7518715,32.2788993]]]}},{"type":"Feature","properties":{"id":"park-527602"},"geometry":{"type":"Polygon","coordinates":[[[-106.75415936180433,32.282249],[-106.75416446596776,32.2822928129541],[-106.75417958230796,32.28233494220095],[-106.75420412991242,32.2823737687372],[-106.7542371654305,32.28240780048086],[-106.75427741932573,32.2824357296111],[-106.7543233446635,32.2824564828271],[-106.75437317655886,32.28246926259441],[-106.754425,32.282473577793745],[-106.75447682344114,32.28246926259441],[-106.75452665533649,32.2824564828271],[-106.75457258067426,32.2824357296111],[-106.7546128345695,32.28240780048086],[-106.75464587008757,32.2823737687372],[-106.75467041769204,32.28233494220095],[-106.75468553403223,32.2822928129541],[-106.75469063819567,32.282249],[-106.75468553403223,32.2822051870459],[-106.75467041769204,32.28216305779905],[-106.75464587008757,32.2821242312628],[-106.7546128345695,32.28209019951914],[-106.75457258067426,32.2820622703889],[-106.75452665533649,32.2820415171729],[-106.75447682344114,32.28202873740559],[-106.754425,32.282024422206256],[-106.75437317655886,32.28202873740559],[-106.7543233446635,32.2820415171729],[-106.75427741932573,32.2820622703889],[-106.7542371654305,32.28209019951914],[-106.75420412991242,32.2821242312628],[-106.75417958230796,32.28216305779905],[-106.75416446596776,32.2822051870459],[-106.75415936180433,32.282249]]]}},{"type":"Feature","properties":{"id":"park-527604"},"geometry":{"type":"Polygon","coordinates":[[[-106.7446473,32.2830979],[-106.7446151,32.2830811],[-106.7446038,32.2830265],[-106.7446026,32.2830205],[-106.7446218,32.2829955],[-106.7446307,32.2829547],[-106.7446306,32.2828952],[-106.7446199,32.2828421],[-106.7445756,32.2828062],[-106.7445106,32.2827848],[-106.7444616,32.282771],[-106.7444237,32.282779],[-106.7443606,32.2828227],[-106.744345,32.2829003],[-106.7443805,32.2829854],[-106.7444821,32.2830285],[-106.7444864,32.283048],[-106.7444982,32.2831009],[-106.7444902,32.283121],[-106.7444703,32.283161],[-106.7444449,32.2832631],[-106.7443605,32.283317],[-106.7441586,32.2833221],[-106.7440895,32.2833453],[-106.7440513,32.2834167],[-106.7440506,32.2834615],[-106.7440835,32.28355],[-106.7445082,32.2837621],[-106.744626,32.2837666],[-106.744699,32.283728],[-106.744744,32.2836662],[-106.7447623,32.2836022],[-106.7447607,32.2834689],[-106.7447132,32.2832586],[-106.7447667,32.2832076],[-106.7447647,32.2831401],[-106.7447154,32.2831112],[-106.7446473,32.2830979]]]}},{"type":"Feature","properties":{"id":"park-528759"},"geometry":{"type":"Polygon","coordinates":[[[-106.7559743,32.281297],[-106.7559418,32.2813019],[-106.7559157,32.2812887],[-106.7558819,32.2812636],[-106.755859,32.2812358],[-106.7558368,32.2811995],[-106.7558301,32.2811468],[-106.7558395,32.2811166],[-106.7558391,32.2810931],[-106.7558828,32.2810583],[-106.7559354,32.2810471],[-106.7559745,32.2810498],[-106.7560776,32.2810571],[-106.7561406,32.2810709],[-106.7561647,32.2810782],[-106.7561844,32.281091],[-106.7562075,32.2811142],[-106.7561986,32.2811273],[-106.7561835,32.2811497],[-106.756168,32.2811639],[-106.7561506,32.2811875],[-106.7561315,32.2812314],[-106.7560969,32.281282],[-106.7560682,32.2812985],[-106.7560515,32.2813039],[-106.7560333,32.2813004],[-106.7560273,32.281292],[-106.7560236,32.2812837],[-106.7560256,32.2812656],[-106.756034,32.2812472],[-106.7560453,32.2812323],[-106.7560591,32.2812126],[-106.7560659,32.2811936],[-106.7560581,32.2811823],[-106.7560464,32.2811735],[-106.7560239,32.2811662],[-106.7560038,32.2811684],[-106.7559855,32.2811754],[-106.7559678,32.2811901],[-106.7559599,32.2812126],[-106.7559629,32.2812242],[-106.7559661,32.2812339],[-106.7559776,32.2812432],[-106.7559855,32.2812516],[-106.7559904,32.2812639],[-106.755986,32.2812782],[-106.7559743,32.281297]]]}},{"type":"Feature","properties":{"id":"park-568698"},"geometry":{"type":"Polygon","coordinates":[[[-106.749426,32.2832207],[-106.7499975,32.2831139],[-106.7500009,32.2831268],[-106.7500863,32.2831109],[-106.7500899,32.2831247],[-106.7501153,32.28312],[-106.7501744,32.2833457],[-106.7495068,32.2834705],[-106.7494974,32.2834689],[-106.749489,32.2834646],[-106.749426,32.2832207]]]}}]}