{"//":["Made by tools/build_places.py. Do not edit by hand.","Format: GeoJSON. One Feature per park or food place: properties {\"id\", \"category\", \"name\"} and its outline.","Directions use it to tell when you have arrived."],"type":"FeatureCollection","features":[{"type":"Feature","properties":{"id":"park-527603","category":"park","name":"Preciado Park"},"geometry":{"type":"Polygon","coordinates":[[[-106.7518715,32.2788993],[-106.7518005,32.2786511],[-106.7518014,32.2786342],[-106.7518062,32.2786181],[-106.7518146,32.2786072],[-106.751826,32.278597],[-106.7518385,32.2785907],[-106.7518565,32.278586],[-106.7518665,32.2785799],[-106.7518748,32.2785705],[-106.751877,32.2785608],[-106.7518684,32.2785217],[-106.7526636,32.2783717],[-106.7524755,32.2776406],[-106.7524652,32.2776293],[-106.7524513,32.2776197],[-106.7524341,32.2776163],[-106.7503659,32.2780012],[-106.7503525,32.2780107],[-106.7503439,32.2780285],[-106.7503407,32.2780483],[-106.7506201,32.2791011],[-106.7506351,32.2790982],[-106.7506373,32.2791067],[-106.7506474,32.2791138],[-106.7506613,32.2791157],[-106.7508337,32.2790831],[-106.7508371,32.2790946],[-106.7518715,32.2788993]]]}},{"type":"Feature","properties":{"id":"park-527602","category":"park","name":"Pride Field"},"geometry":{"type":"Polygon","coordinates":[[[-106.75415936180433,32.282249],[-106.75416446596776,32.2822928129541],[-106.75417958230796,32.28233494220095],[-106.75420412991242,32.2823737687372],[-106.7542371654305,32.28240780048086],[-106.75427741932573,32.2824357296111],[-106.7543233446635,32.2824564828271],[-106.75437317655886,32.28246926259441],[-106.754425,32.282473577793745],[-106.75447682344114,32.28246926259441],[-106.75452665533649,32.2824564828271],[-106.75457258067426,32.2824357296111],[-106.7546128345695,32.28240780048086],[-106.75464587008757,32.2823737687372],[-106.75467041769204,32.28233494220095],[-106.75468553403223,32.2822928129541],[-106.75469063819567,32.282249],[-106.75468553403223,32.2822051870459],[-106.75467041769204,32.28216305779905],[-106.75464587008757,32.2821242312628],[-106.7546128345695,32.28209019951914],[-106.75457258067426,32.2820622703889],[-106.75452665533649,32.2820415171729],[-106.75447682344114,32.28202873740559],[-106.754425,32.282024422206256],[-106.75437317655886,32.28202873740559],[-106.7543233446635,32.2820415171729],[-106.75427741932573,32.2820622703889],[-106.7542371654305,32.28209019951914],[-106.75420412991242,32.2821242312628],[-106.75417958230796,32.28216305779905],[-106.75416446596776,32.2822051870459],[-106.75415936180433,32.282249]]]}},{"type":"Feature","properties":{"id":"park-527604","category":"park","name":"Alumni Pond"},"geometry":{"type":"Polygon","coordinates":[[[-106.7446473,32.2830979],[-106.7446151,32.2830811],[-106.7446038,32.2830265],[-106.7446026,32.2830205],[-106.7446218,32.2829955],[-106.7446307,32.2829547],[-106.7446306,32.2828952],[-106.7446199,32.2828421],[-106.7445756,32.2828062],[-106.7445106,32.2827848],[-106.7444616,32.282771],[-106.7444237,32.282779],[-106.7443606,32.2828227],[-106.744345,32.2829003],[-106.7443805,32.2829854],[-106.7444821,32.2830285],[-106.7444864,32.283048],[-106.7444982,32.2831009],[-106.7444902,32.283121],[-106.7444703,32.283161],[-106.7444449,32.2832631],[-106.7443605,32.283317],[-106.7441586,32.2833221],[-106.7440895,32.2833453],[-106.7440513,32.2834167],[-106.7440506,32.2834615],[-106.7440835,32.28355],[-106.7445082,32.2837621],[-106.744626,32.2837666],[-106.744699,32.283728],[-106.744744,32.2836662],[-106.7447623,32.2836022],[-106.7447607,32.2834689],[-106.7447132,32.2832586],[-106.7447667,32.2832076],[-106.7447647,32.2831401],[-106.7447154,32.2831112],[-106.7446473,32.2830979]]]}},{"type":"Feature","properties":{"id":"park-528759","category":"park","name":"Turtle Pond"},"geometry":{"type":"Polygon","coordinates":[[[-106.7559743,32.281297],[-106.7559418,32.2813019],[-106.7559157,32.2812887],[-106.7558819,32.2812636],[-106.755859,32.2812358],[-106.7558368,32.2811995],[-106.7558301,32.2811468],[-106.7558395,32.2811166],[-106.7558391,32.2810931],[-106.7558828,32.2810583],[-106.7559354,32.2810471],[-106.7559745,32.2810498],[-106.7560776,32.2810571],[-106.7561406,32.2810709],[-106.7561647,32.2810782],[-106.7561844,32.281091],[-106.7562075,32.2811142],[-106.7561986,32.2811273],[-106.7561835,32.2811497],[-106.756168,32.2811639],[-106.7561506,32.2811875],[-106.7561315,32.2812314],[-106.7560969,32.281282],[-106.7560682,32.2812985],[-106.7560515,32.2813039],[-106.7560333,32.2813004],[-106.7560273,32.281292],[-106.7560236,32.2812837],[-106.7560256,32.2812656],[-106.756034,32.2812472],[-106.7560453,32.2812323],[-106.7560591,32.2812126],[-106.7560659,32.2811936],[-106.7560581,32.2811823],[-106.7560464,32.2811735],[-106.7560239,32.2811662],[-106.7560038,32.2811684],[-106.7559855,32.2811754],[-106.7559678,32.2811901],[-106.7559599,32.2812126],[-106.7559629,32.2812242],[-106.7559661,32.2812339],[-106.7559776,32.2812432],[-106.7559855,32.2812516],[-106.7559904,32.2812639],[-106.755986,32.2812782],[-106.7559743,32.281297]]]}},{"type":"Feature","properties":{"id":"park-568698","category":"park","name":"Desert Sculpture Garden"},"geometry":{"type":"Polygon","coordinates":[[[-106.749426,32.2832207],[-106.7499975,32.2831139],[-106.7500009,32.2831268],[-106.7500863,32.2831109],[-106.7500899,32.2831247],[-106.7501153,32.28312],[-106.7501744,32.2833457],[-106.7495068,32.2834705],[-106.7494974,32.2834689],[-106.749489,32.2834646],[-106.749426,32.2832207]]]}},{"type":"Feature","properties":{"id":"park-531879","category":"park","name":"Community Garden"},"geometry":{"type":"Polygon","coordinates":[[[-106.75039038673582,32.273735],[-106.75039549042022,32.2737788129541],[-106.75041060534166,32.27382094220095],[-106.75043515064222,32.2738597687372],[-106.75046818305972,32.27389380048086],[-106.75050843317693,32.273921729611104],[-106.75055435420438,32.2739424828271],[-106.75060418142276,32.27395526259441],[-106.750656,32.27395957779375],[-106.75070781857725,32.27395526259441],[-106.75075764579563,32.2739424828271],[-106.75080356682308,32.273921729611104],[-106.75084381694029,32.27389380048086],[-106.7508768493578,32.2738597687372],[-106.75090139465836,32.27382094220095],[-106.7509165095798,32.2737788129541],[-106.7509216132642,32.273735],[-106.7509165095798,32.273691187045905],[-106.75090139465836,32.273649057799055],[-106.7508768493578,32.2736102312628],[-106.75084381694029,32.27357619951914],[-106.75080356682308,32.2735482703889],[-106.75075764579563,32.2735275171729],[-106.75070781857725,32.27351473740559],[-106.750656,32.27351042220626],[-106.75060418142276,32.27351473740559],[-106.75055435420438,32.2735275171729],[-106.75050843317693,32.2735482703889],[-106.75046818305972,32.27357619951914],[-106.75043515064222,32.2736102312628],[-106.75041060534166,32.273649057799055],[-106.75039549042022,32.273691187045905],[-106.75039038673582,32.273735]]]}},{"type":"Feature","properties":{"id":"park-635851","category":"park","name":"Jose Fernandez Memorial Garden"},"geometry":{"type":"Polygon","coordinates":[[[-106.7644213658373,32.280872],[-106.76442646992325,32.2809158129541],[-106.76444158603394,32.28095794220095],[-106.76446613326571,32.280996768737204],[-106.76449916828224,32.28103080048086],[-106.76453942156633,32.281058729611104],[-106.76458534620686,32.2810794828271],[-106.76463517734565,32.28109226259441],[-106.764687,32.28109657779375],[-106.76473882265434,32.28109226259441],[-106.76478865379313,32.2810794828271],[-106.76483457843366,32.281058729611104],[-106.76487483171775,32.28103080048086],[-106.76490786673428,32.280996768737204],[-106.76493241396605,32.28095794220095],[-106.76494753007674,32.2809158129541],[-106.7649526341627,32.280872],[-106.76494753007674,32.280828187045906],[-106.76493241396605,32.280786057799055],[-106.76490786673428,32.2807472312628],[-106.76487483171775,32.28071319951914],[-106.76483457843366,32.2806852703889],[-106.76478865379313,32.2806645171729],[-106.76473882265434,32.28065173740559],[-106.764687,32.28064742220626],[-106.76463517734565,32.28065173740559],[-106.76458534620686,32.2806645171729],[-106.76453942156633,32.2806852703889],[-106.76449916828224,32.28071319951914],[-106.76446613326571,32.2807472312628],[-106.76444158603394,32.280786057799055],[-106.76442646992325,32.280828187045906],[-106.7644213658373,32.280872]]]}},{"type":"Feature","properties":{"id":"park-527598","category":"park","name":"Pat & Lou Sisbarro Field"},"geometry":{"type":"Polygon","coordinates":[[[-106.7392069,32.2781322],[-106.7391523,32.2781538],[-106.7387234,32.2783893],[-106.7386279,32.278776],[-106.7379855,32.2797074],[-106.7374692,32.2804894],[-106.73739,32.2806337],[-106.7374204,32.2807936],[-106.7377233,32.2818402],[-106.7378168,32.2821254],[-106.7381604,32.2822268],[-106.7389836,32.2820739],[-106.7399329,32.2818952],[-106.740185,32.2818419],[-106.7402216,32.281792],[-106.7399715,32.2809371],[-106.7398905,32.2807849],[-106.7397508,32.28059],[-106.739577,32.2803501],[-106.7394678,32.2801255],[-106.7394048,32.2799012],[-106.739394,32.2795213],[-106.7394487,32.2790796],[-106.7394542,32.2788956],[-106.7393466,32.2784421],[-106.7392621,32.2781503],[-106.7392069,32.2781322]]]}},{"type":"Feature","properties":{"id":"park-527605","category":"park","name":"Pete's Hideout"},"geometry":{"type":"Polygon","coordinates":[[[-106.75209937736358,32.276936],[-106.75210448122806,32.276979812954096],[-106.75211959668285,32.277021942200946],[-106.75214414284947,32.2770607687372],[-106.75217717643255,32.27709480048086],[-106.75221742797,32.2771227296111],[-106.75226335061778,32.2771434828271],[-106.75231317959432,32.27715626259441],[-106.752365,32.277160577793744],[-106.75241682040567,32.27715626259441],[-106.75246664938221,32.2771434828271],[-106.75251257203,32.2771227296111],[-106.75255282356744,32.27709480048086],[-106.75258585715052,32.2770607687372],[-106.75261040331715,32.277021942200946],[-106.75262551877194,32.276979812954096],[-106.75263062263642,32.276936],[-106.75262551877194,32.2768921870459],[-106.75261040331715,32.27685005779905],[-106.75258585715052,32.2768112312628],[-106.75255282356744,32.27677719951914],[-106.75251257203,32.2767492703889],[-106.75246664938221,32.2767285171729],[-106.75241682040567,32.27671573740559],[-106.752365,32.276711422206255],[-106.75231317959432,32.27671573740559],[-106.75226335061778,32.2767285171729],[-106.75221742797,32.2767492703889],[-106.75217717643255,32.27677719951914],[-106.75214414284947,32.2768112312628],[-106.75211959668285,32.27685005779905],[-106.75210448122806,32.2768921870459],[-106.75209937736358,32.276936]]]}},{"type":"Feature","properties":{"id":"park-535106","category":"park","name":"Upper Intramural Field"},"geometry":{"type":"Polygon","coordinates":[[[-106.74637737293023,32.27845],[-106.74638247687989,32.278493812954096],[-106.74639759258694,32.278535942200946],[-106.74642213916327,32.2785747687372],[-106.74645517329769,32.27860880048086],[-106.74649542550695,32.2786367296111],[-106.74654134892121,32.2786574828271],[-106.74659117872943,32.27867026259441],[-106.746643,32.278674577793744],[-106.74669482127058,32.27867026259441],[-106.7467446510788,32.2786574828271],[-106.74679057449306,32.2786367296111],[-106.74683082670232,32.27860880048086],[-106.74686386083674,32.2785747687372],[-106.74688840741307,32.278535942200946],[-106.74690352312012,32.278493812954096],[-106.74690862706979,32.27845],[-106.74690352312012,32.2784061870459],[-106.74688840741307,32.27836405779905],[-106.74686386083674,32.2783252312628],[-106.74683082670232,32.27829119951914],[-106.74679057449306,32.2782632703889],[-106.7467446510788,32.2782425171729],[-106.74669482127058,32.27822973740559],[-106.746643,32.278225422206255],[-106.74659117872943,32.27822973740559],[-106.74654134892121,32.2782425171729],[-106.74649542550695,32.2782632703889],[-106.74645517329769,32.27829119951914],[-106.74642213916327,32.2783252312628],[-106.74639759258694,32.27836405779905],[-106.74638247687989,32.2784061870459],[-106.74637737293023,32.27845]]]}},{"type":"Feature","properties":{"id":"park-535107","category":"park","name":"Lower Intramural Field"},"geometry":{"type":"Polygon","coordinates":[[[-106.74849037851433,32.276543],[-106.7484954823567,32.27658681295409],[-106.74851059774599,32.276628942200944],[-106.7485351438063,32.2766677687372],[-106.74856817724626,32.27670180048086],[-106.74860842860932,32.2767297296111],[-106.74865435105815,32.2767504828271],[-106.74870417981883,32.27676326259441],[-106.748756,32.27676757779374],[-106.74880782018117,32.27676326259441],[-106.74885764894185,32.2767504828271],[-106.74890357139068,32.2767297296111],[-106.74894382275374,32.27670180048086],[-106.7489768561937,32.2766677687372],[-106.74900140225401,32.276628942200944],[-106.7490165176433,32.27658681295409],[-106.74902162148567,32.276543],[-106.7490165176433,32.2764991870459],[-106.74900140225401,32.27645705779905],[-106.7489768561937,32.276418231262795],[-106.74894382275374,32.276384199519136],[-106.74890357139068,32.276356270388895],[-106.74885764894185,32.276335517172896],[-106.74880782018117,32.276322737405586],[-106.748756,32.27631842220625],[-106.74870417981883,32.276322737405586],[-106.74865435105815,32.276335517172896],[-106.74860842860932,32.276356270388895],[-106.74856817724626,32.276384199519136],[-106.7485351438063,32.276418231262795],[-106.74851059774599,32.27645705779905],[-106.7484954823567,32.2764991870459],[-106.74849037851433,32.276543]]]}},{"type":"Feature","properties":{"id":"park-567653","category":"park","name":"Outdoor Basketball"},"geometry":{"type":"Polygon","coordinates":[[[-106.75102337205756,32.278748],[-106.75102847602399,32.2787918129541],[-106.75104359178071,32.27883394220095],[-106.75106813843767,32.2788727687372],[-106.75110117268062,32.27890680048086],[-106.75114142502213,32.2789347296111],[-106.75118734858725,32.2789554828271],[-106.75123717855917,32.27896826259441],[-106.751289,32.278972577793745],[-106.75134082144083,32.27896826259441],[-106.75139065141275,32.2789554828271],[-106.75143657497787,32.2789347296111],[-106.75147682731938,32.27890680048086],[-106.75150986156233,32.2788727687372],[-106.75153440821929,32.27883394220095],[-106.75154952397601,32.2787918129541],[-106.75155462794244,32.278748],[-106.75154952397601,32.2787041870459],[-106.75153440821929,32.27866205779905],[-106.75150986156233,32.2786232312628],[-106.75147682731938,32.27858919951914],[-106.75143657497787,32.2785612703889],[-106.75139065141275,32.2785405171729],[-106.75134082144083,32.27852773740559],[-106.751289,32.278523422206256],[-106.75123717855917,32.27852773740559],[-106.75118734858725,32.2785405171729],[-106.75114142502213,32.2785612703889],[-106.75110117268062,32.27858919951914],[-106.75106813843767,32.2786232312628],[-106.75104359178071,32.27866205779905],[-106.75102847602399,32.2787041870459],[-106.75102337205756,32.278748]]]}},{"type":"Feature","properties":{"id":"food-527454","category":"food","name":"Einstein Bros Bagels"},"geometry":{"type":"Polygon","coordinates":[[[-106.747360502821,32.2830939452307],[-106.747260320904,32.2831127485312],[-106.747269011206,32.2831461637007],[-106.747235647776,32.2831524246293],[-106.747286584948,32.2833488226919],[-106.747132492435,32.2833776628426],[-106.747087463483,32.2833797589269],[-106.747063936606,32.2833758697791],[-106.747042421057,32.2833657523741],[-106.747022184708,32.2833524361601],[-106.747006300697,32.2833357168434],[-106.746997160339,32.2833214520704],[-106.746990617011,32.2833063549362],[-106.746952479035,32.2831685348988],[-106.747028222285,32.2831544257872],[-106.746937506815,32.282802972411],[-106.7469341022,32.2827691697925],[-106.746936927401,32.282743861679],[-106.74694596086,32.2827192142855],[-106.746955404848,32.282701386805],[-106.746968950545,32.2826856812429],[-106.746988114304,32.2826693119129],[-106.747008733335,32.2826543194753],[-106.747019431372,32.2826476795433],[-106.747031204692,32.282642847878],[-106.747088612429,32.2826285457825],[-106.747562188077,32.2825405550374],[-106.747598569846,32.2826818581381],[-106.747182288746,32.2827592011732],[-106.747151670568,32.282800205714],[-106.747121054187,32.2828412102362],[-106.747165650151,32.2830144213294],[-106.747246801259,32.2830605771281],[-106.747346369626,32.2830418907726],[-106.747281682841,32.2827931648],[-106.747723231753,32.2827102929511],[-106.747718485055,32.2826920416921],[-106.747757032662,32.2826848063488],[-106.74776177936,32.2827030576093],[-106.74801835168,32.2826549019787],[-106.748019135011,32.2826579124659],[-106.748060350614,32.2826501773972],[-106.748039164746,32.2825665330492],[-106.748082345864,32.2825531263425],[-106.748148046847,32.2825407957855],[-106.748143873274,32.2825247446422],[-106.748438354499,32.2824694758293],[-106.748539563191,32.2828532286162],[-106.748540803764,32.28286843139],[-106.748450002055,32.2828862595971],[-106.74846111152,32.282939240679],[-106.748477255144,32.2829588794114],[-106.74827781388,32.2829989702386],[-106.748284341039,32.2830240694312],[-106.74828567324,32.2830231801108],[-106.748287043171,32.2830223310414],[-106.748288446339,32.283021523742],[-106.748289882746,32.283020757453],[-106.748291347898,32.2830200352125],[-106.748292843593,32.2830193555013],[-106.748294365339,32.2830187213573],[-106.748295912238,32.2830181327806],[-106.748297482493,32.28301759129],[-106.748299074308,32.2830170953666],[-106.748300685885,32.2830166480482],[-106.748302314531,32.2830162478161],[-106.748303958448,32.2830158961889],[-106.74830561584,32.2830155939262],[-106.748307284909,32.2830153410281],[-106.748308962064,32.2830151374945],[-106.748310648202,32.2830149840848],[-106.748312338831,32.2830148807991],[-106.748314033054,32.2830148283967],[-106.748315729073,32.2830148253589],[-106.748317423296,32.2830148724451],[-106.748319113925,32.2830149704146],[-106.748320800961,32.2830151192675],[-106.748322479014,32.2830153159661],[-106.748324148982,32.2830155643075],[-106.74832580817,32.2830158604945],[-106.748327453884,32.2830162068055],[-106.748329084326,32.2830166017216],[-106.748330696802,32.2830170444831],[-106.748332291312,32.2830175343309],[-106.748333864262,32.2830180712648],[-106.748335414754,32.2830186545254],[-106.748336939195,32.2830192841126],[-106.748338436687,32.2830199585076],[-106.748339906331,32.283020675432],[-106.748341345432,32.2830214371642],[-106.748342752193,32.2830222406664],[-106.748344124819,32.283023085179],[-106.748345463309,32.2830239699427],[-106.748346762273,32.2830248934386],[-106.748348024406,32.283025856426],[-106.748349245216,32.2830268551077],[-106.748350424704,32.2830278894838],[-106.748351561073,32.2830289580352],[-106.748352651628,32.2830300600026],[-106.748353697267,32.2830311938671],[-106.748354696193,32.2830323573503],[-106.748355645713,32.2830335504521],[-106.748356546723,32.2830347701348],[-106.748357395631,32.2830360163984],[-106.748358194233,32.2830372869644],[-106.748358938936,32.2830385810735],[-106.748359629741,32.2830398956878],[-106.748360266646,32.2830412308074],[-106.748360848755,32.2830425833943],[-106.748361374269,32.2830439519299],[-106.74836184319,32.2830453364138],[-106.748362255516,32.2830467322896],[-106.748362610351,32.283048141076],[-106.748362905897,32.2830495589759],[-106.74836314395,32.2830509844703],[-106.748363322715,32.2830524167998],[-106.748363443089,32.2830538529265],[-106.748363503276,32.283055292091],[-106.748363505073,32.2830567327743],[-106.748363447581,32.2830581711794],[-106.7483633308,32.2830596080654],[-106.748363155628,32.2830610403947],[-106.748362921168,32.2830624674078],[-106.748362628317,32.2830638853075],[-106.748362277076,32.2830652940937],[-106.748361867444,32.2830666922475],[-106.748361402117,32.2830680759717],[-106.748360879297,32.2830694467851],[-106.748360300782,32.2830707993717],[-106.748359666572,32.2830721352503],[-106.748358978462,32.2830734521425],[-106.748358237352,32.2830747462511],[-106.748357441445,32.2830760183354],[-106.748356595232,32.2830772661173],[-106.748355698713,32.2830784873184],[-106.748354751889,32.2830796826979],[-106.748353755657,32.2830808476994],[-106.748352712713,32.2830819830821],[-106.748351623057,32.2830830865678],[-106.748350490281,32.283084157397],[-106.748349313488,32.2830851932913],[-106.748348094474,32.2830861950102],[-106.748346835036,32.2830871587564],[-106.748345536971,32.2830880852894],[-106.748344202074,32.2830889715713],[-106.748342830347,32.2830898183617],[-106.748341425382,32.2830906249011],[-106.748339988976,32.2830913881516],[-106.74833852023,32.2830921088728],[-106.748337023637,32.2830927847862],[-106.748335500094,32.2830934166513],[-106.748333951399,32.2830940029491],[-106.748332380245,32.2830945429204],[-106.748330787532,32.2830950358055],[-106.748329175954,32.2830954808451],[-106.748327546411,32.2830958780391],[-106.748325901595,32.2830962273876],[-106.748324242407,32.2830965266122],[-106.748322574235,32.2830967772317],[-106.748320894386,32.2830969777273],[-106.748319208248,32.2830971280991],[-106.748317517619,32.2830972291064],[-106.748315824294,32.2830972784708],[-106.748314128275,32.2830972792303],[-106.748312434951,32.2830972291064],[-106.748310743423,32.2830971280991],[-106.748309057285,32.2830969784868],[-106.748307379232,32.2830967772317],[-106.748305710163,32.2830965281311],[-106.748304050974,32.2830962273876],[-106.748302407057,32.283095879558],[-106.748300776615,32.283095482364],[-106.748299165037,32.283095036565],[-106.748297572324,32.2830945444393],[-106.748296000273,32.2830940044681],[-106.748294452475,32.2830934181701],[-106.748292928034,32.2830927870645],[-106.748291432339,32.2830921111511],[-106.748289964492,32.28309139043],[-106.74828852629,32.2830906271795],[-106.748287121324,32.2830898206401],[-106.748285749597,32.2830889738497],[-106.7482844147,32.2830880875678],[-106.748283116635,32.2830871610347],[-106.748281856299,32.2830861972885],[-106.748280637285,32.2830851963291],[-106.74827946139,32.2830841604348],[-106.748278327716,32.2830830896056],[-106.748277238958,32.2830819861199],[-106.748276195116,32.2830808507372],[-106.748275199782,32.2830796849763],[-106.74827425206,32.2830784911156],[-106.748273354643,32.2830772691552],[-106.74827250843,32.2830760213733],[-106.748271712522,32.2830747492889],[-106.748270970514,32.2830734544208],[-106.748258048249,32.283075880115],[-106.748267511102,32.2831122640001],[-106.748242178611,32.2831187261861],[-106.748253282686,32.2831548153864],[-106.748259336433,32.2831744943231],[-106.748205460872,32.2831847287051],[-106.748196201936,32.2831655282258],[-106.748179647782,32.2831312039984],[-106.74813166517,32.2831283317474],[-106.74794377085,32.2831635954189],[-106.747866461836,32.2831786781471],[-106.747851333309,32.2831205093818],[-106.747848204477,32.2831210956795],[-106.747844079413,32.283105245894],[-106.747821975467,32.2831093963053],[-106.747828890698,32.2831359809571],[-106.747776757869,32.2831457657474],[-106.747769952232,32.2831196071516],[-106.747748317207,32.2831236671873],[-106.747752706375,32.2831405528633],[-106.74774990453,32.2831410784046],[-106.74776416798,32.2831959207555],[-106.747709950161,32.2832074743037],[-106.747683043822,32.2832125269396],[-106.747429021819,32.2832602000222],[-106.74741061444,32.2831910245659],[-106.747386908798,32.283195473438],[-106.747383976697,32.2831842001263],[-106.747360502821,32.2830939452307]]]}},{"type":"Feature","properties":{"id":"food-527480","category":"food","name":"Taos Restaurant"},"geometry":{"type":"Polygon","coordinates":[[[-106.747360502821,32.2830939452307],[-106.747260320904,32.2831127485312],[-106.747269011206,32.2831461637007],[-106.747235647776,32.2831524246293],[-106.747286584948,32.2833488226919],[-106.747132492435,32.2833776628426],[-106.747087463483,32.2833797589269],[-106.747063936606,32.2833758697791],[-106.747042421057,32.2833657523741],[-106.747022184708,32.2833524361601],[-106.747006300697,32.2833357168434],[-106.746997160339,32.2833214520704],[-106.746990617011,32.2833063549362],[-106.746952479035,32.2831685348988],[-106.747028222285,32.2831544257872],[-106.746937506815,32.282802972411],[-106.7469341022,32.2827691697925],[-106.746936927401,32.282743861679],[-106.74694596086,32.2827192142855],[-106.746955404848,32.282701386805],[-106.746968950545,32.2826856812429],[-106.746988114304,32.2826693119129],[-106.747008733335,32.2826543194753],[-106.747019431372,32.2826476795433],[-106.747031204692,32.282642847878],[-106.747088612429,32.2826285457825],[-106.747562188077,32.2825405550374],[-106.747598569846,32.2826818581381],[-106.747182288746,32.2827592011732],[-106.747151670568,32.282800205714],[-106.747121054187,32.2828412102362],[-106.747165650151,32.2830144213294],[-106.747246801259,32.2830605771281],[-106.747346369626,32.2830418907726],[-106.747281682841,32.2827931648],[-106.747723231753,32.2827102929511],[-106.747718485055,32.2826920416921],[-106.747757032662,32.2826848063488],[-106.74776177936,32.2827030576093],[-106.74801835168,32.2826549019787],[-106.748019135011,32.2826579124659],[-106.748060350614,32.2826501773972],[-106.748039164746,32.2825665330492],[-106.748082345864,32.2825531263425],[-106.748148046847,32.2825407957855],[-106.748143873274,32.2825247446422],[-106.748438354499,32.2824694758293],[-106.748539563191,32.2828532286162],[-106.748540803764,32.28286843139],[-106.748450002055,32.2828862595971],[-106.74846111152,32.282939240679],[-106.748477255144,32.2829588794114],[-106.74827781388,32.2829989702386],[-106.748284341039,32.2830240694312],[-106.74828567324,32.2830231801108],[-106.748287043171,32.2830223310414],[-106.748288446339,32.283021523742],[-106.748289882746,32.283020757453],[-106.748291347898,32.2830200352125],[-106.748292843593,32.2830193555013],[-106.748294365339,32.2830187213573],[-106.748295912238,32.2830181327806],[-106.748297482493,32.28301759129],[-106.748299074308,32.2830170953666],[-106.748300685885,32.2830166480482],[-106.748302314531,32.2830162478161],[-106.748303958448,32.2830158961889],[-106.74830561584,32.2830155939262],[-106.748307284909,32.2830153410281],[-106.748308962064,32.2830151374945],[-106.748310648202,32.2830149840848],[-106.748312338831,32.2830148807991],[-106.748314033054,32.2830148283967],[-106.748315729073,32.2830148253589],[-106.748317423296,32.2830148724451],[-106.748319113925,32.2830149704146],[-106.748320800961,32.2830151192675],[-106.748322479014,32.2830153159661],[-106.748324148982,32.2830155643075],[-106.74832580817,32.2830158604945],[-106.748327453884,32.2830162068055],[-106.748329084326,32.2830166017216],[-106.748330696802,32.2830170444831],[-106.748332291312,32.2830175343309],[-106.748333864262,32.2830180712648],[-106.748335414754,32.2830186545254],[-106.748336939195,32.2830192841126],[-106.748338436687,32.2830199585076],[-106.748339906331,32.283020675432],[-106.748341345432,32.2830214371642],[-106.748342752193,32.2830222406664],[-106.748344124819,32.283023085179],[-106.748345463309,32.2830239699427],[-106.748346762273,32.2830248934386],[-106.748348024406,32.283025856426],[-106.748349245216,32.2830268551077],[-106.748350424704,32.2830278894838],[-106.748351561073,32.2830289580352],[-106.748352651628,32.2830300600026],[-106.748353697267,32.2830311938671],[-106.748354696193,32.2830323573503],[-106.748355645713,32.2830335504521],[-106.748356546723,32.2830347701348],[-106.748357395631,32.2830360163984],[-106.748358194233,32.2830372869644],[-106.748358938936,32.2830385810735],[-106.748359629741,32.2830398956878],[-106.748360266646,32.2830412308074],[-106.748360848755,32.2830425833943],[-106.748361374269,32.2830439519299],[-106.74836184319,32.2830453364138],[-106.748362255516,32.2830467322896],[-106.748362610351,32.283048141076],[-106.748362905897,32.2830495589759],[-106.74836314395,32.2830509844703],[-106.748363322715,32.2830524167998],[-106.748363443089,32.2830538529265],[-106.748363503276,32.283055292091],[-106.748363505073,32.2830567327743],[-106.748363447581,32.2830581711794],[-106.7483633308,32.2830596080654],[-106.748363155628,32.2830610403947],[-106.748362921168,32.2830624674078],[-106.748362628317,32.2830638853075],[-106.748362277076,32.2830652940937],[-106.748361867444,32.2830666922475],[-106.748361402117,32.2830680759717],[-106.748360879297,32.2830694467851],[-106.748360300782,32.2830707993717],[-106.748359666572,32.2830721352503],[-106.748358978462,32.2830734521425],[-106.748358237352,32.2830747462511],[-106.748357441445,32.2830760183354],[-106.748356595232,32.2830772661173],[-106.748355698713,32.2830784873184],[-106.748354751889,32.2830796826979],[-106.748353755657,32.2830808476994],[-106.748352712713,32.2830819830821],[-106.748351623057,32.2830830865678],[-106.748350490281,32.283084157397],[-106.748349313488,32.2830851932913],[-106.748348094474,32.2830861950102],[-106.748346835036,32.2830871587564],[-106.748345536971,32.2830880852894],[-106.748344202074,32.2830889715713],[-106.748342830347,32.2830898183617],[-106.748341425382,32.2830906249011],[-106.748339988976,32.2830913881516],[-106.74833852023,32.2830921088728],[-106.748337023637,32.2830927847862],[-106.748335500094,32.2830934166513],[-106.748333951399,32.2830940029491],[-106.748332380245,32.2830945429204],[-106.748330787532,32.2830950358055],[-106.748329175954,32.2830954808451],[-106.748327546411,32.2830958780391],[-106.748325901595,32.2830962273876],[-106.748324242407,32.2830965266122],[-106.748322574235,32.2830967772317],[-106.748320894386,32.2830969777273],[-106.748319208248,32.2830971280991],[-106.748317517619,32.2830972291064],[-106.748315824294,32.2830972784708],[-106.748314128275,32.2830972792303],[-106.748312434951,32.2830972291064],[-106.748310743423,32.2830971280991],[-106.748309057285,32.2830969784868],[-106.748307379232,32.2830967772317],[-106.748305710163,32.2830965281311],[-106.748304050974,32.2830962273876],[-106.748302407057,32.283095879558],[-106.748300776615,32.283095482364],[-106.748299165037,32.283095036565],[-106.748297572324,32.2830945444393],[-106.748296000273,32.2830940044681],[-106.748294452475,32.2830934181701],[-106.748292928034,32.2830927870645],[-106.748291432339,32.2830921111511],[-106.748289964492,32.28309139043],[-106.74828852629,32.2830906271795],[-106.748287121324,32.2830898206401],[-106.748285749597,32.2830889738497],[-106.7482844147,32.2830880875678],[-106.748283116635,32.2830871610347],[-106.748281856299,32.2830861972885],[-106.748280637285,32.2830851963291],[-106.74827946139,32.2830841604348],[-106.748278327716,32.2830830896056],[-106.748277238958,32.2830819861199],[-106.748276195116,32.2830808507372],[-106.748275199782,32.2830796849763],[-106.74827425206,32.2830784911156],[-106.748273354643,32.2830772691552],[-106.74827250843,32.2830760213733],[-106.748271712522,32.2830747492889],[-106.748270970514,32.2830734544208],[-106.748258048249,32.283075880115],[-106.748267511102,32.2831122640001],[-106.748242178611,32.2831187261861],[-106.748253282686,32.2831548153864],[-106.748259336433,32.2831744943231],[-106.748205460872,32.2831847287051],[-106.748196201936,32.2831655282258],[-106.748179647782,32.2831312039984],[-106.74813166517,32.2831283317474],[-106.74794377085,32.2831635954189],[-106.747866461836,32.2831786781471],[-106.747851333309,32.2831205093818],[-106.747848204477,32.2831210956795],[-106.747844079413,32.283105245894],[-106.747821975467,32.2831093963053],[-106.747828890698,32.2831359809571],[-106.747776757869,32.2831457657474],[-106.747769952232,32.2831196071516],[-106.747748317207,32.2831236671873],[-106.747752706375,32.2831405528633],[-106.74774990453,32.2831410784046],[-106.74776416798,32.2831959207555],[-106.747709950161,32.2832074743037],[-106.747683043822,32.2832125269396],[-106.747429021819,32.2832602000222],[-106.74741061444,32.2831910245659],[-106.747386908798,32.283195473438],[-106.747383976697,32.2831842001263],[-106.747360502821,32.2830939452307]]]}},{"type":"Feature","properties":{"id":"food-wow","category":"food","name":"WOW"},"geometry":{"type":"Polygon","coordinates":[[[-106.747360502821,32.2830939452307],[-106.747260320904,32.2831127485312],[-106.747269011206,32.2831461637007],[-106.747235647776,32.2831524246293],[-106.747286584948,32.2833488226919],[-106.747132492435,32.2833776628426],[-106.747087463483,32.2833797589269],[-106.747063936606,32.2833758697791],[-106.747042421057,32.2833657523741],[-106.747022184708,32.2833524361601],[-106.747006300697,32.2833357168434],[-106.746997160339,32.2833214520704],[-106.746990617011,32.2833063549362],[-106.746952479035,32.2831685348988],[-106.747028222285,32.2831544257872],[-106.746937506815,32.282802972411],[-106.7469341022,32.2827691697925],[-106.746936927401,32.282743861679],[-106.74694596086,32.2827192142855],[-106.746955404848,32.282701386805],[-106.746968950545,32.2826856812429],[-106.746988114304,32.2826693119129],[-106.747008733335,32.2826543194753],[-106.747019431372,32.2826476795433],[-106.747031204692,32.282642847878],[-106.747088612429,32.2826285457825],[-106.747562188077,32.2825405550374],[-106.747598569846,32.2826818581381],[-106.747182288746,32.2827592011732],[-106.747151670568,32.282800205714],[-106.747121054187,32.2828412102362],[-106.747165650151,32.2830144213294],[-106.747246801259,32.2830605771281],[-106.747346369626,32.2830418907726],[-106.747281682841,32.2827931648],[-106.747723231753,32.2827102929511],[-106.747718485055,32.2826920416921],[-106.747757032662,32.2826848063488],[-106.74776177936,32.2827030576093],[-106.74801835168,32.2826549019787],[-106.748019135011,32.2826579124659],[-106.748060350614,32.2826501773972],[-106.748039164746,32.2825665330492],[-106.748082345864,32.2825531263425],[-106.748148046847,32.2825407957855],[-106.748143873274,32.2825247446422],[-106.748438354499,32.2824694758293],[-106.748539563191,32.2828532286162],[-106.748540803764,32.28286843139],[-106.748450002055,32.2828862595971],[-106.74846111152,32.282939240679],[-106.748477255144,32.2829588794114],[-106.74827781388,32.2829989702386],[-106.748284341039,32.2830240694312],[-106.74828567324,32.2830231801108],[-106.748287043171,32.2830223310414],[-106.748288446339,32.283021523742],[-106.748289882746,32.283020757453],[-106.748291347898,32.2830200352125],[-106.748292843593,32.2830193555013],[-106.748294365339,32.2830187213573],[-106.748295912238,32.2830181327806],[-106.748297482493,32.28301759129],[-106.748299074308,32.2830170953666],[-106.748300685885,32.2830166480482],[-106.748302314531,32.2830162478161],[-106.748303958448,32.2830158961889],[-106.74830561584,32.2830155939262],[-106.748307284909,32.2830153410281],[-106.748308962064,32.2830151374945],[-106.748310648202,32.2830149840848],[-106.748312338831,32.2830148807991],[-106.748314033054,32.2830148283967],[-106.748315729073,32.2830148253589],[-106.748317423296,32.2830148724451],[-106.748319113925,32.2830149704146],[-106.748320800961,32.2830151192675],[-106.748322479014,32.2830153159661],[-106.748324148982,32.2830155643075],[-106.74832580817,32.2830158604945],[-106.748327453884,32.2830162068055],[-106.748329084326,32.2830166017216],[-106.748330696802,32.2830170444831],[-106.748332291312,32.2830175343309],[-106.748333864262,32.2830180712648],[-106.748335414754,32.2830186545254],[-106.748336939195,32.2830192841126],[-106.748338436687,32.2830199585076],[-106.748339906331,32.283020675432],[-106.748341345432,32.2830214371642],[-106.748342752193,32.2830222406664],[-106.748344124819,32.283023085179],[-106.748345463309,32.2830239699427],[-106.748346762273,32.2830248934386],[-106.748348024406,32.283025856426],[-106.748349245216,32.2830268551077],[-106.748350424704,32.2830278894838],[-106.748351561073,32.2830289580352],[-106.748352651628,32.2830300600026],[-106.748353697267,32.2830311938671],[-106.748354696193,32.2830323573503],[-106.748355645713,32.2830335504521],[-106.748356546723,32.2830347701348],[-106.748357395631,32.2830360163984],[-106.748358194233,32.2830372869644],[-106.748358938936,32.2830385810735],[-106.748359629741,32.2830398956878],[-106.748360266646,32.2830412308074],[-106.748360848755,32.2830425833943],[-106.748361374269,32.2830439519299],[-106.74836184319,32.2830453364138],[-106.748362255516,32.2830467322896],[-106.748362610351,32.283048141076],[-106.748362905897,32.2830495589759],[-106.74836314395,32.2830509844703],[-106.748363322715,32.2830524167998],[-106.748363443089,32.2830538529265],[-106.748363503276,32.283055292091],[-106.748363505073,32.2830567327743],[-106.748363447581,32.2830581711794],[-106.7483633308,32.2830596080654],[-106.748363155628,32.2830610403947],[-106.748362921168,32.2830624674078],[-106.748362628317,32.2830638853075],[-106.748362277076,32.2830652940937],[-106.748361867444,32.2830666922475],[-106.748361402117,32.2830680759717],[-106.748360879297,32.2830694467851],[-106.748360300782,32.2830707993717],[-106.748359666572,32.2830721352503],[-106.748358978462,32.2830734521425],[-106.748358237352,32.2830747462511],[-106.748357441445,32.2830760183354],[-106.748356595232,32.2830772661173],[-106.748355698713,32.2830784873184],[-106.748354751889,32.2830796826979],[-106.748353755657,32.2830808476994],[-106.748352712713,32.2830819830821],[-106.748351623057,32.2830830865678],[-106.748350490281,32.283084157397],[-106.748349313488,32.2830851932913],[-106.748348094474,32.2830861950102],[-106.748346835036,32.2830871587564],[-106.748345536971,32.2830880852894],[-106.748344202074,32.2830889715713],[-106.748342830347,32.2830898183617],[-106.748341425382,32.2830906249011],[-106.748339988976,32.2830913881516],[-106.74833852023,32.2830921088728],[-106.748337023637,32.2830927847862],[-106.748335500094,32.2830934166513],[-106.748333951399,32.2830940029491],[-106.748332380245,32.2830945429204],[-106.748330787532,32.2830950358055],[-106.748329175954,32.2830954808451],[-106.748327546411,32.2830958780391],[-106.748325901595,32.2830962273876],[-106.748324242407,32.2830965266122],[-106.748322574235,32.2830967772317],[-106.748320894386,32.2830969777273],[-106.748319208248,32.2830971280991],[-106.748317517619,32.2830972291064],[-106.748315824294,32.2830972784708],[-106.748314128275,32.2830972792303],[-106.748312434951,32.2830972291064],[-106.748310743423,32.2830971280991],[-106.748309057285,32.2830969784868],[-106.748307379232,32.2830967772317],[-106.748305710163,32.2830965281311],[-106.748304050974,32.2830962273876],[-106.748302407057,32.283095879558],[-106.748300776615,32.283095482364],[-106.748299165037,32.283095036565],[-106.748297572324,32.2830945444393],[-106.748296000273,32.2830940044681],[-106.748294452475,32.2830934181701],[-106.748292928034,32.2830927870645],[-106.748291432339,32.2830921111511],[-106.748289964492,32.28309139043],[-106.74828852629,32.2830906271795],[-106.748287121324,32.2830898206401],[-106.748285749597,32.2830889738497],[-106.7482844147,32.2830880875678],[-106.748283116635,32.2830871610347],[-106.748281856299,32.2830861972885],[-106.748280637285,32.2830851963291],[-106.74827946139,32.2830841604348],[-106.748278327716,32.2830830896056],[-106.748277238958,32.2830819861199],[-106.748276195116,32.2830808507372],[-106.748275199782,32.2830796849763],[-106.74827425206,32.2830784911156],[-106.748273354643,32.2830772691552],[-106.74827250843,32.2830760213733],[-106.748271712522,32.2830747492889],[-106.748270970514,32.2830734544208],[-106.748258048249,32.283075880115],[-106.748267511102,32.2831122640001],[-106.748242178611,32.2831187261861],[-106.748253282686,32.2831548153864],[-106.748259336433,32.2831744943231],[-106.748205460872,32.2831847287051],[-106.748196201936,32.2831655282258],[-106.748179647782,32.2831312039984],[-106.74813166517,32.2831283317474],[-106.74794377085,32.2831635954189],[-106.747866461836,32.2831786781471],[-106.747851333309,32.2831205093818],[-106.747848204477,32.2831210956795],[-106.747844079413,32.283105245894],[-106.747821975467,32.2831093963053],[-106.747828890698,32.2831359809571],[-106.747776757869,32.2831457657474],[-106.747769952232,32.2831196071516],[-106.747748317207,32.2831236671873],[-106.747752706375,32.2831405528633],[-106.74774990453,32.2831410784046],[-106.74776416798,32.2831959207555],[-106.747709950161,32.2832074743037],[-106.747683043822,32.2832125269396],[-106.747429021819,32.2832602000222],[-106.74741061444,32.2831910245659],[-106.747386908798,32.283195473438],[-106.747383976697,32.2831842001263],[-106.747360502821,32.2830939452307]]]}},{"type":"Feature","properties":{"id":"food-ramshi","category":"food","name":"Ramshi"},"geometry":{"type":"Polygon","coordinates":[[[-106.747360502821,32.2830939452307],[-106.747260320904,32.2831127485312],[-106.747269011206,32.2831461637007],[-106.747235647776,32.2831524246293],[-106.747286584948,32.2833488226919],[-106.747132492435,32.2833776628426],[-106.747087463483,32.2833797589269],[-106.747063936606,32.2833758697791],[-106.747042421057,32.2833657523741],[-106.747022184708,32.2833524361601],[-106.747006300697,32.2833357168434],[-106.746997160339,32.2833214520704],[-106.746990617011,32.2833063549362],[-106.746952479035,32.2831685348988],[-106.747028222285,32.2831544257872],[-106.746937506815,32.282802972411],[-106.7469341022,32.2827691697925],[-106.746936927401,32.282743861679],[-106.74694596086,32.2827192142855],[-106.746955404848,32.282701386805],[-106.746968950545,32.2826856812429],[-106.746988114304,32.2826693119129],[-106.747008733335,32.2826543194753],[-106.747019431372,32.2826476795433],[-106.747031204692,32.282642847878],[-106.747088612429,32.2826285457825],[-106.747562188077,32.2825405550374],[-106.747598569846,32.2826818581381],[-106.747182288746,32.2827592011732],[-106.747151670568,32.282800205714],[-106.747121054187,32.2828412102362],[-106.747165650151,32.2830144213294],[-106.747246801259,32.2830605771281],[-106.747346369626,32.2830418907726],[-106.747281682841,32.2827931648],[-106.747723231753,32.2827102929511],[-106.747718485055,32.2826920416921],[-106.747757032662,32.2826848063488],[-106.74776177936,32.2827030576093],[-106.74801835168,32.2826549019787],[-106.748019135011,32.2826579124659],[-106.748060350614,32.2826501773972],[-106.748039164746,32.2825665330492],[-106.748082345864,32.2825531263425],[-106.748148046847,32.2825407957855],[-106.748143873274,32.2825247446422],[-106.748438354499,32.2824694758293],[-106.748539563191,32.2828532286162],[-106.748540803764,32.28286843139],[-106.748450002055,32.2828862595971],[-106.74846111152,32.282939240679],[-106.748477255144,32.2829588794114],[-106.74827781388,32.2829989702386],[-106.748284341039,32.2830240694312],[-106.74828567324,32.2830231801108],[-106.748287043171,32.2830223310414],[-106.748288446339,32.283021523742],[-106.748289882746,32.283020757453],[-106.748291347898,32.2830200352125],[-106.748292843593,32.2830193555013],[-106.748294365339,32.2830187213573],[-106.748295912238,32.2830181327806],[-106.748297482493,32.28301759129],[-106.748299074308,32.2830170953666],[-106.748300685885,32.2830166480482],[-106.748302314531,32.2830162478161],[-106.748303958448,32.2830158961889],[-106.74830561584,32.2830155939262],[-106.748307284909,32.2830153410281],[-106.748308962064,32.2830151374945],[-106.748310648202,32.2830149840848],[-106.748312338831,32.2830148807991],[-106.748314033054,32.2830148283967],[-106.748315729073,32.2830148253589],[-106.748317423296,32.2830148724451],[-106.748319113925,32.2830149704146],[-106.748320800961,32.2830151192675],[-106.748322479014,32.2830153159661],[-106.748324148982,32.2830155643075],[-106.74832580817,32.2830158604945],[-106.748327453884,32.2830162068055],[-106.748329084326,32.2830166017216],[-106.748330696802,32.2830170444831],[-106.748332291312,32.2830175343309],[-106.748333864262,32.2830180712648],[-106.748335414754,32.2830186545254],[-106.748336939195,32.2830192841126],[-106.748338436687,32.2830199585076],[-106.748339906331,32.283020675432],[-106.748341345432,32.2830214371642],[-106.748342752193,32.2830222406664],[-106.748344124819,32.283023085179],[-106.748345463309,32.2830239699427],[-106.748346762273,32.2830248934386],[-106.748348024406,32.283025856426],[-106.748349245216,32.2830268551077],[-106.748350424704,32.2830278894838],[-106.748351561073,32.2830289580352],[-106.748352651628,32.2830300600026],[-106.748353697267,32.2830311938671],[-106.748354696193,32.2830323573503],[-106.748355645713,32.2830335504521],[-106.748356546723,32.2830347701348],[-106.748357395631,32.2830360163984],[-106.748358194233,32.2830372869644],[-106.748358938936,32.2830385810735],[-106.748359629741,32.2830398956878],[-106.748360266646,32.2830412308074],[-106.748360848755,32.2830425833943],[-106.748361374269,32.2830439519299],[-106.74836184319,32.2830453364138],[-106.748362255516,32.2830467322896],[-106.748362610351,32.283048141076],[-106.748362905897,32.2830495589759],[-106.74836314395,32.2830509844703],[-106.748363322715,32.2830524167998],[-106.748363443089,32.2830538529265],[-106.748363503276,32.283055292091],[-106.748363505073,32.2830567327743],[-106.748363447581,32.2830581711794],[-106.7483633308,32.2830596080654],[-106.748363155628,32.2830610403947],[-106.748362921168,32.2830624674078],[-106.748362628317,32.2830638853075],[-106.748362277076,32.2830652940937],[-106.748361867444,32.2830666922475],[-106.748361402117,32.2830680759717],[-106.748360879297,32.2830694467851],[-106.748360300782,32.2830707993717],[-106.748359666572,32.2830721352503],[-106.748358978462,32.2830734521425],[-106.748358237352,32.2830747462511],[-106.748357441445,32.2830760183354],[-106.748356595232,32.2830772661173],[-106.748355698713,32.2830784873184],[-106.748354751889,32.2830796826979],[-106.748353755657,32.2830808476994],[-106.748352712713,32.2830819830821],[-106.748351623057,32.2830830865678],[-106.748350490281,32.283084157397],[-106.748349313488,32.2830851932913],[-106.748348094474,32.2830861950102],[-106.748346835036,32.2830871587564],[-106.748345536971,32.2830880852894],[-106.748344202074,32.2830889715713],[-106.748342830347,32.2830898183617],[-106.748341425382,32.2830906249011],[-106.748339988976,32.2830913881516],[-106.74833852023,32.2830921088728],[-106.748337023637,32.2830927847862],[-106.748335500094,32.2830934166513],[-106.748333951399,32.2830940029491],[-106.748332380245,32.2830945429204],[-106.748330787532,32.2830950358055],[-106.748329175954,32.2830954808451],[-106.748327546411,32.2830958780391],[-106.748325901595,32.2830962273876],[-106.748324242407,32.2830965266122],[-106.748322574235,32.2830967772317],[-106.748320894386,32.2830969777273],[-106.748319208248,32.2830971280991],[-106.748317517619,32.2830972291064],[-106.748315824294,32.2830972784708],[-106.748314128275,32.2830972792303],[-106.748312434951,32.2830972291064],[-106.748310743423,32.2830971280991],[-106.748309057285,32.2830969784868],[-106.748307379232,32.2830967772317],[-106.748305710163,32.2830965281311],[-106.748304050974,32.2830962273876],[-106.748302407057,32.283095879558],[-106.748300776615,32.283095482364],[-106.748299165037,32.283095036565],[-106.748297572324,32.2830945444393],[-106.748296000273,32.2830940044681],[-106.748294452475,32.2830934181701],[-106.748292928034,32.2830927870645],[-106.748291432339,32.2830921111511],[-106.748289964492,32.28309139043],[-106.74828852629,32.2830906271795],[-106.748287121324,32.2830898206401],[-106.748285749597,32.2830889738497],[-106.7482844147,32.2830880875678],[-106.748283116635,32.2830871610347],[-106.748281856299,32.2830861972885],[-106.748280637285,32.2830851963291],[-106.74827946139,32.2830841604348],[-106.748278327716,32.2830830896056],[-106.748277238958,32.2830819861199],[-106.748276195116,32.2830808507372],[-106.748275199782,32.2830796849763],[-106.74827425206,32.2830784911156],[-106.748273354643,32.2830772691552],[-106.74827250843,32.2830760213733],[-106.748271712522,32.2830747492889],[-106.748270970514,32.2830734544208],[-106.748258048249,32.283075880115],[-106.748267511102,32.2831122640001],[-106.748242178611,32.2831187261861],[-106.748253282686,32.2831548153864],[-106.748259336433,32.2831744943231],[-106.748205460872,32.2831847287051],[-106.748196201936,32.2831655282258],[-106.748179647782,32.2831312039984],[-106.74813166517,32.2831283317474],[-106.74794377085,32.2831635954189],[-106.747866461836,32.2831786781471],[-106.747851333309,32.2831205093818],[-106.747848204477,32.2831210956795],[-106.747844079413,32.283105245894],[-106.747821975467,32.2831093963053],[-106.747828890698,32.2831359809571],[-106.747776757869,32.2831457657474],[-106.747769952232,32.2831196071516],[-106.747748317207,32.2831236671873],[-106.747752706375,32.2831405528633],[-106.74774990453,32.2831410784046],[-106.74776416798,32.2831959207555],[-106.747709950161,32.2832074743037],[-106.747683043822,32.2832125269396],[-106.747429021819,32.2832602000222],[-106.74741061444,32.2831910245659],[-106.747386908798,32.283195473438],[-106.747383976697,32.2831842001263],[-106.747360502821,32.2830939452307]]]}},{"type":"Feature","properties":{"id":"food-mediterranean","category":"food","name":"Mediterranean"},"geometry":{"type":"Polygon","coordinates":[[[-106.747360502821,32.2830939452307],[-106.747260320904,32.2831127485312],[-106.747269011206,32.2831461637007],[-106.747235647776,32.2831524246293],[-106.747286584948,32.2833488226919],[-106.747132492435,32.2833776628426],[-106.747087463483,32.2833797589269],[-106.747063936606,32.2833758697791],[-106.747042421057,32.2833657523741],[-106.747022184708,32.2833524361601],[-106.747006300697,32.2833357168434],[-106.746997160339,32.2833214520704],[-106.746990617011,32.2833063549362],[-106.746952479035,32.2831685348988],[-106.747028222285,32.2831544257872],[-106.746937506815,32.282802972411],[-106.7469341022,32.2827691697925],[-106.746936927401,32.282743861679],[-106.74694596086,32.2827192142855],[-106.746955404848,32.282701386805],[-106.746968950545,32.2826856812429],[-106.746988114304,32.2826693119129],[-106.747008733335,32.2826543194753],[-106.747019431372,32.2826476795433],[-106.747031204692,32.282642847878],[-106.747088612429,32.2826285457825],[-106.747562188077,32.2825405550374],[-106.747598569846,32.2826818581381],[-106.747182288746,32.2827592011732],[-106.747151670568,32.282800205714],[-106.747121054187,32.2828412102362],[-106.747165650151,32.2830144213294],[-106.747246801259,32.2830605771281],[-106.747346369626,32.2830418907726],[-106.747281682841,32.2827931648],[-106.747723231753,32.2827102929511],[-106.747718485055,32.2826920416921],[-106.747757032662,32.2826848063488],[-106.74776177936,32.2827030576093],[-106.74801835168,32.2826549019787],[-106.748019135011,32.2826579124659],[-106.748060350614,32.2826501773972],[-106.748039164746,32.2825665330492],[-106.748082345864,32.2825531263425],[-106.748148046847,32.2825407957855],[-106.748143873274,32.2825247446422],[-106.748438354499,32.2824694758293],[-106.748539563191,32.2828532286162],[-106.748540803764,32.28286843139],[-106.748450002055,32.2828862595971],[-106.74846111152,32.282939240679],[-106.748477255144,32.2829588794114],[-106.74827781388,32.2829989702386],[-106.748284341039,32.2830240694312],[-106.74828567324,32.2830231801108],[-106.748287043171,32.2830223310414],[-106.748288446339,32.283021523742],[-106.748289882746,32.283020757453],[-106.748291347898,32.2830200352125],[-106.748292843593,32.2830193555013],[-106.748294365339,32.2830187213573],[-106.748295912238,32.2830181327806],[-106.748297482493,32.28301759129],[-106.748299074308,32.2830170953666],[-106.748300685885,32.2830166480482],[-106.748302314531,32.2830162478161],[-106.748303958448,32.2830158961889],[-106.74830561584,32.2830155939262],[-106.748307284909,32.2830153410281],[-106.748308962064,32.2830151374945],[-106.748310648202,32.2830149840848],[-106.748312338831,32.2830148807991],[-106.748314033054,32.2830148283967],[-106.748315729073,32.2830148253589],[-106.748317423296,32.2830148724451],[-106.748319113925,32.2830149704146],[-106.748320800961,32.2830151192675],[-106.748322479014,32.2830153159661],[-106.748324148982,32.2830155643075],[-106.74832580817,32.2830158604945],[-106.748327453884,32.2830162068055],[-106.748329084326,32.2830166017216],[-106.748330696802,32.2830170444831],[-106.748332291312,32.2830175343309],[-106.748333864262,32.2830180712648],[-106.748335414754,32.2830186545254],[-106.748336939195,32.2830192841126],[-106.748338436687,32.2830199585076],[-106.748339906331,32.283020675432],[-106.748341345432,32.2830214371642],[-106.748342752193,32.2830222406664],[-106.748344124819,32.283023085179],[-106.748345463309,32.2830239699427],[-106.748346762273,32.2830248934386],[-106.748348024406,32.283025856426],[-106.748349245216,32.2830268551077],[-106.748350424704,32.2830278894838],[-106.748351561073,32.2830289580352],[-106.748352651628,32.2830300600026],[-106.748353697267,32.2830311938671],[-106.748354696193,32.2830323573503],[-106.748355645713,32.2830335504521],[-106.748356546723,32.2830347701348],[-106.748357395631,32.2830360163984],[-106.748358194233,32.2830372869644],[-106.748358938936,32.2830385810735],[-106.748359629741,32.2830398956878],[-106.748360266646,32.2830412308074],[-106.748360848755,32.2830425833943],[-106.748361374269,32.2830439519299],[-106.74836184319,32.2830453364138],[-106.748362255516,32.2830467322896],[-106.748362610351,32.283048141076],[-106.748362905897,32.2830495589759],[-106.74836314395,32.2830509844703],[-106.748363322715,32.2830524167998],[-106.748363443089,32.2830538529265],[-106.748363503276,32.283055292091],[-106.748363505073,32.2830567327743],[-106.748363447581,32.2830581711794],[-106.7483633308,32.2830596080654],[-106.748363155628,32.2830610403947],[-106.748362921168,32.2830624674078],[-106.748362628317,32.2830638853075],[-106.748362277076,32.2830652940937],[-106.748361867444,32.2830666922475],[-106.748361402117,32.2830680759717],[-106.748360879297,32.2830694467851],[-106.748360300782,32.2830707993717],[-106.748359666572,32.2830721352503],[-106.748358978462,32.2830734521425],[-106.748358237352,32.2830747462511],[-106.748357441445,32.2830760183354],[-106.748356595232,32.2830772661173],[-106.748355698713,32.2830784873184],[-106.748354751889,32.2830796826979],[-106.748353755657,32.2830808476994],[-106.748352712713,32.2830819830821],[-106.748351623057,32.2830830865678],[-106.748350490281,32.283084157397],[-106.748349313488,32.2830851932913],[-106.748348094474,32.2830861950102],[-106.748346835036,32.2830871587564],[-106.748345536971,32.2830880852894],[-106.748344202074,32.2830889715713],[-106.748342830347,32.2830898183617],[-106.748341425382,32.2830906249011],[-106.748339988976,32.2830913881516],[-106.74833852023,32.2830921088728],[-106.748337023637,32.2830927847862],[-106.748335500094,32.2830934166513],[-106.748333951399,32.2830940029491],[-106.748332380245,32.2830945429204],[-106.748330787532,32.2830950358055],[-106.748329175954,32.2830954808451],[-106.748327546411,32.2830958780391],[-106.748325901595,32.2830962273876],[-106.748324242407,32.2830965266122],[-106.748322574235,32.2830967772317],[-106.748320894386,32.2830969777273],[-106.748319208248,32.2830971280991],[-106.748317517619,32.2830972291064],[-106.748315824294,32.2830972784708],[-106.748314128275,32.2830972792303],[-106.748312434951,32.2830972291064],[-106.748310743423,32.2830971280991],[-106.748309057285,32.2830969784868],[-106.748307379232,32.2830967772317],[-106.748305710163,32.2830965281311],[-106.748304050974,32.2830962273876],[-106.748302407057,32.283095879558],[-106.748300776615,32.283095482364],[-106.748299165037,32.283095036565],[-106.748297572324,32.2830945444393],[-106.748296000273,32.2830940044681],[-106.748294452475,32.2830934181701],[-106.748292928034,32.2830927870645],[-106.748291432339,32.2830921111511],[-106.748289964492,32.28309139043],[-106.74828852629,32.2830906271795],[-106.748287121324,32.2830898206401],[-106.748285749597,32.2830889738497],[-106.7482844147,32.2830880875678],[-106.748283116635,32.2830871610347],[-106.748281856299,32.2830861972885],[-106.748280637285,32.2830851963291],[-106.74827946139,32.2830841604348],[-106.748278327716,32.2830830896056],[-106.748277238958,32.2830819861199],[-106.748276195116,32.2830808507372],[-106.748275199782,32.2830796849763],[-106.74827425206,32.2830784911156],[-106.748273354643,32.2830772691552],[-106.74827250843,32.2830760213733],[-106.748271712522,32.2830747492889],[-106.748270970514,32.2830734544208],[-106.748258048249,32.283075880115],[-106.748267511102,32.2831122640001],[-106.748242178611,32.2831187261861],[-106.748253282686,32.2831548153864],[-106.748259336433,32.2831744943231],[-106.748205460872,32.2831847287051],[-106.748196201936,32.2831655282258],[-106.748179647782,32.2831312039984],[-106.74813166517,32.2831283317474],[-106.74794377085,32.2831635954189],[-106.747866461836,32.2831786781471],[-106.747851333309,32.2831205093818],[-106.747848204477,32.2831210956795],[-106.747844079413,32.283105245894],[-106.747821975467,32.2831093963053],[-106.747828890698,32.2831359809571],[-106.747776757869,32.2831457657474],[-106.747769952232,32.2831196071516],[-106.747748317207,32.2831236671873],[-106.747752706375,32.2831405528633],[-106.74774990453,32.2831410784046],[-106.74776416798,32.2831959207555],[-106.747709950161,32.2832074743037],[-106.747683043822,32.2832125269396],[-106.747429021819,32.2832602000222],[-106.74741061444,32.2831910245659],[-106.747386908798,32.283195473438],[-106.747383976697,32.2831842001263],[-106.747360502821,32.2830939452307]]]}},{"type":"Feature","properties":{"id":"food-531041","category":"food","name":"Pete's Patio"},"geometry":{"type":"Polygon","coordinates":[[[-106.747360502821,32.2830939452307],[-106.747260320904,32.2831127485312],[-106.747269011206,32.2831461637007],[-106.747235647776,32.2831524246293],[-106.747286584948,32.2833488226919],[-106.747132492435,32.2833776628426],[-106.747087463483,32.2833797589269],[-106.747063936606,32.2833758697791],[-106.747042421057,32.2833657523741],[-106.747022184708,32.2833524361601],[-106.747006300697,32.2833357168434],[-106.746997160339,32.2833214520704],[-106.746990617011,32.2833063549362],[-106.746952479035,32.2831685348988],[-106.747028222285,32.2831544257872],[-106.746937506815,32.282802972411],[-106.7469341022,32.2827691697925],[-106.746936927401,32.282743861679],[-106.74694596086,32.2827192142855],[-106.746955404848,32.282701386805],[-106.746968950545,32.2826856812429],[-106.746988114304,32.2826693119129],[-106.747008733335,32.2826543194753],[-106.747019431372,32.2826476795433],[-106.747031204692,32.282642847878],[-106.747088612429,32.2826285457825],[-106.747562188077,32.2825405550374],[-106.747598569846,32.2826818581381],[-106.747182288746,32.2827592011732],[-106.747151670568,32.282800205714],[-106.747121054187,32.2828412102362],[-106.747165650151,32.2830144213294],[-106.747246801259,32.2830605771281],[-106.747346369626,32.2830418907726],[-106.747281682841,32.2827931648],[-106.747723231753,32.2827102929511],[-106.747718485055,32.2826920416921],[-106.747757032662,32.2826848063488],[-106.74776177936,32.2827030576093],[-106.74801835168,32.2826549019787],[-106.748019135011,32.2826579124659],[-106.748060350614,32.2826501773972],[-106.748039164746,32.2825665330492],[-106.748082345864,32.2825531263425],[-106.748148046847,32.2825407957855],[-106.748143873274,32.2825247446422],[-106.748438354499,32.2824694758293],[-106.748539563191,32.2828532286162],[-106.748540803764,32.28286843139],[-106.748450002055,32.2828862595971],[-106.74846111152,32.282939240679],[-106.748477255144,32.2829588794114],[-106.74827781388,32.2829989702386],[-106.748284341039,32.2830240694312],[-106.74828567324,32.2830231801108],[-106.748287043171,32.2830223310414],[-106.748288446339,32.283021523742],[-106.748289882746,32.283020757453],[-106.748291347898,32.2830200352125],[-106.748292843593,32.2830193555013],[-106.748294365339,32.2830187213573],[-106.748295912238,32.2830181327806],[-106.748297482493,32.28301759129],[-106.748299074308,32.2830170953666],[-106.748300685885,32.2830166480482],[-106.748302314531,32.2830162478161],[-106.748303958448,32.2830158961889],[-106.74830561584,32.2830155939262],[-106.748307284909,32.2830153410281],[-106.748308962064,32.2830151374945],[-106.748310648202,32.2830149840848],[-106.748312338831,32.2830148807991],[-106.748314033054,32.2830148283967],[-106.748315729073,32.2830148253589],[-106.748317423296,32.2830148724451],[-106.748319113925,32.2830149704146],[-106.748320800961,32.2830151192675],[-106.748322479014,32.2830153159661],[-106.748324148982,32.2830155643075],[-106.74832580817,32.2830158604945],[-106.748327453884,32.2830162068055],[-106.748329084326,32.2830166017216],[-106.748330696802,32.2830170444831],[-106.748332291312,32.2830175343309],[-106.748333864262,32.2830180712648],[-106.748335414754,32.2830186545254],[-106.748336939195,32.2830192841126],[-106.748338436687,32.2830199585076],[-106.748339906331,32.283020675432],[-106.748341345432,32.2830214371642],[-106.748342752193,32.2830222406664],[-106.748344124819,32.283023085179],[-106.748345463309,32.2830239699427],[-106.748346762273,32.2830248934386],[-106.748348024406,32.283025856426],[-106.748349245216,32.2830268551077],[-106.748350424704,32.2830278894838],[-106.748351561073,32.2830289580352],[-106.748352651628,32.2830300600026],[-106.748353697267,32.2830311938671],[-106.748354696193,32.2830323573503],[-106.748355645713,32.2830335504521],[-106.748356546723,32.2830347701348],[-106.748357395631,32.2830360163984],[-106.748358194233,32.2830372869644],[-106.748358938936,32.2830385810735],[-106.748359629741,32.2830398956878],[-106.748360266646,32.2830412308074],[-106.748360848755,32.2830425833943],[-106.748361374269,32.2830439519299],[-106.74836184319,32.2830453364138],[-106.748362255516,32.2830467322896],[-106.748362610351,32.283048141076],[-106.748362905897,32.2830495589759],[-106.74836314395,32.2830509844703],[-106.748363322715,32.2830524167998],[-106.748363443089,32.2830538529265],[-106.748363503276,32.283055292091],[-106.748363505073,32.2830567327743],[-106.748363447581,32.2830581711794],[-106.7483633308,32.2830596080654],[-106.748363155628,32.2830610403947],[-106.748362921168,32.2830624674078],[-106.748362628317,32.2830638853075],[-106.748362277076,32.2830652940937],[-106.748361867444,32.2830666922475],[-106.748361402117,32.2830680759717],[-106.748360879297,32.2830694467851],[-106.748360300782,32.2830707993717],[-106.748359666572,32.2830721352503],[-106.748358978462,32.2830734521425],[-106.748358237352,32.2830747462511],[-106.748357441445,32.2830760183354],[-106.748356595232,32.2830772661173],[-106.748355698713,32.2830784873184],[-106.748354751889,32.2830796826979],[-106.748353755657,32.2830808476994],[-106.748352712713,32.2830819830821],[-106.748351623057,32.2830830865678],[-106.748350490281,32.283084157397],[-106.748349313488,32.2830851932913],[-106.748348094474,32.2830861950102],[-106.748346835036,32.2830871587564],[-106.748345536971,32.2830880852894],[-106.748344202074,32.2830889715713],[-106.748342830347,32.2830898183617],[-106.748341425382,32.2830906249011],[-106.748339988976,32.2830913881516],[-106.74833852023,32.2830921088728],[-106.748337023637,32.2830927847862],[-106.748335500094,32.2830934166513],[-106.748333951399,32.2830940029491],[-106.748332380245,32.2830945429204],[-106.748330787532,32.2830950358055],[-106.748329175954,32.2830954808451],[-106.748327546411,32.2830958780391],[-106.748325901595,32.2830962273876],[-106.748324242407,32.2830965266122],[-106.748322574235,32.2830967772317],[-106.748320894386,32.2830969777273],[-106.748319208248,32.2830971280991],[-106.748317517619,32.2830972291064],[-106.748315824294,32.2830972784708],[-106.748314128275,32.2830972792303],[-106.748312434951,32.2830972291064],[-106.748310743423,32.2830971280991],[-106.748309057285,32.2830969784868],[-106.748307379232,32.2830967772317],[-106.748305710163,32.2830965281311],[-106.748304050974,32.2830962273876],[-106.748302407057,32.283095879558],[-106.748300776615,32.283095482364],[-106.748299165037,32.283095036565],[-106.748297572324,32.2830945444393],[-106.748296000273,32.2830940044681],[-106.748294452475,32.2830934181701],[-106.748292928034,32.2830927870645],[-106.748291432339,32.2830921111511],[-106.748289964492,32.28309139043],[-106.74828852629,32.2830906271795],[-106.748287121324,32.2830898206401],[-106.748285749597,32.2830889738497],[-106.7482844147,32.2830880875678],[-106.748283116635,32.2830871610347],[-106.748281856299,32.2830861972885],[-106.748280637285,32.2830851963291],[-106.74827946139,32.2830841604348],[-106.748278327716,32.2830830896056],[-106.748277238958,32.2830819861199],[-106.748276195116,32.2830808507372],[-106.748275199782,32.2830796849763],[-106.74827425206,32.2830784911156],[-106.748273354643,32.2830772691552],[-106.74827250843,32.2830760213733],[-106.748271712522,32.2830747492889],[-106.748270970514,32.2830734544208],[-106.748258048249,32.283075880115],[-106.748267511102,32.2831122640001],[-106.748242178611,32.2831187261861],[-106.748253282686,32.2831548153864],[-106.748259336433,32.2831744943231],[-106.748205460872,32.2831847287051],[-106.748196201936,32.2831655282258],[-106.748179647782,32.2831312039984],[-106.74813166517,32.2831283317474],[-106.74794377085,32.2831635954189],[-106.747866461836,32.2831786781471],[-106.747851333309,32.2831205093818],[-106.747848204477,32.2831210956795],[-106.747844079413,32.283105245894],[-106.747821975467,32.2831093963053],[-106.747828890698,32.2831359809571],[-106.747776757869,32.2831457657474],[-106.747769952232,32.2831196071516],[-106.747748317207,32.2831236671873],[-106.747752706375,32.2831405528633],[-106.74774990453,32.2831410784046],[-106.74776416798,32.2831959207555],[-106.747709950161,32.2832074743037],[-106.747683043822,32.2832125269396],[-106.747429021819,32.2832602000222],[-106.74741061444,32.2831910245659],[-106.747386908798,32.283195473438],[-106.747383976697,32.2831842001263],[-106.747360502821,32.2830939452307]]]}},{"type":"Feature","properties":{"id":"food-527482","category":"food","name":"Wild Blue Modern Japanese Kitchen"},"geometry":{"type":"Polygon","coordinates":[[[-106.747360502821,32.2830939452307],[-106.747260320904,32.2831127485312],[-106.747269011206,32.2831461637007],[-106.747235647776,32.2831524246293],[-106.747286584948,32.2833488226919],[-106.747132492435,32.2833776628426],[-106.747087463483,32.2833797589269],[-106.747063936606,32.2833758697791],[-106.747042421057,32.2833657523741],[-106.747022184708,32.2833524361601],[-106.747006300697,32.2833357168434],[-106.746997160339,32.2833214520704],[-106.746990617011,32.2833063549362],[-106.746952479035,32.2831685348988],[-106.747028222285,32.2831544257872],[-106.746937506815,32.282802972411],[-106.7469341022,32.2827691697925],[-106.746936927401,32.282743861679],[-106.74694596086,32.2827192142855],[-106.746955404848,32.282701386805],[-106.746968950545,32.2826856812429],[-106.746988114304,32.2826693119129],[-106.747008733335,32.2826543194753],[-106.747019431372,32.2826476795433],[-106.747031204692,32.282642847878],[-106.747088612429,32.2826285457825],[-106.747562188077,32.2825405550374],[-106.747598569846,32.2826818581381],[-106.747182288746,32.2827592011732],[-106.747151670568,32.282800205714],[-106.747121054187,32.2828412102362],[-106.747165650151,32.2830144213294],[-106.747246801259,32.2830605771281],[-106.747346369626,32.2830418907726],[-106.747281682841,32.2827931648],[-106.747723231753,32.2827102929511],[-106.747718485055,32.2826920416921],[-106.747757032662,32.2826848063488],[-106.74776177936,32.2827030576093],[-106.74801835168,32.2826549019787],[-106.748019135011,32.2826579124659],[-106.748060350614,32.2826501773972],[-106.748039164746,32.2825665330492],[-106.748082345864,32.2825531263425],[-106.748148046847,32.2825407957855],[-106.748143873274,32.2825247446422],[-106.748438354499,32.2824694758293],[-106.748539563191,32.2828532286162],[-106.748540803764,32.28286843139],[-106.748450002055,32.2828862595971],[-106.74846111152,32.282939240679],[-106.748477255144,32.2829588794114],[-106.74827781388,32.2829989702386],[-106.748284341039,32.2830240694312],[-106.74828567324,32.2830231801108],[-106.748287043171,32.2830223310414],[-106.748288446339,32.283021523742],[-106.748289882746,32.283020757453],[-106.748291347898,32.2830200352125],[-106.748292843593,32.2830193555013],[-106.748294365339,32.2830187213573],[-106.748295912238,32.2830181327806],[-106.748297482493,32.28301759129],[-106.748299074308,32.2830170953666],[-106.748300685885,32.2830166480482],[-106.748302314531,32.2830162478161],[-106.748303958448,32.2830158961889],[-106.74830561584,32.2830155939262],[-106.748307284909,32.2830153410281],[-106.748308962064,32.2830151374945],[-106.748310648202,32.2830149840848],[-106.748312338831,32.2830148807991],[-106.748314033054,32.2830148283967],[-106.748315729073,32.2830148253589],[-106.748317423296,32.2830148724451],[-106.748319113925,32.2830149704146],[-106.748320800961,32.2830151192675],[-106.748322479014,32.2830153159661],[-106.748324148982,32.2830155643075],[-106.74832580817,32.2830158604945],[-106.748327453884,32.2830162068055],[-106.748329084326,32.2830166017216],[-106.748330696802,32.2830170444831],[-106.748332291312,32.2830175343309],[-106.748333864262,32.2830180712648],[-106.748335414754,32.2830186545254],[-106.748336939195,32.2830192841126],[-106.748338436687,32.2830199585076],[-106.748339906331,32.283020675432],[-106.748341345432,32.2830214371642],[-106.748342752193,32.2830222406664],[-106.748344124819,32.283023085179],[-106.748345463309,32.2830239699427],[-106.748346762273,32.2830248934386],[-106.748348024406,32.283025856426],[-106.748349245216,32.2830268551077],[-106.748350424704,32.2830278894838],[-106.748351561073,32.2830289580352],[-106.748352651628,32.2830300600026],[-106.748353697267,32.2830311938671],[-106.748354696193,32.2830323573503],[-106.748355645713,32.2830335504521],[-106.748356546723,32.2830347701348],[-106.748357395631,32.2830360163984],[-106.748358194233,32.2830372869644],[-106.748358938936,32.2830385810735],[-106.748359629741,32.2830398956878],[-106.748360266646,32.2830412308074],[-106.748360848755,32.2830425833943],[-106.748361374269,32.2830439519299],[-106.74836184319,32.2830453364138],[-106.748362255516,32.2830467322896],[-106.748362610351,32.283048141076],[-106.748362905897,32.2830495589759],[-106.74836314395,32.2830509844703],[-106.748363322715,32.2830524167998],[-106.748363443089,32.2830538529265],[-106.748363503276,32.283055292091],[-106.748363505073,32.2830567327743],[-106.748363447581,32.2830581711794],[-106.7483633308,32.2830596080654],[-106.748363155628,32.2830610403947],[-106.748362921168,32.2830624674078],[-106.748362628317,32.2830638853075],[-106.748362277076,32.2830652940937],[-106.748361867444,32.2830666922475],[-106.748361402117,32.2830680759717],[-106.748360879297,32.2830694467851],[-106.748360300782,32.2830707993717],[-106.748359666572,32.2830721352503],[-106.748358978462,32.2830734521425],[-106.748358237352,32.2830747462511],[-106.748357441445,32.2830760183354],[-106.748356595232,32.2830772661173],[-106.748355698713,32.2830784873184],[-106.748354751889,32.2830796826979],[-106.748353755657,32.2830808476994],[-106.748352712713,32.2830819830821],[-106.748351623057,32.2830830865678],[-106.748350490281,32.283084157397],[-106.748349313488,32.2830851932913],[-106.748348094474,32.2830861950102],[-106.748346835036,32.2830871587564],[-106.748345536971,32.2830880852894],[-106.748344202074,32.2830889715713],[-106.748342830347,32.2830898183617],[-106.748341425382,32.2830906249011],[-106.748339988976,32.2830913881516],[-106.74833852023,32.2830921088728],[-106.748337023637,32.2830927847862],[-106.748335500094,32.2830934166513],[-106.748333951399,32.2830940029491],[-106.748332380245,32.2830945429204],[-106.748330787532,32.2830950358055],[-106.748329175954,32.2830954808451],[-106.748327546411,32.2830958780391],[-106.748325901595,32.2830962273876],[-106.748324242407,32.2830965266122],[-106.748322574235,32.2830967772317],[-106.748320894386,32.2830969777273],[-106.748319208248,32.2830971280991],[-106.748317517619,32.2830972291064],[-106.748315824294,32.2830972784708],[-106.748314128275,32.2830972792303],[-106.748312434951,32.2830972291064],[-106.748310743423,32.2830971280991],[-106.748309057285,32.2830969784868],[-106.748307379232,32.2830967772317],[-106.748305710163,32.2830965281311],[-106.748304050974,32.2830962273876],[-106.748302407057,32.283095879558],[-106.748300776615,32.283095482364],[-106.748299165037,32.283095036565],[-106.748297572324,32.2830945444393],[-106.748296000273,32.2830940044681],[-106.748294452475,32.2830934181701],[-106.748292928034,32.2830927870645],[-106.748291432339,32.2830921111511],[-106.748289964492,32.28309139043],[-106.74828852629,32.2830906271795],[-106.748287121324,32.2830898206401],[-106.748285749597,32.2830889738497],[-106.7482844147,32.2830880875678],[-106.748283116635,32.2830871610347],[-106.748281856299,32.2830861972885],[-106.748280637285,32.2830851963291],[-106.74827946139,32.2830841604348],[-106.748278327716,32.2830830896056],[-106.748277238958,32.2830819861199],[-106.748276195116,32.2830808507372],[-106.748275199782,32.2830796849763],[-106.74827425206,32.2830784911156],[-106.748273354643,32.2830772691552],[-106.74827250843,32.2830760213733],[-106.748271712522,32.2830747492889],[-106.748270970514,32.2830734544208],[-106.748258048249,32.283075880115],[-106.748267511102,32.2831122640001],[-106.748242178611,32.2831187261861],[-106.748253282686,32.2831548153864],[-106.748259336433,32.2831744943231],[-106.748205460872,32.2831847287051],[-106.748196201936,32.2831655282258],[-106.748179647782,32.2831312039984],[-106.74813166517,32.2831283317474],[-106.74794377085,32.2831635954189],[-106.747866461836,32.2831786781471],[-106.747851333309,32.2831205093818],[-106.747848204477,32.2831210956795],[-106.747844079413,32.283105245894],[-106.747821975467,32.2831093963053],[-106.747828890698,32.2831359809571],[-106.747776757869,32.2831457657474],[-106.747769952232,32.2831196071516],[-106.747748317207,32.2831236671873],[-106.747752706375,32.2831405528633],[-106.74774990453,32.2831410784046],[-106.74776416798,32.2831959207555],[-106.747709950161,32.2832074743037],[-106.747683043822,32.2832125269396],[-106.747429021819,32.2832602000222],[-106.74741061444,32.2831910245659],[-106.747386908798,32.283195473438],[-106.747383976697,32.2831842001263],[-106.747360502821,32.2830939452307]]]}},{"type":"Feature","properties":{"id":"food-527458","category":"food","name":"Bookstore Cafe"},"geometry":{"type":"Polygon","coordinates":[[[-106.75005727405,32.2849858260135],[-106.750079095925,32.2849568716992],[-106.750048180404,32.284940058508],[-106.750003223317,32.2847659367277],[-106.750023015898,32.2847396753154],[-106.749988932918,32.2847211381561],[-106.750039560171,32.2846539672174],[-106.750073643151,32.2846725043904],[-106.750093435731,32.2846462421917],[-106.750553117137,32.2845605955201],[-106.750623422884,32.2848328812708],[-106.750603629405,32.284859142656],[-106.750637712386,32.2848776790277],[-106.75058708693,32.2849448505602],[-106.750553003051,32.2849263142022],[-106.750533209572,32.2849525763198],[-106.75018908475,32.2850166918219],[-106.750158170127,32.2849998778824],[-106.750136348253,32.2850288314235],[-106.75005727405,32.2849858260135]]]}},{"type":"Feature","properties":{"id":"food-527474","category":"food","name":"Panda Express"},"geometry":{"type":"Polygon","coordinates":[[[-106.75005727405,32.2849858260135],[-106.750079095925,32.2849568716992],[-106.750048180404,32.284940058508],[-106.750003223317,32.2847659367277],[-106.750023015898,32.2847396753154],[-106.749988932918,32.2847211381561],[-106.750039560171,32.2846539672174],[-106.750073643151,32.2846725043904],[-106.750093435731,32.2846462421917],[-106.750553117137,32.2845605955201],[-106.750623422884,32.2848328812708],[-106.750603629405,32.284859142656],[-106.750637712386,32.2848776790277],[-106.75058708693,32.2849448505602],[-106.750553003051,32.2849263142022],[-106.750533209572,32.2849525763198],[-106.75018908475,32.2850166918219],[-106.750158170127,32.2849998778824],[-106.750136348253,32.2850288314235],[-106.75005727405,32.2849858260135]]]}},{"type":"Feature","properties":{"id":"food-527490","category":"food","name":"Alma's Kitchen"},"geometry":{"type":"Polygon","coordinates":[[[-106.750504513789,32.2812924306157],[-106.750460870039,32.2812998194825],[-106.750450928384,32.2812572512771],[-106.750408497359,32.2812643773707],[-106.750397727458,32.2812181188892],[-106.750375905583,32.281221727126],[-106.750358914847,32.2811476606503],[-106.750422359263,32.2811369301047],[-106.750418211741,32.2811182190498],[-106.750654208149,32.2810783704216],[-106.75066787422,32.2811363863244],[-106.750725256803,32.2811267099215],[-106.750740171532,32.2811909048347],[-106.750678343186,32.2812013725976],[-106.750696157676,32.2812779262886],[-106.750810517704,32.2812586600914],[-106.750822534467,32.2813108408851],[-106.750520668192,32.2813617753624],[-106.750504513789,32.2812924306157]]]}},{"type":"Feature","properties":{"id":"food-527488","category":"food","name":"Coffee Haus"},"geometry":{"type":"Polygon","coordinates":[[[-106.750504513789,32.2812924306157],[-106.750460870039,32.2812998194825],[-106.750450928384,32.2812572512771],[-106.750408497359,32.2812643773707],[-106.750397727458,32.2812181188892],[-106.750375905583,32.281221727126],[-106.750358914847,32.2811476606503],[-106.750422359263,32.2811369301047],[-106.750418211741,32.2811182190498],[-106.750654208149,32.2810783704216],[-106.75066787422,32.2811363863244],[-106.750725256803,32.2811267099215],[-106.750740171532,32.2811909048347],[-106.750678343186,32.2812013725976],[-106.750696157676,32.2812779262886],[-106.750810517704,32.2812586600914],[-106.750822534467,32.2813108408851],[-106.750520668192,32.2813617753624],[-106.750504513789,32.2812924306157]]]}},{"type":"Feature","properties":{"id":"food-568589","category":"food","name":"Gila Grill"},"geometry":{"type":"Polygon","coordinates":[[[-106.75159159925,32.2835469640251],[-106.751525714112,32.2835590339542],[-106.751550089897,32.2836550571581],[-106.75161657511,32.2836428771218],[-106.751687660595,32.2839254675171],[-106.751520769785,32.2839557367617],[-106.751507316615,32.283901411294],[-106.751472399998,32.2839076843216],[-106.751434245853,32.2837555678369],[-106.751390798834,32.2837634319173],[-106.751357147046,32.2836285668301],[-106.751410179088,32.2836188937309],[-106.751299531798,32.2832368848478],[-106.751354298488,32.2832254391455],[-106.751337399381,32.283160834049],[-106.751384007571,32.2831519697171],[-106.751433970969,32.2831421196144],[-106.751481808054,32.2831336782959],[-106.751498042408,32.2832000742004],[-106.751558939201,32.2831895178123],[-106.751605022775,32.2833701093441],[-106.751549832081,32.2833800771368],[-106.751556661074,32.2834073619227],[-106.75159159925,32.2835469640251]]]}},{"type":"Feature","properties":{"id":"food-527456","category":"food","name":"Einstein Bros Bagels (Health and Social Services)"},"geometry":{"type":"Polygon","coordinates":[[[-106.75159159925,32.2835469640251],[-106.751525714112,32.2835590339542],[-106.751550089897,32.2836550571581],[-106.75161657511,32.2836428771218],[-106.751687660595,32.2839254675171],[-106.751520769785,32.2839557367617],[-106.751507316615,32.283901411294],[-106.751472399998,32.2839076843216],[-106.751434245853,32.2837555678369],[-106.751390798834,32.2837634319173],[-106.751357147046,32.2836285668301],[-106.751410179088,32.2836188937309],[-106.751299531798,32.2832368848478],[-106.751354298488,32.2832254391455],[-106.751337399381,32.283160834049],[-106.751384007571,32.2831519697171],[-106.751433970969,32.2831421196144],[-106.751481808054,32.2831336782959],[-106.751498042408,32.2832000742004],[-106.751558939201,32.2831895178123],[-106.751605022775,32.2833701093441],[-106.751549832081,32.2833800771368],[-106.751556661074,32.2834073619227],[-106.75159159925,32.2835469640251]]]}},{"type":"Feature","properties":{"id":"food-527460","category":"food","name":"Zuhl Fuel"},"geometry":{"type":"Polygon","coordinates":[[[-106.749423076934,32.2816182335826],[-106.749335805604,32.2816359298885],[-106.749265680418,32.2813868355157],[-106.749295175702,32.2813809633126],[-106.749274965405,32.2813095725733],[-106.749875349035,32.2811872776099],[-106.749888954918,32.2812343844339],[-106.749833603425,32.281245599509],[-106.749842270371,32.2812771766933],[-106.750018425507,32.2812413457246],[-106.750088965715,32.2814916434922],[-106.749933817682,32.2815232676778],[-106.749958153941,32.2816093303671],[-106.749870077721,32.2816272886903],[-106.749865951759,32.2816126173345],[-106.749445760293,32.2816981194539],[-106.749423076934,32.2816182335826]]]}},{"type":"Feature","properties":{"id":"food-527478","category":"food","name":"Subway"},"geometry":{"type":"Polygon","coordinates":[[[-106.751660184724,32.2794512526431],[-106.751597151737,32.2794630132479],[-106.751576490485,32.2793833783162],[-106.75155184251,32.2793880301574],[-106.751501014035,32.27919194554],[-106.751522024731,32.2791880820351],[-106.751500948458,32.2791066453598],[-106.751568425411,32.2790940067422],[-106.751562636667,32.2790708370778],[-106.751668497733,32.2790510888969],[-106.751674283782,32.2790734003461],[-106.751741759836,32.2790607632428],[-106.751750852583,32.2790960307743],[-106.751827622608,32.2790817243221],[-106.751810673195,32.2790153891996],[-106.751886635634,32.2790011715948],[-106.751913503345,32.2791059504296],[-106.752482410008,32.2789999191999],[-106.752486352714,32.2790151165437],[-106.752503303923,32.2790121993526],[-106.752498526683,32.2789920030612],[-106.75257496433,32.2789787948119],[-106.752554791762,32.2788990394559],[-106.752782403296,32.2788633936226],[-106.75289415731,32.2793028319327],[-106.752675824475,32.2793454686495],[-106.752671991364,32.2793297078234],[-106.752372077128,32.2793881866112],[-106.752349133258,32.2792976871813],[-106.752358075088,32.2792957421402],[-106.752353983262,32.2792811706592],[-106.752032901125,32.2793410195886],[-106.752046121631,32.2793911341695],[-106.752010160273,32.2793978047193],[-106.751996109724,32.2793435706975],[-106.751830850254,32.2793743791864],[-106.75184118627,32.2794149698196],[-106.751768052626,32.2794285752156],[-106.751773843167,32.2794517463075],[-106.751665555751,32.2794719333827],[-106.751660184724,32.2794512526431]]]}},{"type":"Feature","properties":{"id":"food-la-jefa","category":"food","name":"La Jefa"},"geometry":{"type":"Polygon","coordinates":[[[-106.756415542444,32.2813257469655],[-106.75645151548,32.2813212212953],[-106.75642003941,32.2811890585652],[-106.756381224105,32.2811917918947],[-106.75636871776,32.2811248393476],[-106.756398216637,32.2811194790102],[-106.756398047754,32.2810889855347],[-106.756803295745,32.2810097910046],[-106.756777563504,32.2808193641644],[-106.756878045458,32.280798421714],[-106.756942071982,32.2809440344905],[-106.756953410517,32.2809465650486],[-106.756962116989,32.2809847565692],[-106.757377459349,32.2809022544495],[-106.757386550299,32.2809370093813],[-106.75752995825,32.2809042192025],[-106.757596191934,32.2811766921277],[-106.757451524546,32.2812009822305],[-106.757462269295,32.2812421720266],[-106.757352363115,32.2812622850349],[-106.757349464251,32.2812501836619],[-106.75704560731,32.2813056947288],[-106.757049729679,32.2813195945147],[-106.756894582544,32.2813507121953],[-106.756893314123,32.2813410958131],[-106.756584167003,32.2813911287855],[-106.75658828488,32.2814041696007],[-106.756442003219,32.2814290664569],[-106.756415542444,32.2813257469655]]]}},{"type":"Feature","properties":{"id":"food-527476","category":"food","name":"1888 Taphouse & Kitchen"},"geometry":{"type":"Polygon","coordinates":[[[-106.725460599375,32.2864892611091],[-106.725589194106,32.2863510282244],[-106.725564010735,32.2863311077201],[-106.72561471165,32.286279806193],[-106.725646784201,32.2863022768624],[-106.725785597268,32.2861607037304],[-106.725842028536,32.2862000914315],[-106.725852086972,32.2861898308098],[-106.725886188817,32.2862134975992],[-106.725875328185,32.2862250484847],[-106.726012138908,32.2863197983457],[-106.725874538566,32.2864611958021],[-106.725927611033,32.2864997950898],[-106.725905558291,32.2865261030767],[-106.725884418238,32.2865425742328],[-106.725913468856,32.2865629526235],[-106.725781024844,32.2866962185584],[-106.725783956945,32.2867035842024],[-106.725771482939,32.2867167442426],[-106.725629834788,32.2866069073248],[-106.725634826726,32.2865976043826],[-106.725592429838,32.2865688647405],[-106.72558550742,32.2865756631051],[-106.725460599375,32.2864892611091]]]}},{"type":"Feature","properties":{"id":"food-westside-bistro","category":"food","name":"Westside Bistro"},"geometry":{"type":"Polygon","coordinates":[[[-106.756415542444,32.2813257469655],[-106.75645151548,32.2813212212953],[-106.75642003941,32.2811890585652],[-106.756381224105,32.2811917918947],[-106.75636871776,32.2811248393476],[-106.756398216637,32.2811194790102],[-106.756398047754,32.2810889855347],[-106.756803295745,32.2810097910046],[-106.756777563504,32.2808193641644],[-106.756878045458,32.280798421714],[-106.756942071982,32.2809440344905],[-106.756953410517,32.2809465650486],[-106.756962116989,32.2809847565692],[-106.757377459349,32.2809022544495],[-106.757386550299,32.2809370093813],[-106.75752995825,32.2809042192025],[-106.757596191934,32.2811766921277],[-106.757451524546,32.2812009822305],[-106.757462269295,32.2812421720266],[-106.757352363115,32.2812622850349],[-106.757349464251,32.2812501836619],[-106.75704560731,32.2813056947288],[-106.757049729679,32.2813195945147],[-106.756894582544,32.2813507121953],[-106.756893314123,32.2813410958131],[-106.756584167003,32.2813911287855],[-106.75658828488,32.2814041696007],[-106.756442003219,32.2814290664569],[-106.756415542444,32.2813257469655]]]}}]}